Postal Code,Place Name,State,Latitude,Longitude
3636,"POZO CERCADO (EL CHORRO (F), DPTO. RIVADAVIA (S))",SALTA,-23.4933,-61.9267
4123,LAS SALADAS,SALTA,-25.7833,-64.5
4126,EL BRETE,SALTA,-26.0667,-65.3667
4141,LA CIENEGUITA,SALTA,-26.4367,-65.97
4190,AGUAS CALIENTES,SALTA,-25.8,-65.0333
4191,SAN PEDRO DE LOS CORRALES,SALTA,-25.9689,-64.6583
4193,PUENTE DE PLATA,SALTA,-25.95,-64.7167
4198,"CAMARA (ARENAL, DPTO. ROSARIO DE LA FRONTERA)",SALTA,-25.7833,-65.0417
4400,CHAMICAL,SALTA,-24.8056,-65.3417
4401,VAQUEROS,SALTA,-24.7167,-65.4167
4403,CEBADOS,SALTA,-25.5,-65.2917
4405,EL PORVENIR,SALTA,-25.3833,-64.6667
4407,LA SILLETA,SALTA,-24.8667,-65.5833
4409,SAN BERNARDO DE LAS ZORRAS,SALTA,-24.5485,-65.8803
4411,NACIMIENTOS,SALTA,-24.1367,-66.51
4413,SALAR DE POCITOS,SALTA,-24.3333,-67.0167
4415,VILLITAS,SALTA,-24.9881,-66.0048
4417,CACHI ADENTRO,SALTA,-25.0833,-66.2333
4419,LA PAYA,SALTA,-25.15,-66.2333
4421,EL CARRIL,SALTA,-25.0833,-65.4667
4423,EL MOYAR,SALTA,-25.0917,-65.5458
4425,CASTAÑARES,SALTA,-25.5426,-65.4481
4427,ANGASTACO,SALTA,-25.6333,-66.1833
4430,AGUA CALIENTE,SALTA,-24.6167,-64.8833
4431,TACA TACA (ESTACION FCGB),SALTA,-24.8492,-64.8348
4432,GALLINATO,SALTA,-24.6708,-65.1708
4434,"EL NARANJO (PASO DE LA CRUZ, DPTO. ANTA)",SALTA,-24.9229,-64.7448
4440,VERA CRUZ,SALTA,-25.3583,-65.2292
4441,METAN VIEJO,SALTA,-25.5333,-64.9667
4444,FINCA ROCCA,SALTA,-25.3833,-64.6333
4446,"ALGARROBAL (CHAÑAR MUYO, DPTO. ANTA)",SALTA,-25.2095,-64.2929
4448,SAUCE SOLO,SALTA,-25.0083,-64.2
4449,"EL BORDO (APOLINARIO SARAVIA, DPTO. ANTA)",SALTA,-24.4718,-64.0782
4452,TALAVERA,SALTA,-25.4333,-63.8
4530,PARANI,SALTA,-23.2333,-64.9
4531,COLONIA SANTA ROSA,SALTA,-23.3667,-64.5
4533,ANGELICA,SALTA,-23.2667,-64.25
4534,EL QUIMILAR,SALTA,-23.3167,-63.95
4535,ALTO VERDE,SALTA,-23.9533,-63.12
4537,JERONIMO MATORRAS (ESTACION FCGB),SALTA,-23.8,-64.0792
4538,FINCA LA TOMA,SALTA,-23.4333,-64.35
4542,EL CULCO,SALTA,-23.55,-64.4167
4550,COLONIA OTOMANA,SALTA,-23.3611,-63.8111
4552,GENERAL BALLIVIAN,SALTA,-22.9333,-63.8667
4554,MONTE CARMELO,SALTA,-23.4143,-63.2167
4560,VILLA SAAVEDRA,SALTA,-22.3655,-63.4976
4561,AMBERES,SALTA,-22.5167,-62.5333
4562,GENERAL ENRIQUE MOSCONI,SALTA,-22.6,-63.8167
4563,CAMPAMENTO VESPUCIO,SALTA,-22.3655,-63.4976
4564,PIQUIRENDA,SALTA,-22.3333,-63.7833
4566,CAMPO DURAN,SALTA,-22.2333,-63.7
4568,ACAMBUCO,SALTA,-22.1833,-63.95
4633,SAN ANTONIO DE IRUYA,SALTA,-22.425,-65.5583
4644,BACOYA,SALTA,-22.3818,-65.5788
4650,NUEVO PORVENIR,SALTA,-22.1,-65.7333
4651,SAN FRANCISCO,SALTA,-22.2139,-65.2528
1601,ISLA MARTIN GARCIA,BUENOS AIRES,-34.5167,-58.5389
1602,FLORIDA,BUENOS AIRES,-34.5167,-58.5
1605,MUNRO,BUENOS AIRES,-34.5333,-58.55
1607,BARRIO OBRERO FERROVIARIO,BUENOS AIRES,-34.5167,-58.5389
1609,BOULOGNE ESTAFETA No.1,BUENOS AIRES,-34.5,-58.5667
1611,SOLANA DEL MONTE,BUENOS AIRES,-34.5,-58.6333
1612,KILOMETRO 30,BUENOS AIRES,-34.4696,-58.6713
1613,LOS POLVORINES,BUENOS AIRES,-34.5,-58.6833
1615,GRAND BOURG,BUENOS AIRES,-34.4833,-58.7167
1617,BARRIO EL ZORZAL,BUENOS AIRES,-34.4602,-58.6345
1619,GARIN,BUENOS AIRES,-34.4233,-58.7619
1621,LOS SANTOS VIEJOS,BUENOS AIRES,-34.4094,-58.7094
1623,BARRIO GARIN NORTE,BUENOS AIRES,-34.3676,-58.7325
1625,BELEN DE ESCOBAR,BUENOS AIRES,-34.3467,-58.8186
1627,MATHEU,BUENOS AIRES,-34.3831,-58.8489
1629,PILAR,BUENOS AIRES,-34.4836,-58.9319
1633,MANZONE,BUENOS AIRES,-34.4833,-58.8667
1635,"KILOMETRO 45 (APEADERO FCGU., PTE. DERQUI, PDO. PILAR)",BUENOS AIRES,-34.4972,-58.8636
1636,LA LUCILA,BUENOS AIRES,-34.5,-58.4833
1640,MARTINEZ ESTAFETA No.5,BUENOS AIRES,-34.4833,-58.5083
1642,SAN ISIDRO,BUENOS AIRES,-34.4708,-58.5286
1643,BECCAR,BUENOS AIRES,-34.4667,-58.5333
1644,DOCTOR ALBERT SCHWEITZER (PARADA FCGM),BUENOS AIRES,-34.3553,-58.5427
1646,SAN FERNANDO,BUENOS AIRES,-34.4442,-58.5775
1647,RIO PARANA GUAZU,BUENOS AIRES,-33.7833,-58.6
1648,NUEVO PUERTO TIGRE,BUENOS AIRES,-34.3553,-58.5427
1649,ARROYO ESPERA GRANDE,BUENOS AIRES,-34.3553,-58.5427
1650,SAN MARTIN (PDO. GRAL. SAN MARTIN),BUENOS AIRES,-34.5417,-58.5583
1651,SAN ANDRES,BUENOS AIRES,-34.55,-58.5333
1655,JOSE LEON SUAREZ,BUENOS AIRES,-34.5333,-58.5833
1657,BARRIO VILLA MARIA DE LOS REMEDIOS DE ESCALADA,BUENOS AIRES,-34.5417,-58.5583
1659,BARRIO DE SUBOFICIALES SARGENTO CABRAL (APEADERO F.C.G.U.),BUENOS AIRES,-34.5417,-58.5583
1661,"BARRIO JORGE NEWBERY (BELLA VISTA, PDO. GRAL. SARMIENTO)",BUENOS AIRES,-34.5096,-58.7618
1663,SAN MIGUEL ESTAFETA Nº6,BUENOS AIRES,-34.5326,-58.753
1664,BARRIO VILLA MANUELITA,BUENOS AIRES,-34.5096,-58.7618
1665,BARRIO SAN LUIS,BUENOS AIRES,-34.5,-58.75
1667,"RUTA 8 KILOMETRO 37,500 AL 41",BUENOS AIRES,-34.5096,-58.7618
1669,"LA LOMA (DEL VISO, PDO.GRAL.SARMIENTO)",BUENOS AIRES,-34.45,-58.8
1672,CORONEL FRANCISCO LINCH,BUENOS AIRES,-34.6,-58.5333
1674,SAENZ PEÑA,BUENOS AIRES,-34.6,-58.5333
1676,ALIANZA TALLERES,BUENOS AIRES,-34.6,-58.5333
1678,CASEROS SUCURSAL No.1,BUENOS AIRES,-34.6,-58.5333
1682,MARTIN CORONADO,BUENOS AIRES,-34.5708,-58.6243
1684,EL PALOMAR ESTAFETA No.1,BUENOS AIRES,-34.5417,-58.6153
1686,BARRIO PARQUE QUIRNO,BUENOS AIRES,-34.6,-58.6333
1688,SANTOS TESEI,BUENOS AIRES,-34.5708,-58.6243
1702,CIUDADELA ESTAFETA No.1,BUENOS AIRES,-34.6333,-58.5333
1704,RAMOS MEJIA,BUENOS AIRES,-34.6333,-58.5667
1706,HAEDO,BUENOS AIRES,-34.6333,-58.6
1708,MORON,BUENOS AIRES,-34.6425,-58.6181
1712,CASTELAR,BUENOS AIRES,-34.6667,-58.6667
1713,PARQUE LELOIR,BUENOS AIRES,-34.675,-58.6792
1714,BARRIO VILLA ALBERDI,BUENOS AIRES,-34.6667,-58.6667
1716,LIBERTAD,BUENOS AIRES,-34.7,-58.6833
1718,SAN ANTONIO DE PADUA,BUENOS AIRES,-34.6667,-58.7
1722,BARRIO PARQUE SAN MARTIN,BUENOS AIRES,-34.67,-58.7528
1723,MARIANO ACOSTA,BUENOS AIRES,-34.7261,-58.7908
1727,COLONIA HOGAR RICARDO GUTIERREZ,BUENOS AIRES,-34.85,-58.85
1733,PLOMER,BUENOS AIRES,-34.8,-59.0333
1735,EL DURAZNO,BUENOS AIRES,-34.8465,-59.0015
1737,LA CHOZA,BUENOS AIRES,-34.7833,-59.1167
1739,HORNOS,BUENOS AIRES,-34.9014,-58.9281
1741,LOZANO,BUENOS AIRES,-34.85,-59.05
1742,PASO DEL REY ESTAFETA Nº1,BUENOS AIRES,-34.65,-58.7667
1744,LOMAS DE SAN JOSE,BUENOS AIRES,-34.5483,-58.8646
1746,BARRIO LA TRADICION,BUENOS AIRES,-34.6333,-58.8667
1748,EL GRANADERO,BUENOS AIRES,-34.6181,-58.9564
1752,LOMAS DEL MIRADOR,BUENOS AIRES,-34.65,-58.5333
1754,SAN JUSTO,BUENOS AIRES,-34.6831,-58.5519
1755,RAFAEL CASTILLO ESTAFETA Nº2,BUENOS AIRES,-34.7167,-58.6167
1757,"BARRIO JORGE NEWBERY (LAFERRERE, PDO. LA MATANZA)",BUENOS AIRES,-34.75,-58.5833
1759,BARRIO NAHUEL,BUENOS AIRES,-34.7675,-58.6428
1761,"BARRIO EL SOL (PONTEVEDRA, PDO. MERLO",BUENOS AIRES,-34.7517,-58.7117
1763,"BARRIO SAN IGNACIO (VIRREY DEL PINO, PDO. LA MATANZA)",BUENOS AIRES,-34.7172,-58.6094
1765,ISIDRO CASANOVA ESTAFETA No.6,BUENOS AIRES,-34.7,-58.5833
1766,"BARRIO ALMAFUERTE (TABLADA, PDO. LA MATANZA)",BUENOS AIRES,-34.7,-58.5333
1770,TAPIALES,BUENOS AIRES,-34.7,-58.5167
1772,BARRIO VICENTE LOPEZ Y PLANES,BUENOS AIRES,-34.7083,-58.5083
1773,INGENIERO BUDGE,BUENOS AIRES,-34.7167,-58.4667
1776,9 DE ABRIL,BUENOS AIRES,-34.7083,-58.5083
1778,JUSTO VILLEGAS (PARADA FCGB.),BUENOS AIRES,-34.7167,-58.5333
1802,COLONIA LOS CHIVATOS,BUENOS AIRES,-34.8133,-58.4753
1804,EZEIZA,BUENOS AIRES,-34.8381,-58.5172
1806,BARRIO LUJAN,BUENOS AIRES,-34.8428,-58.5044
1807,BARRIO STELLA MARIS,BUENOS AIRES,-34.8428,-58.5044
1808,ALEJANDRO PETION (APEADERO FCGR),BUENOS AIRES,-34.8428,-58.5044
1812,CARLOS SPEGAZZINI,BUENOS AIRES,-34.9333,-58.6167
1814,LA NORIA,BUENOS AIRES,-35.1667,-58.8
1815,"KILOMETRO 88 (APEADERO FCGR.,URIBELARREA, PDO.LOBOS)",BUENOS AIRES,-35.049,-58.7221
1816,LOS AROMOS,BUENOS AIRES,-35.049,-58.7221
1822,"BARRIO MARIANO MORENO (VALENTIN ALSINA, PDO. LANUS)",BUENOS AIRES,-34.7,-58.4417
1824,LANUS ESTAFETA No.9,BUENOS AIRES,-34.7153,-58.4078
1825,A. A. FERNANDEZ,BUENOS AIRES,-34.7167,-58.3333
1826,REMEDIOS DE ESCALADA ESTAFETA Nº1,BUENOS AIRES,-34.7333,-58.3833
1828,BARRIO VILLA MAIPU,BUENOS AIRES,-34.75,-58.4
1832,LOMAS DE ZAMORA,BUENOS AIRES,-34.7667,-58.4
1834,PASCO (APEADERO FCGB),BUENOS AIRES,-34.7833,-58.4
1836,"SANTA CATALINA (ESTACION FCDFS, LLAVALLOL, PDO. L.DE ZAMORA)",BUENOS AIRES,-34.7833,-58.4333
1838,LUIS GUILLON,BUENOS AIRES,-34.8,-58.45
1842,BARRIO VILLA MARIA,BUENOS AIRES,-34.815,-58.4792
1846,JOSE MARMOL,BUENOS AIRES,-34.7833,-58.3833
1847,BARRIO ZABALA,BUENOS AIRES,-34.8,-58.3667
1848,LAS MALVINAS (PARADA FCDFS.),BUENOS AIRES,-34.795,-58.3861
1849,BARRIO LAS TUNAS,BUENOS AIRES,-34.8,-58.3333
1852,BARRIO DOÑA SOL,BUENOS AIRES,-34.8333,-58.3833
1854,LONGCHAMPS,BUENOS AIRES,-34.8517,-58.3964
1856,GLEW,BUENOS AIRES,-34.8881,-58.3842
1858,LA BICHA,BUENOS AIRES,-34.8516,-58.3868
1862,BARRIO SANTA MAGDALENA,BUENOS AIRES,-34.9172,-58.3869
1864,ALEJANDRO KORN,BUENOS AIRES,-34.9828,-58.3825
1865,SAN VICENTE,BUENOS AIRES,-34.9667,-58.3667
1870,BULLRICH,BUENOS AIRES,-34.6506,-58.3822
1871,ISLA MACIEL,BUENOS AIRES,-34.6333,-58.3667
1872,SARANDI,BUENOS AIRES,-34.6667,-58.3333
1874,"LAS QUINTAS (VILLA DOMINICO, PDO.AVELLANEDA)",BUENOS AIRES,-34.6813,-58.3225
1876,DON BOSCO,BUENOS AIRES,-34.7,-58.2833
1878,QUILMES,BUENOS AIRES,-34.7203,-58.2694
1879,BARRIO SAN DOMINGO,BUENOS AIRES,-34.6813,-58.3225
1881,SAN FRANCISCO SOLANO,BUENOS AIRES,-34.7833,-58.3167
1882,EZPELETA,BUENOS AIRES,-34.7667,-58.25
1884,BERAZATEGUI,BUENOS AIRES,-34.7333,-58.2553
1885,BARRIO SNIAFA,BUENOS AIRES,-34.7833,-58.175
1886,BARRIO MARITIMO,BUENOS AIRES,-34.8,-58.2
1888,GOBERNADOR MONTEVERDE,BUENOS AIRES,-34.8,-58.2667
1889,"BARRIO RICARDO ROJAS (EL ROCIO, PDO. FLORENCIO VARELA)",BUENOS AIRES,-34.8167,-58.2333
1890,"RUTA 2 KILOMETRO 32 AL 36,900",BUENOS AIRES,-34.8333,-58.2
1891,INGENIERO JUAN ALLAN,BUENOS AIRES,-34.8667,-58.0911
1893,CENTRO AGRICOLA EL PATO,BUENOS AIRES,-34.8667,-58.0911
1894,DOCTOR RICARDO LEVENE,BUENOS AIRES,-34.8667,-58.0911
1895,ARTURO SEGUI,BUENOS AIRES,-34.8781,-58.1358
1896,CITY BELL,BUENOS AIRES,-34.8589,-58.0542
1897,MANUEL B. GONNET ESTAFETA No.2 REPUBLICA DE LOS NIÑOS,BUENOS AIRES,-34.8644,-58.0178
1900,LA PLATA ESTAFETA No.9,BUENOS AIRES,-34.9314,-57.9489
1901,LISANDRO OLMOS,BUENOS AIRES,-34.9833,-58.0333
1903,SAN PONCIANO,BUENOS AIRES,-34.946,-58.0964
1905,"KILOMETRO 82 (APEADERO FCGR., POBLET, PDO.LA PLATA)",BUENOS AIRES,-35.175,-57.9083
1907,NUEVA HERMOSURA,BUENOS AIRES,-35.0041,-58.0001
1909,IGNACIO CORREAS,BUENOS AIRES,-35.0333,-57.85
1911,GENERAL MANSILLA,BUENOS AIRES,-35.0833,-57.75
1913,JULIO ARDITI,BUENOS AIRES,-35.1333,-57.65
1915,KILOMETRO 103 (APEADERO FCGR),BUENOS AIRES,-35.1667,-57.65
1917,MONTE VELOZ,BUENOS AIRES,-35.45,-57.2833
1919,BASE AERONAVAL DE PUNTA INDIO,BUENOS AIRES,-35.1714,-57.519
1921,LAS TAHONAS,BUENOS AIRES,-35.35,-57.3833
1923,BERISSO,BUENOS AIRES,-34.8667,-57.8833
1925,DESTILERIA FISCAL,BUENOS AIRES,-34.8758,-57.8822
1927,ESCUELA NAVAL MILITAR RIO SANTIAGO,BUENOS AIRES,-35.246,-57.547
1929,ISLA SANTIAGO,BUENOS AIRES,-35.246,-57.547
1931,PIRIA,BUENOS AIRES,-34.8167,-57.9833
1980,BARRIO LA DOLLY,BUENOS AIRES,-35.1942,-58.2567
1981,OLIDEN,BUENOS AIRES,-35.1833,-57.95
1983,GOMEZ DE LA VEGA,BUENOS AIRES,-35.0833,-58.15
1984,DOMSELAAR,BUENOS AIRES,-35.0667,-58.3
1986,JEPPENER,BUENOS AIRES,-35.2833,-58.2
1987,GENERAL PAZ,BUENOS AIRES,-35.5236,-58.2956
2113,ARROYO DEL MEDIO,BUENOS AIRES,-33.5833,-60.7833
2346,ESTINGANA,BUENOS AIRES,-30.1987,-61.9244
2700,FONTEZUELA,BUENOS AIRES,-33.9167,-60.4667
2701,MARIANO BENITEZ,BUENOS AIRES,-33.7167,-60.5833
2703,ROBERTO CANO,BUENOS AIRES,-34.0833,-60.6667
2705,ROJAS,BUENOS AIRES,-34.1953,-60.735
2707,HUNTER,BUENOS AIRES,-34.2333,-60.5833
2709,LOS INDIOS (PDO. ROJAS),BUENOS AIRES,-33.9805,-60.6348
2711,PEARSON,BUENOS AIRES,-33.65,-60.8833
2715,LA VANGUARDIA,BUENOS AIRES,-33.7333,-60.8
2717,JUAN A. DE LA PEÑA,BUENOS AIRES,-33.8333,-60.4833
2718,LIERRA ADJEMIRO,BUENOS AIRES,-33.9333,-60.5667
2720,HARAS EL PELADO,BUENOS AIRES,-33.8914,-61.1097
2721,SARASA,BUENOS AIRES,-34.0333,-61.2
2723,ESTANCIA LAS GAMAS,BUENOS AIRES,-33.7167,-61.05
2740,ARRECIFES,BUENOS AIRES,-34.05,-60.1167
2741,LAS CUATRO PUERTAS,BUENOS AIRES,-34.2989,-60.2419
2743,TACUARI,BUENOS AIRES,-34.2167,-60.3167
2745,LA INVENCIBLE,BUENOS AIRES,-34.2667,-60.3833
2747,INES INDART,BUENOS AIRES,-34.4,-60.55
2751,ALMACEN CASTRO,BUENOS AIRES,-33.7333,-60.1667
2752,RETIRO SAN PABLO,BUENOS AIRES,-34.15,-59.8833
2754,CAMPO CRISOL,BUENOS AIRES,-34.0111,-59.9778
2760,SAN ANTONIO DE ARECO,BUENOS AIRES,-34.25,-59.4667
2761,SANTA COLOMA,BUENOS AIRES,-34.0667,-59.5667
2763,PUESTO DEL MEDIO,BUENOS AIRES,-34.2083,-59.4222
2764,CHENAUT,BUENOS AIRES,-34.25,-59.2167
2800,ARROYO BOTIJA FALSA,BUENOS AIRES,-34.063,-59.0531
2801,ALTO VERDE,BUENOS AIRES,-34.1667,-59.1167
2802,OTAMENDI,BUENOS AIRES,-34.2342,-58.8642
2804,CAMPANA,BUENOS AIRES,-34.1769,-58.9208
2805,ARROYO TAJIBER,BUENOS AIRES,-33.7833,-58.9167
2806,LIMA,BUENOS AIRES,-34.05,-59.2
2808,ATUCHA,BUENOS AIRES,-33.9667,-59.3
2812,CAPILLA,BUENOS AIRES,-34.3,-59.1
2813,ARROYO DE LA CRUZ,BUENOS AIRES,-34.3333,-59.1167
2814,LOS CARDALES,BUENOS AIRES,-34.3394,-59.0133
2900,SAN NICOLAS SUCURSAL Nº1,BUENOS AIRES,-33.3303,-60.2269
2901,LA EMILIA (PDO. SAN NICOLAS),BUENOS AIRES,-33.4961,-60.2787
2903,CAMPOS SALLES,BUENOS AIRES,-33.4,-60.2333
2905,COLONIA LA ALICIA,BUENOS AIRES,-33.4667,-60.2833
2907,INGENIERO URCELAY (ESTACION FCGB),BUENOS AIRES,-33.6417,-60.325
2909,JUAN G. PUJOL,BUENOS AIRES,-33.4961,-60.2787
2912,"SANTA TERESA (SANCHEZ, PDO.RAMALLO)",BUENOS AIRES,-33.4333,-60.15
2914,COSTA BRAVA,BUENOS AIRES,-33.3298,-60.2674
2915,RAMALLO,BUENOS AIRES,-33.4786,-60.0208
2916,HARAS EL OMBU,BUENOS AIRES,-33.3298,-60.2674
2930,SAN PEDRO,BUENOS AIRES,-33.6706,-59.6828
2931,ISLA LOS LAURELES,BUENOS AIRES,-33.5833,-59.8167
2933,LA BOLSA,BUENOS AIRES,-33.7667,-59.9833
2935,EL DESCANSO,BUENOS AIRES,-33.8917,-59.8083
2938,ALSINA,BUENOS AIRES,-33.9,-59.3833
2942,ESTACION BARADERO,BUENOS AIRES,-33.7967,-59.5208
2943,IRENEO PORTELA,BUENOS AIRES,-33.9667,-59.6667
2944,RIO TALA,BUENOS AIRES,-33.75,-59.6333
2946,KILOMETRO 184 (APEADERO FCGM.),BUENOS AIRES,-33.65,-59.8833
3403,SANTOS LUGARES,BUENOS AIRES,-27.5619,-58.3024
3445,COSTA BONITA,BUENOS AIRES,-28.6867,-58.6833
3713,MANUEL OCAMPO,BUENOS AIRES,-26.1625,-62.2222
6000,JUNIN ESTAFETA No.3,BUENOS AIRES,-34.585,-60.9589
6001,RAFAEL OBLIGADO,BUENOS AIRES,-34.35,-60.8
6003,ESCUELA AGRICOLA SALESIANA (C. G. UNZUE),BUENOS AIRES,-34.2944,-60.7917
6005,LA HUAYQUERIA,BUENOS AIRES,-34.2722,-61.2722
6007,COLONIA LOS HORNOS,BUENOS AIRES,-34.2111,-61.3222
6013,LAPLACETTE,BUENOS AIRES,-34.7167,-61.1667
6015,LOS HUESOS,BUENOS AIRES,-34.995,-61.0367
6017,LA DELFINA,BUENOS AIRES,-34.9333,-61.1667
6018,COLONIA LOS HUESOS,BUENOS AIRES,-34.8667,-61.15
6022,LA ORIENTAL,BUENOS AIRES,-34.5667,-60.8167
6023,LEANDRO N.ALEM,BUENOS AIRES,-34.5,-61.4
6030,EDMUNDO B. PERKINS (ESTACION FCGSM),BUENOS AIRES,-34.4667,-61.6667
6031,DESVIO EL CHINGOLO,BUENOS AIRES,-34.4389,-61.5444
6032,BLANDENGUES,BUENOS AIRES,-34.5333,-61.2667
6034,JUAN BAUTISTA ALBERDI,BUENOS AIRES,-34.4333,-61.8
6042,IRIARTE,BUENOS AIRES,-34.4167,-61.9167
6050,DUSSAUD,BUENOS AIRES,-34.7833,-61.7667
6051,PICHINCHA,BUENOS AIRES,-34.5667,-62.35
6053,EL PEREGRINO,BUENOS AIRES,-34.575,-61.9833
6058,PAZOS KANKI,BUENOS AIRES,-34.7667,-62.0833
6062,LOS CALLEJONES (ESTACION FCGM.),BUENOS AIRES,-34.7833,-62.2
6063,PORVENIR,BUENOS AIRES,-34.95,-62.2333
6064,SALALE,BUENOS AIRES,-34.825,-62.4
6065,BLAQUIER,BUENOS AIRES,-34.6333,-62.4833
6070,KILOMETRO 321 (APEADERO FCDFS.),BUENOS AIRES,-34.8325,-61.5993
6071,SANTA MARIA,BUENOS AIRES,-33.8,-60.1833
6073,FORTIN VIGILANCIA,BUENOS AIRES,-35.1167,-61.6833
6075,HARAS TRUJUI,BUENOS AIRES,-35.0583,-61.8583
6077,NECOL (ESTACION FCGM),BUENOS AIRES,-35.125,-62.3083
6078,BAYAUCA,BUENOS AIRES,-34.85,-61.3
6105,CAÑADA SECA,BUENOS AIRES,-34.4333,-62.95
6223,FERNANDO MARTI,BUENOS AIRES,-34.6667,-63.3667
6230,GENERAL VILLEGAS ESTAFETA No.1,BUENOS AIRES,-34.9917,-62.9583
6231,CUENCA,BUENOS AIRES,-35.2926,-62.9981
6233,SANSINENA,BUENOS AIRES,-35.2667,-63.2
6237,AMERICA,BUENOS AIRES,-35.4583,-62.8833
6239,GONZALEZ MORENO,BUENOS AIRES,-35.55,-63.3667
6241,EMILIO V. BUNGE,BUENOS AIRES,-34.7667,-63.2
6242,LOS CALDENES,BUENOS AIRES,-34.975,-62.95
6244,BANDERALO,BUENOS AIRES,-35,-63.35
6332,BENITEZ,BUENOS AIRES,-36.4167,-63.287
6335,GRACIARENA (PDO. SALLIQUELO),BUENOS AIRES,-36.5833,-63.1
6337,MARIA P. MORENO,BUENOS AIRES,-36.6333,-62.9167
6338,LEUBUCO,BUENOS AIRES,-36.8833,-63.0333
6339,SALLIQUELO,BUENOS AIRES,-36.75,-62.9333
6341,LA PALA,BUENOS AIRES,-36.7,-63.3667
6343,MAZA,BUENOS AIRES,-36.8333,-63.3167
6346,PELLEGRINI,BUENOS AIRES,-36.2667,-63.15
6348,BOCAYUVA,BUENOS AIRES,-36.2167,-63.0667
6400,MARTIN FIERRO (PDO.TRENQUE LAUQUEN),BUENOS AIRES,-36.0389,-62.9389
6401,SUNBLAD,BUENOS AIRES,-36.0819,-62.7528
6403,FORTIN OLAVARRIA,BUENOS AIRES,-35.7,-63
6405,CORAZZI,BUENOS AIRES,-36.2,-62.4
6407,LA PORTEÑA (PDO.TRENQUE LAUQUEN),BUENOS AIRES,-36.3667,-62.35
6409,JOSE MARIA BLANCO,BUENOS AIRES,-36.45,-62.85
6411,BRAVO DEL DOS,BUENOS AIRES,-36.55,-62.5833
6417,FORTIN PAUNERO,BUENOS AIRES,-36.7917,-62.5167
6422,PRIMERA JUNTA,BUENOS AIRES,-35.9167,-62.6333
6424,"SAN RAMON (BERUTTI, PDO. TRENQUE LAUQUEN)",BUENOS AIRES,-35.8667,-62.5
6430,ROLITO (ESTACION FCGB),BUENOS AIRES,-37.1111,-62.7667
6431,ESTACION LAGO EPECUEN,BUENOS AIRES,-37.1333,-62.8
6433,ARTURO VATTEONE,BUENOS AIRES,-37.2,-62.8333
6435,"LAGUNA DEL MONTE (GUAMINI, PDO.GUAMINI)",BUENOS AIRES,-37.0333,-62.4167
6437,LA GREGORIA,BUENOS AIRES,-37,-62.45
6438,MASUREL,BUENOS AIRES,-36.975,-62.4889
6439,LAGUNA ALSINA,BUENOS AIRES,-36.8167,-62.2167
6441,COLONIA BARON HIRSCH,BUENOS AIRES,-37.2,-63.2333
6443,MALABIA,BUENOS AIRES,-37.0833,-63.2667
6450,PEHUAJO ESTAFETA Nº2,BUENOS AIRES,-35.7074,-61.961
6451,"LOS INDIOS (CURARU, PDO. CARLOS TEJEDOR)",BUENOS AIRES,-35.7648,-61.9167
6453,LA PRADERA,BUENOS AIRES,-35.3667,-61.8917
6455,HUSARES,BUENOS AIRES,-35.5167,-62.3333
6457,KILOMETRO 386 (APEADERO FCDFS.),BUENOS AIRES,-35.5,-62.2333
6459,SANTA INES (PDO. CARLOS TEJEDOR),BUENOS AIRES,-35.4333,-62.7
6461,LA COTORRA,BUENOS AIRES,-36.0333,-62.2333
6463,ALAGON,BUENOS AIRES,-35.95,-61.9667
6465,HENDERSON,BUENOS AIRES,-36.3,-61.7167
6467,KILOMETRO 393 (APEADERO FCDFS.),BUENOS AIRES,-36.2917,-61.7333
6469,MONES CAZON,BUENOS AIRES,-36.2333,-62
6471,MOURAS,BUENOS AIRES,-36.3167,-62.2167
6472,FRANCISCO MADERO,BUENOS AIRES,-35.8667,-62.05
6474,EL RECADO,BUENOS AIRES,-35.7833,-62.25
6475,LA HIGUERA,BUENOS AIRES,-35.65,-62.4167
6476,PUEBLO VILLA SAN ESTEBAN,BUENOS AIRES,-35.6889,-61.6944
6500,FAUZON,BUENOS AIRES,-35.4,-61
6501,LAGUNA DEL CURA,BUENOS AIRES,-35.55,-60.8083
6503,KILOMETRO 234,BUENOS AIRES,-35.45,-60.7
6505,DUDIGNAC,BUENOS AIRES,-35.65,-60.7333
6507,LAS NEGRAS,BUENOS AIRES,-35.6667,-60.725
6508,STROEDER,BUENOS AIRES,-35.6167,-60.7667
6509,ESCUELA AGRICOLA SALESIANA,BUENOS AIRES,-35.9,-60.7167
6511,HUETEL,BUENOS AIRES,-36,-60.85
6513,COLONIA LAS YESCAS,BUENOS AIRES,-35.45,-61.1833
6515,CARLOS MARIA NAON,BUENOS AIRES,-35.2333,-60.8333
6516,BACACAY,BUENOS AIRES,-35.45,-60.9333
6530,SAN JUAN DE NELSON,BUENOS AIRES,-35.6549,-61.4385
6531,COLONIA LA ESPERANZA,BUENOS AIRES,-35.509,-61.4542
6533,QUIROGA,BUENOS AIRES,-35.2814,-61.4192
6535,BELLOCQ,BUENOS AIRES,-35.9167,-61.5333
6537,EL CARPINCHO,BUENOS AIRES,-35.9083,-61.2167
6538,LA DORITA,BUENOS AIRES,-35.6,-61.25
6550,BOLIVAR,BUENOS AIRES,-36.25,-61.1
6551,JUAN F. IBARRA,BUENOS AIRES,-36.35,-61.25
6553,NUEVA ESPAÑA,BUENOS AIRES,-36.45,-61.4333
6555,ALFALAD,BUENOS AIRES,-36.6167,-61.9333
6557,MAPIS,BUENOS AIRES,-36.7833,-61.3
6559,RECALDE,BUENOS AIRES,-36.65,-61.0833
6561,SAN BERNARDO (PDO. TAPALQUE),BUENOS AIRES,-36.4167,-60.6667
6567,COLONIA INCHAUSTI,BUENOS AIRES,-36.4167,-60.6667
6600,MERCEDES,BUENOS AIRES,-34.6544,-59.4344
6601,ESPORA,BUENOS AIRES,-34.5333,-59.6
6603,KILOMETRO 117 (APEADERO FCGB.),BUENOS AIRES,-34.9167,-59.5667
6604,LA VERDE (PDO.MERCEDES),BUENOS AIRES,-34.7865,-59.3765
6605,KILOMETRO 83,BUENOS AIRES,-34.9417,-59.2417
6607,ESTEBAN DIAZ,BUENOS AIRES,-35.0417,-59.4583
6608,OLIVERA,BUENOS AIRES,-34.6333,-59.25
6612,SUIPACHA,BUENOS AIRES,-34.7781,-59.6889
6614,RIVAS,BUENOS AIRES,-34.6167,-59.7667
6616,LA CALIFORNA ARGENTINA,BUENOS AIRES,-34.6,-59.9
6620,CHIVILCOY ESTAFETA No.3,BUENOS AIRES,-34.9083,-60.0306
6621,ANDERSON,BUENOS AIRES,-35.2833,-60.2667
6623,SAN SEBASTIAN,BUENOS AIRES,-34.95,-59.7167
6625,CAÑADA LA RICA,BUENOS AIRES,-35.0072,-60.0531
6627,MOLL,BUENOS AIRES,-35.0667,-59.65
6628,CORONEL MOM,BUENOS AIRES,-34.8333,-60.3
6632,GOROSTIAGA,BUENOS AIRES,-34.8167,-59.8667
6634,ANDRES VACCAREZZA,BUENOS AIRES,-35.0917,-60.2833
6640,LA MARIA,BUENOS AIRES,-35.1675,-60.4182
6641,COMODORO PY,BUENOS AIRES,-35.3167,-60.5167
6643,"SAN JOSE (BAUDRIX, PDO. ALBERTI)",BUENOS AIRES,-35.275,-60.325
6645,LA LIMPIA (PDO. BRAGADO),BUENOS AIRES,-35.0667,-60.7167
6646,COLONIA SAN EDUARDO,BUENOS AIRES,-34.9,-60.75
6648,MECHA,BUENOS AIRES,-35.0667,-60.4
6652,OLASCOAGA,BUENOS AIRES,-35.2,-60.6
6660,ORTIZ DE ROSAS,BUENOS AIRES,-35.4,-60.3833
6661,LUCAS MONTEVERDE,BUENOS AIRES,-35.5,-59.9833
6663,JUAN VELA,BUENOS AIRES,-35.2667,-59.7667
6665,LA GLORIA,BUENOS AIRES,-35.2583,-59.6083
6667,LA RABIA,BUENOS AIRES,-35.4417,-60.15
6700,CUARTEL IV,BUENOS AIRES,-34.5703,-59.105
6701,CARLOS KEEN,BUENOS AIRES,-34.4833,-59.2333
6703,PARADA ROBLES,BUENOS AIRES,-34.4333,-59.0833
6706,JAUREGUI,BUENOS AIRES,-34.6,-59.1667
6708,MARISCAL SUCRE,BUENOS AIRES,-34.5,-59.1
6712,CORTINES,BUENOS AIRES,-34.5667,-59.2167
6720,SAN ANDRES DE GILES,BUENOS AIRES,-34.4497,-59.4433
6721,TATAY,BUENOS AIRES,-34.3667,-59.9333
6723,KILOMETRO 108,BUENOS AIRES,-34.4333,-59.5083
6725,SAN ERNESTO,BUENOS AIRES,-34.3858,-59.8294
6727,GOUIN,BUENOS AIRES,-34.4667,-59.8
6734,SAN PATRICIO,BUENOS AIRES,-34.6,-60.2333
6740,GREGORIO VILLAFAÑE,BUENOS AIRES,-34.7167,-60.6
6743,INGENIERO SILVEYRA,BUENOS AIRES,-34.5333,-60.2
6746,CUCHA CUCHA,BUENOS AIRES,-34.6167,-60.4167
6748,O'HIGGINS,BUENOS AIRES,-34.5833,-60.7
7000,TANDIL ESTAFETA Nº4,BUENOS AIRES,-37.3167,-59.15
7001,LA PASTORA (PDO. TANDIL),BUENOS AIRES,-37.5821,-59.0885
7003,MARIA IGNACIA,BUENOS AIRES,-37.4,-59.5
7005,KILOMETRO 404,BUENOS AIRES,-37.7,-59.325
7007,LA PALMA,BUENOS AIRES,-37.7033,-58.7867
7009,IRAOLA,BUENOS AIRES,-37.25,-58.9167
7011,JUAN N. FERNANDEZ,BUENOS AIRES,-38,-59.2667
7013,EGAÑA,BUENOS AIRES,-36.9833,-59.1
7020,BENITO JUAREZ,BUENOS AIRES,-37.6667,-59.8
7021,TEDIN URIBURU,BUENOS AIRES,-37.3667,-59.7667
7100,LOMA DE SALOMON,BUENOS AIRES,-36.3917,-57.7167
7101,CERRO DE LA GLORIA,BUENOS AIRES,-35.9667,-57.45
7103,FARO SAN ANTONIO,BUENOS AIRES,-36.4,-56.9667
7105,AUTOCAMPING SAN CLEMENTE,BUENOS AIRES,-36.3667,-56.7167
7106,LAS TONINAS,BUENOS AIRES,-36.4833,-56.7
7107,SANTA TERESITA ESTAFETA Nº2,BUENOS AIRES,-36.5333,-56.6833
7108,MAR DEL TUYU,BUENOS AIRES,-36.55,-56.6833
7109,BARRIO VILLA CLELIA,BUENOS AIRES,-36.7167,-56.6667
7111,PLAYA SAN BERNARDO (MUNICIPIO URBANO DE LA COSTA),BUENOS AIRES,-36.2611,-57.6764
7112,LA POSTA,BUENOS AIRES,-36.2611,-57.6764
7113,LA LUCILA DEL MAR,BUENOS AIRES,-36.6667,-56.6667
7114,CASTELLI,BUENOS AIRES,-36.1,-57.7833
7116,MANUEL J.COBO,BUENOS AIRES,-35.8667,-57.9
7118,GENERAL GUIDO,BUENOS AIRES,-36.6667,-57.7667
7119,CARI LARQUEA,BUENOS AIRES,-36.8056,-57.4611
7122,NAPOSTA,BUENOS AIRES,-36.5697,-57.5907
7130,"LA LIMPIA (CHASCOMUS, PDO. CHASCOMUS)",BUENOS AIRES,-35.5567,-57.84
7134,NICOLAS LEVALLE,BUENOS AIRES,-35.5567,-57.84
7135,KILOMETRO 158 (APEADERO FCGR.),BUENOS AIRES,-35.5556,-57.7111
7136,HARAS SAN IGNACIO,BUENOS AIRES,-35.5583,-58.0333
7142,OMBUCTA,BUENOS AIRES,-36.5697,-57.5907
7150,AYACUCHO,BUENOS AIRES,-37.15,-58.4833
7151,SOLANET,BUENOS AIRES,-36.85,-58.5167
7153,CANGALLO,BUENOS AIRES,-37.2167,-58.7
7160,MAIPU,BUENOS AIRES,-36.8667,-57.8667
7161,LABARDEN,BUENOS AIRES,-36.95,-58.1
7163,"SANTA TERESA (GRAL. MADARIAGA, PDO. GRAL. LAVALLE)",BUENOS AIRES,-36.975,-57.1833
7164,SAN MARTIN DE TOURS,BUENOS AIRES,-36.9806,-57.2361
7165,LIBRES DE SUD,BUENOS AIRES,-35.7167,-57.7167
7167,OSTENDE,BUENOS AIRES,-37.15,-56.8833
7169,MACEDO,BUENOS AIRES,-37.25,-57.2
7172,HOGAR MARIANO ORTIZ BASUALDO,BUENOS AIRES,-37.1833,-57.7833
7174,ESCUELA AGRICOLA RURAL N. EZEIZA,BUENOS AIRES,-37.45,-57.7167
7200,LAS FLORES,BUENOS AIRES,-36.05,-59.1167
7201,MARTIN COLMAN,BUENOS AIRES,-36.4167,-59.15
7203,EL CARMEN DE LANGUEYU,BUENOS AIRES,-36.7083,-59.125
7205,ROSAS,BUENOS AIRES,-35.9667,-58.9333
7207,"LA PORTEÑA (EL TRIGO, PDO. LAS FLORES)",BUENOS AIRES,-35.9167,-59.4583
7208,CORONEL BOERR,BUENOS AIRES,-35.95,-59.0667
7212,NARANJA,BUENOS AIRES,-36.15,-59.2667
7214,LAGUNA MEDINA,BUENOS AIRES,-36.3583,-59.4833
7215,EL SOCORRO,BUENOS AIRES,-36.2533,-59.3733
7220,GUARDIA DEL MONTE,BUENOS AIRES,-35.3333,-58.7167
7221,GOBERNADOR UDAONDO,BUENOS AIRES,-35.3,-58.6
7223,NEWTON,BUENOS AIRES,-35.9333,-58.7833
7225,LA VICTORIA (PDO. PILA),BUENOS AIRES,-36.2417,-58.5667
7226,KILOMETRO 146 (APEADERO FCGR.),BUENOS AIRES,-35.6833,-58.95
7228,ABBOTT,BUENOS AIRES,-35.2833,-58.8
7240,KILOMETRO 112 (APEADERO FCGR.),BUENOS AIRES,-35.1853,-59.0947
7241,SALVADOR MARIA,BUENOS AIRES,-35.3,-59.1667
7243,ANTONIO CARBONI,BUENOS AIRES,-35.2,-59.3333
7245,ROQUE PEREZ,BUENOS AIRES,-35.4167,-59.3333
7247,BARRIENTOS,BUENOS AIRES,-35.4389,-59.2556
7249,EMPALME LOBOS,BUENOS AIRES,-35.15,-59.0833
7260,EMILIANO REYNOSO (ESTACION FCGB),BUENOS AIRES,-35.6778,-59.8691
7261,SAN BENITO,BUENOS AIRES,-35.6667,-59.9
7263,EL PARCHE,BUENOS AIRES,-35.8667,-60.25
7265,DEL CARRIL,BUENOS AIRES,-35.5167,-59.5
7267,ALVAREZ DE TOLEDO,BUENOS AIRES,-35.6333,-59.6167
7300,"LAS CORTADERAS (AZUL, PDO. AZUL)",BUENOS AIRES,-36.7833,-59.85
7301,ARROYO DE LOS HUESOS,BUENOS AIRES,-37.0333,-59.5667
7303,SANTA ROSA,BUENOS AIRES,-36.4,-60.0222
7305,BAÑADO DE LAS FLORES,BUENOS AIRES,-36.2667,-59.7417
7307,REQUENA,BUENOS AIRES,-36.5833,-60.1667
7311,"MARTIN FIERRO (CHILLAR, PDO.AZUL)",BUENOS AIRES,-37.3,-59.9833
7313,DIECISEIS DE JULIO,BUENOS AIRES,-37.1833,-60.1667
7316,LAS NIEVES,BUENOS AIRES,-36.6556,-59.7833
7318,COLONIA RUSA,BUENOS AIRES,-36.8667,-60.1389
7400,"LAS PIEDRITAS (OLAVARRIA, PDO.OLAVARRIA)",BUENOS AIRES,-36.9,-60.2833
7401,EMPALME QUERANDIES,BUENOS AIRES,-37.0722,-60.3833
7403,CERRO AGUILA,BUENOS AIRES,-36.9738,-60.1786
7404,FORTIN LAVALLE,BUENOS AIRES,-37.1208,-60.8292
7406,SANTA CLEMENTINA,BUENOS AIRES,-37.2889,-61.2278
7407,LIBANO,BUENOS AIRES,-37.5333,-61.3
7408,LA COLINA,BUENOS AIRES,-37.3333,-61.5333
7412,"LOS PINOS (VOLUNTAD, PDO. LAPRIDA)",BUENOS AIRES,-37.6583,-60.9333
7414,SANTA ELENA (PDO. LAPRIDA),BUENOS AIRES,-37.55,-60.8167
7500,"LA HORQUETA (TRES ARROYOS, PDO. TRES ARROYOS)",BUENOS AIRES,-38.2,-60.2833
7501,INDIO RICO,BUENOS AIRES,-38.3167,-60.8833
7503,EL CRISTIANO,BUENOS AIRES,-38.65,-59.7
7505,ESTACION SAN FRANCISCO DE BELLOCQ,BUENOS AIRES,-38.7375,-60.1417
7507,MICAELA CASCALLARES,BUENOS AIRES,-38.4833,-60.45
7509,ORIENTE,BUENOS AIRES,-38.7333,-60.6167
7511,RETA,BUENOS AIRES,-38.8333,-60.3667
7513,ADOLFO GONZALEZ CHAVES,BUENOS AIRES,-38.2551,-60.3718
7515,CLAUDIO C. MOLINA,BUENOS AIRES,-38.1,-60.35
7517,LA SORTIJA,BUENOS AIRES,-38.1,-60.6833
7519,BARROW,BUENOS AIRES,-38.3,-60.2333
7521,LA GAVIOTA,BUENOS AIRES,-38.3417,-59.7
7530,TEJO (GALERA),BUENOS AIRES,-38.0056,-61.3917
7531,LARTIGAU,BUENOS AIRES,-38.45,-61.5667
7533,QUIÑIHUAL,BUENOS AIRES,-37.7833,-61.6
7535,PONTAUT,BUENOS AIRES,-37.7333,-61.3333
7536,LA RESERVA,BUENOS AIRES,-37.8333,-61.2167
7540,SAUCE CORTO,BUENOS AIRES,-37.525,-61.8667
7541,PUEBLO SAN JOSE,BUENOS AIRES,-37.5167,-61.9167
7543,LA PRIMAVERA (PDO.CNEL.SUAREZ),BUENOS AIRES,-37.3125,-61.9681
7545,HUANGUELEN,BUENOS AIRES,-37.0333,-61.95
7547,PASMAN,BUENOS AIRES,-37.2167,-62.1333
7548,PIÑEYRO (PDO. CNEL. SUAREZ),BUENOS AIRES,-37.4667,-62.1
7600,BARRIO DON BOSCO,BUENOS AIRES,-38,-57.55
7601,LA PEREGRINA,BUENOS AIRES,-37.9833,-57.7833
7603,LAS LOMAS,BUENOS AIRES,-38.1167,-57.85
7605,HARAS CHAPADMALAL,BUENOS AIRES,-38.0917,-57.9667
7607,PLA Y ROGNONI,BUENOS AIRES,-38.2889,-57.8944
7609,COLONIA DE VACACIONES CHAPADMALAL,BUENOS AIRES,-37.9,-57.5056
7612,EL REFUGIO,BUENOS AIRES,-37.8417,-57.6167
7613,CAMPAMENTO,BUENOS AIRES,-37.5333,-57.4833
7620,EL VOLANTE,BUENOS AIRES,-37.7625,-58.2542
7621,SAN SIMON,BUENOS AIRES,-37.5333,-58.3333
7623,SAN AGUSTIN,BUENOS AIRES,-38.0167,-58.35
7630,NECOCHEA,BUENOS AIRES,-38.55,-58.75
7631,PUERTO QUEQUEN,BUENOS AIRES,-38.5667,-58.7
7633,PIERES,BUENOS AIRES,-38.4,-58.6667
7635,LOS CERROS,BUENOS AIRES,-38.1,-58.8167
7637,NICANOR OLIVERA,BUENOS AIRES,-38.25,-59.1667
7639,COOPER,BUENOS AIRES,-38.2167,-59.3167
7641,RAMON SANTAMARINA,BUENOS AIRES,-38.4333,-59.3333
8000,BARRIO PARQUE PATAGONIA,BUENOS AIRES,-38.7042,-62.2458
8010,KILOMETRO 11 (APEADERO FCGR.),BUENOS AIRES,-38.7042,-62.2458
8101,GRUNBEIN,BUENOS AIRES,-38.75,-62.1833
8103,INGENIERO WHITE,BUENOS AIRES,-38.7833,-62.2667
8105,CUATREROS,BUENOS AIRES,-38.7,-62.4
8107,BASE AERONAVAL COMANDANTE ESPORA,BUENOS AIRES,-38.7819,-62.1875
8109,ALMIRANTE SOLIER,BUENOS AIRES,-38.8833,-62.0667
8111,ARROYO PAREJA,BUENOS AIRES,-38.9333,-62.0667
8113,BATERIAS,BUENOS AIRES,-38.5412,-62.1373
8115,BAJO HONDO,BUENOS AIRES,-38.7667,-61.9
8117,EL CORTA PIE,BUENOS AIRES,-38.3806,-62.6611
8118,COCHRANE,BUENOS AIRES,-38.5667,-61.9833
8122,LA VITICOLA,BUENOS AIRES,-38.5167,-62.3
8124,GENERAL RONDEAU,BUENOS AIRES,-38.2333,-63.1333
8126,ALDEA SAN ANDRES,BUENOS AIRES,-38.2083,-62.875
8127,ESTELA,BUENOS AIRES,-38.1167,-62.9167
8129,GLORIALDO,BUENOS AIRES,-37.9667,-62.8833
8132,MEDANOS,BUENOS AIRES,-38.8167,-62.6833
8133,AVESTRUZ,BUENOS AIRES,-37.6667,-63.35
8134,CABEZA DE BUEY,BUENOS AIRES,-38.8444,-63.1222
8136,LA EVA,BUENOS AIRES,-38.9167,-63.35
8138,LA ADELA,BUENOS AIRES,-38.9542,-64.175
8142,JUAN A. PRADERE,BUENOS AIRES,-39.5833,-62.65
8144,MONTE LA PLATA,BUENOS AIRES,-39.0333,-62.5833
8146,"EL RINCON (MAYOR BURATOVICH, PDO. VILLARINO)",BUENOS AIRES,-39.25,-62.6167
8148,PEDRO LURO,BUENOS AIRES,-39.4833,-62.6833
8150,EL ZORRO,BUENOS AIRES,-38.55,-61.0833
8151,GIL,BUENOS AIRES,-38.7833,-60.9
8153,MONTE HERMOSO,BUENOS AIRES,-38.65,-61.3
8154,LA SOBERANA,BUENOS AIRES,-38.75,-61.4667
8156,JOSE A. GUISASOLA,BUENOS AIRES,-38.6667,-61.0833
8158,PARAJE LA AURORA,BUENOS AIRES,-38.6167,-60.8667
8160,FUERTE ARGENTINO,BUENOS AIRES,-38.0944,-62.1278
8162,GARCIA DEL RIO,BUENOS AIRES,-38.35,-62.2
8164,COLONIA SAN PEDRO,BUENOS AIRES,-37.9333,-62.35
8166,SALDUNGARAY,BUENOS AIRES,-38.2,-61.7833
8168,SIERRA DE LA VENTANA,BUENOS AIRES,-38.15,-61.8
8170,ABRA DE HINOJO,BUENOS AIRES,-37.5417,-62.4167
8171,ESPARTILLAR (PDO. SAAVEDRA),BUENOS AIRES,-37.6458,-62.4583
8172,ARROYO CORTO (PDO. SAAVEDRA),BUENOS AIRES,-37.6458,-62.4583
8174,LA SAUDADE,BUENOS AIRES,-37.75,-62.3667
8175,GOYENA,BUENOS AIRES,-37.75,-62.6333
8180,COLONIA DOCTOR GOBERNADOR UDAONDO,BUENOS AIRES,-37.55,-62.7167
8181,LAS VASCONGADAS,BUENOS AIRES,-37.6056,-62.8111
8183,CAÑADA MARIANO (EMBARCADERO FCDFS),BUENOS AIRES,-37.7,-63.1667
8185,"LA FLORIDA (ESTEBAN A. GASCON, PDO. ADOLFO ALSINA)",BUENOS AIRES,-37.4583,-63.2208
8187,BORDENAVE,BUENOS AIRES,-37.8,-63.05
8504,EL BAGUAL,BUENOS AIRES,-40.8,-62.9833
8506,CARDENAL CAGLIERO,BUENOS AIRES,-40.65,-62.75
8508,JARILLA,BUENOS AIRES,-40.6417,-63.2898
8512,IGARZABAL,BUENOS AIRES,-39.7667,-62.6167
4703,ALTO,SAN LUIS,-28.6275,-65.6261
5216,LA AURORA (UNION - DPTO. GOBERNADOR V. DUPUY),SAN LUIS,-29.8583,-64.6667
5421,LA TRANCA,SAN LUIS,-32.35,-67.2833
5598,DESAGUADERO,SAN LUIS,-33.4167,-67.1833
5700,"SANTA TERESA (SAN LUIS, DPTO. LA CAPITAL)",SAN LUIS,-33.3,-66.35
5701,CERCADITO,SAN LUIS,-33.0352,-66.0926
5703,HIPOLITO YRIGOYEN,SAN LUIS,-32.9167,-66.3333
5705,CAMPANARIO,SAN LUIS,-32.5889,-66.1778
5706,LA BAVA,SAN LUIS,-32.8049,-66.2152
5707,"ALGARROBAL (BALDE DE PUERTAS, DPTO. AYACUCHO)",SAN LUIS,-32.4187,-66.4833
5709,SANTA TERESITA,SAN LUIS,-32.5333,-65.9333
5711,REPRESA DEL MONTE,SAN LUIS,-32.1667,-65.875
5712,BALDE DE LA LINEA,SAN LUIS,-32.2351,-66.0825
5713,LAS CHIMBAS,SAN LUIS,-32.1333,-66.55
5714,SANTA RITA,SAN LUIS,-32.2351,-66.0825
5715,"SANTA LUCIA (LAS PALOMAS, DPTO.JUNIN)",SAN LUIS,-32.325,-65.7042
5717,EL PIMPOLLO,SAN LUIS,-31.8833,-65.9333
5719,ALGARROBOS GRANDES,SAN LUIS,-32.9333,-66.5667
5721,PUNTA DEL CERRO,SAN LUIS,-33.8708,-66.4875
5722,EL RIECITO,SAN LUIS,-33.3833,-66.0167
5724,BALDE (DPTO. LA CAPITAL),SAN LUIS,-33.4111,-66.9278
5730,EL FORTIN,SAN LUIS,-34.7667,-65.5167
5731,EL MORRO,SAN LUIS,-33.2167,-65.4833
5733,VILLA REYNOLDS,SAN LUIS,-33.7167,-65.3833
5735,ISONDU,SAN LUIS,-33.2667,-65.6167
5736,SAN IGNACIO,SAN LUIS,-32.0833,-66.1
5738,"EL CARMEN (JUSTO DARACT, DPTO. GRAL. PEDERNERA)",SAN LUIS,-33.875,-65.1
5741,BAJOS HONDOS,SAN LUIS,-33.15,-66.35
5743,NUEVA ESCOCIA,SAN LUIS,-33.7833,-65.7333
5750,EL PORTEZUELO,SAN LUIS,-33.1167,-66.8333
5751,AGUA SALADA,SAN LUIS,-33.2,-65.85
5753,CERRO COLORADO,SAN LUIS,-32.6625,-65.7167
5755,EL PEJE,SAN LUIS,-32.6111,-65.9667
5757,"SAN LORENZO (EL ARENAL, DPTO. PRINGLES)",SAN LUIS,-32.7807,-65.8
5759,HUCHISSON,SAN LUIS,-32.7833,-65.475
5763,GENERAL URQUIZA,SAN LUIS,-32.9074,-65.9665
5770,"EL SAUCE (CONCARAN, DPTO. CHACABUCO)",SAN LUIS,-32.5667,-65.25
5771,LAS AGUADAS,SAN LUIS,-32.3667,-65.5
5773,OLMO,SAN LUIS,-32.575,-65.3333
5775,RENCA,SAN LUIS,-32.7667,-65.3667
5777,EL DURAZNITO,SAN LUIS,-32.3633,-65.21
5779,LA CHILCA (DPTO. JUNIN),SAN LUIS,-32.4692,-65.4233
5789,LOS MOLLECITOS,SAN LUIS,-32.9074,-65.9665
5831,"LA CAÑADA (SAN NICOLAS PUNILLA, DPTO. GRAL. PEDERNERA)",SAN LUIS,-33.3833,-64.4917
5835,"LA AURORA (VILLA DEL CARMEN, DPTO. CHACABUCO)",SAN LUIS,-32.95,-65.05
5871,LA FINCA,SAN LUIS,-31.7783,-65.3867
5873,"ISLA (PUNTA DE AGUA, DPTO. JUNIN)",SAN LUIS,-32.1458,-65.2292
5881,CERRO DE ORO,SAN LUIS,-32.3833,-65
5883,CHAÑARITOS,SAN LUIS,-32.5792,-65.075
5888,CAÑADA LA NEGRA,SAN LUIS,-32.1694,-65.0278
6121,"LAS LAGUNAS (NUEVA GALIA, DPTO. GOBERNADOR V. DUPUY)",SAN LUIS,-33.7,-63.55
6179,"SAN ISIDRO (BATAVIA, DPTO. GOBERNADOR V. DUPUY)",SAN LUIS,-34.1146,-63.5348
6214,CASIMIRO GOMEZ,SAN LUIS,-35.0833,-65.1167
6215,POLLADO,SAN LUIS,-34.947,-65.2879
6216,LAS CORTADERAS,SAN LUIS,-32.5,-65
6269,LA COLINA,SAN LUIS,-34.9224,-64.4976
6277,BUENA ESPERANZA,SAN LUIS,-34.75,-65.25
6279,EL AGUILA,SAN LUIS,-35.0667,-66.5
6389,ANCHORENA,SAN LUIS,-35.6833,-65.45
2000,VILLA ANGELICA,ENTRE RIOS,-32.9333,-60.5833
2100,CHARIGUE,ENTRE RIOS,-33.2677,-60.6792
2381,COLONIA Nº6,ENTRE RIOS,-30.4782,-61.8647
2820,BARRIO VILLA MARIA,ENTRE RIOS,-33.0201,-58.6436
2821,ARROYO DEL CURA,ENTRE RIOS,-32.8967,-58.7606
2823,CEIBAS,ENTRE RIOS,-33.4333,-58.75
2824,FAUSTINO M. PARERA,ENTRE RIOS,-32.8,-58.8833
2826,ALDEA SAN ANTONIO,ENTRE RIOS,-32.6333,-58.7
2828,ESCRIÑA,ENTRE RIOS,-32.5833,-58.9
2840,GUALEGUAY,ENTRE RIOS,-33.1444,-59.3292
2841,LAZO,ENTRE RIOS,-32.8667,-59.4333
2843,GALARZA,ENTRE RIOS,-32.7167,-59.4
2845,GOBERNADOR MANSILLA,ENTRE RIOS,-32.55,-59.3667
2846,PARANACITO,ENTRE RIOS,-33.6833,-59.0167
2848,MEDANOS,ENTRE RIOS,-33.4,-59.0833
2852,IRAZUSTA,ENTRE RIOS,-32.9333,-58.95
2854,DOS HERMANAS,ENTRE RIOS,-33.1667,-58.9
2864,KILOMETRO 340 (PARADA FCGU),ENTRE RIOS,-33.2943,-59.025
3100,BARRIO ESCUELA HOGAR,ENTRE RIOS,-31.7556,-60.5444
3101,COSTA GRANDE DOLL,ENTRE RIOS,-32.1,-60.4795
3103,VILLA LIBERTADOR GENERAL SAN MARTIN,ENTRE RIOS,-32.05,-60.45
3105,DIAMANTE,ENTRE RIOS,-32.0644,-60.6425
3107,PRESIDENTE AVELLANEDA,ENTRE RIOS,-31.8083,-60.4
3109,VIALE,ENTRE RIOS,-31.8833,-60.0167
3111,TABOSSI,ENTRE RIOS,-31.8,-59.95
3112,COLONIA LOMA NEGRA,ENTRE RIOS,-31.8474,-60.1912
3113,CURTIEMBRE,ENTRE RIOS,-31.4667,-60.1667
3114,LAS DELICIAS,ENTRE RIOS,-31.9333,-60.4167
3116,ALDEA SAN RAFAEL,ENTRE RIOS,-31.95,-60.25
3117,SEGUI,ENTRE RIOS,-31.95,-60.1333
3118,PASO DE LA ARENA,ENTRE RIOS,-31.75,-60.1667
3122,MORENO,ENTRE RIOS,-31.5833,-60.0667
3123,COLONIA RIVADAVIA,ENTRE RIOS,-31.8667,-59.9167
3125,GENERAL GUEMES,ENTRE RIOS,-31.4,-59.95
3126,PUEBLO BRUGO,ENTRE RIOS,-31.3833,-60.1
3127,VILLA HERNANDARIAS,ENTRE RIOS,-31.2167,-59.9833
3128,COLONIA BERRO,ENTRE RIOS,-31.4449,-59.9641
3129,PIEDRAS BLANCAS,ENTRE RIOS,-31.1833,-59.9333
3132,EL PINGO,ENTRE RIOS,-31.5833,-59.8833
3133,SOSA,ENTRE RIOS,-31.7333,-59.9167
3134,HASENKAMP,ENTRE RIOS,-31.5167,-59.85
3136,TALITAS (APEADERO FCGU),ENTRE RIOS,-31.4167,-59.75
3137,EL SOLAR,ENTRE RIOS,-31.5611,-59.8167
3138,ESTANCIA LA GAMA,ENTRE RIOS,-31.4667,-59.6
3142,BOVRIL,ENTRE RIOS,-31.35,-59.4333
3144,SAUCE DE LUNA,ENTRE RIOS,-31.2333,-59.2167
3150,NOGOYA,ENTRE RIOS,-32.3997,-59.7994
3151,ANTELO,ENTRE RIOS,-32.5333,-60.05
3153,PUENTE VICTORIA,ENTRE RIOS,-32.6184,-60.1548
3155,SEXTO DISTRITO,ENTRE RIOS,-32.7417,-59.8417
3156,TRES ESQUINAS,ENTRE RIOS,-32.25,-59.95
3158,LA COLINA,ENTRE RIOS,-32.4389,-59.6
3159,"LOS PARAISOS (20 DE SETIEMBRE, DPTO. NOGOYA)",ENTRE RIOS,-32.4591,-59.8567
3162,CHILCAS SUD,ENTRE RIOS,-32.25,-60.1667
3164,RIVAS,ENTRE RIOS,-32.1375,-60.1583
3170,BASAVILBASO,ENTRE RIOS,-32.3667,-58.8833
3172,KILOMETRO 208 (APEADERO FCGU),ENTRE RIOS,-32.3417,-59.2083
3174,RINCON DE LAS GUACHAS,ENTRE RIOS,-32.2827,-59.1576
3176,SOLA,ENTRE RIOS,-32.3333,-59.3667
3177,GUARDAMONTE,ENTRE RIOS,-32.0833,-59.3
3180,DIEGO LOPEZ,ENTRE RIOS,-30.95,-58.8
3181,CHAÑAR,ENTRE RIOS,-31.2,-58.7
3183,MIÑONES,ENTRE RIOS,-30.7,-58.5833
3185,JUAN B. ARRUABARRENA,ENTRE RIOS,-30.3333,-58.3167
3187,CHIRCALITO,ENTRE RIOS,-30.4389,-58.6778
3188,ALDEA SAN ISIDRO,ENTRE RIOS,-31.0222,-59.0556
3190,TACUARAS YACARE,ENTRE RIOS,-30.7167,-59.4556
3191,LAS MULITAS,ENTRE RIOS,-30.3667,-58.9833
3192,EL COLORADO,ENTRE RIOS,-30.4157,-59.198
3194,PASO TELEGRAFO,ENTRE RIOS,-30.4157,-59.198
3200,CONCORDIA,ENTRE RIOS,-31.4,-58.0333
3201,CAMBA PASO,ENTRE RIOS,-31.5,-58.0278
3203,BENITO LEGEREN,ENTRE RIOS,-31.5667,-58.525
3204,AYUI (PARADA EMBARCADERO FCGU),ENTRE RIOS,-31.1833,-57.9667
3206,KILOMETRO 47 (APEADERO FCGU),ENTRE RIOS,-31,-57.9
3208,SANTA ANA,ENTRE RIOS,-30.9,-57.9333
3212,EL REDOMON,ENTRE RIOS,-31.1,-58.3
3214,YUQUERI,ENTRE RIOS,-31.3833,-58.1167
3216,LAS MOCHAS,ENTRE RIOS,-31.5056,-58.4111
3218,COLONIA NUEVA ALEMANIA,ENTRE RIOS,-31.6,-58.8167
3220,KILOMETRO 161 (PARADA FCGU),ENTRE RIOS,-30.25,-57.65
3224,LA BLANQUEADA,ENTRE RIOS,-30.05,-57.8167
3228,CHAJARI,ENTRE RIOS,-30.7667,-57.9833
3229,SAN RAMON,ENTRE RIOS,-30.8333,-58.25
3240,SEGUNDA SECCION LUCAS AL SUD,ENTRE RIOS,-31.85,-59.0167
3241,RINCON LUCAS NORTE,ENTRE RIOS,-31.5708,-59.0208
3244,LIBAROS,ENTRE RIOS,-32.2667,-58.9167
3246,COLONIA SAGASTUME,ENTRE RIOS,-32.05,-58.75
3248,CARAGUATA,ENTRE RIOS,-32.1667,-58.8833
3252,VILLA CLARA,ENTRE RIOS,-31.8333,-58.8167
3254,COLONIA SAN ERNESTO,ENTRE RIOS,-31.7333,-58.6167
3260,CONCEPCION DEL URUGUAY,ENTRE RIOS,-32.4833,-58.2283
3261,COLONIA ELIA,ENTRE RIOS,-32.6667,-58.3167
3262,CASEROS,ENTRE RIOS,-32.4667,-58.4833
3263,COLONIA CARMELO,ENTRE RIOS,-32.35,-58.4333
3265,VILLA ELISA,ENTRE RIOS,-32.1667,-58.4
3267,CAÑADA DE LAS OVEJAS,ENTRE RIOS,-32.1667,-58.55
3269,COLONIA BALLINA,ENTRE RIOS,-31.9389,-58.4611
3272,HERRERA,ENTRE RIOS,-32.4333,-58.6333
3280,COLON,ENTRE RIOS,-32.2167,-58.1333
3281,LIEBIG,ENTRE RIOS,-32.1333,-58.2667
3283,VILLA SAN JOSE,ENTRE RIOS,-32.2,-58.2167
3285,JUAN JORGE,ENTRE RIOS,-31.9389,-58.3111
3287,UBAJAY,ENTRE RIOS,-31.7833,-58.3
3322,PUERTO YEBEBIRI,ENTRE RIOS,-27.2667,-55.5333
3446,KILOMETRO 376 (APEADERO FCGU),ENTRE RIOS,-28.7611,-58.6722
3826,ALDEA SAN JUAN,ENTRE RIOS,-32.7,-58.7667
5263,ESPERANZA DE LOS CERRILLOS,LA RIOJA,-29.8667,-65.6333
5272,COMANDANTE LEAL,LA RIOJA,-30.8833,-65.7833
5274,LA ISLA,LA RIOJA,-31.3667,-65.9667
5275,LOS ALANICES,LA RIOJA,-30.7667,-65.9833
5276,EL BORDO,LA RIOJA,-30.6,-65.9056
5300,LA ESPERANZA,LA RIOJA,-29.4667,-66.75
5301,SAN PEDRO,LA RIOJA,-29.5333,-66.3333
5303,ANJULLON,LA RIOJA,-28.7167,-66.9333
5304,LA TALA,LA RIOJA,-29.7167,-66.85
5310,LOS BALDES,LA RIOJA,-28.55,-66.8167
5311,MACHIGASTA,LA RIOJA,-28.55,-66.8
5313,ESTACION MAZAN,LA RIOJA,-28.6667,-66.5667
5316,"BUENA VISTA (CAMPANA, DPTO. FAMATINA)",LA RIOJA,-28.3462,-66.3654
5325,ALPASINCHE,LA RIOJA,-28.3167,-67.05
5327,CHAUPIHUASI,LA RIOJA,-28.3667,-67.05
5329,SCHAQUI,LA RIOJA,-28.4667,-67.1333
5350,EL MOLLE,LA RIOJA,-29.3,-68.2
5351,LOS PALACIOS,LA RIOJA,-29.3667,-68.1833
5353,LOS NACIMIENTOS,LA RIOJA,-29.5236,-68.5578
5355,VILLA CASTELLI,LA RIOJA,-29,-68.1833
5357,EL HORNO,LA RIOJA,-28.75,-68.1667
5359,CASA PINTADA,LA RIOJA,-28.6333,-68.4
5360,CHILECITO,LA RIOJA,-29.1667,-67.5
5361,ALTO CARRIZAL,LA RIOJA,-28.905,-67.5267
5363,ANGUINAN,LA RIOJA,-29.2,-67.4667
5365,FAMATINA,LA RIOJA,-28.9167,-67.5167
5367,SAÑOGASTA,LA RIOJA,-29.3,-67.6
5369,PAGANZILLO,LA RIOJA,-29.0062,-67.5375
5370,"SANTA CRUZ (CHEPES, DPTO. ROSARIO VERA PEÑALOZA)",LA RIOJA,-29.3917,-67.5083
5372,NONOGASTA,LA RIOJA,-29.3,-67.5
5374,CATINZACO (EMBARCADERO FCGB),LA RIOJA,-29.4833,-67.5167
5380,GOBERNADOR GORDILLO,LA RIOJA,-30.35,-66.3167
5381,ILIAR,LA RIOJA,-30.5556,-66.2222
5383,EL ALTO,LA RIOJA,-30.3667,-66.5833
5384,PUNTA DE LOS LLANOS,LA RIOJA,-30.15,-66.55
5385,MOLLACO,LA RIOJA,-30.9667,-66.4333
5386,LOS COLORADOS,LA RIOJA,-29.9,-67.15
5470,AGUA DE PIEDRA,LA RIOJA,-31.2667,-66.6
5471,LA CALERA,LA RIOJA,-31.2167,-66.55
5472,LA AMERICA,LA RIOJA,-31.3841,-66.3761
5473,BALDE DEL QUEBRACHO,LA RIOJA,-31.6405,-66.1024
5474,DESIDERIO TELLO,LA RIOJA,-31.2167,-66.3167
5475,AGUA DE LA PIEDRA,LA RIOJA,-30.6444,-66.1167
2340,NUEVA CERES,SANTIAGO DEL ESTERO,-29.8833,-61.95
2341,COLONIA GERALDINA,SANTIAGO DEL ESTERO,-29.9167,-62.1722
2354,FORTIN LA VIUDA,SANTIAGO DEL ESTERO,-29.4667,-62.3867
2356,LAS ALMAS,SANTIAGO DEL ESTERO,-29.2933,-62.8533
2357,LAS ABRAS-MITRE,SANTIAGO DEL ESTERO,-29.4,-62.7833
3054,LA PANCHITA,SANTIAGO DEL ESTERO,-30.1083,-60.4167
3061,CUATRO BOCAS,SANTIAGO DEL ESTERO,-28.8667,-61.85
3062,LA AIDA,SANTIAGO DEL ESTERO,-29.2833,-62.0625
3064,LA EULALIA,SANTIAGO DEL ESTERO,-28.9583,-62.2917
3165,TOMAS YOUNG,SANTIAGO DEL ESTERO,-32.16,-60.16
3238,TABLEADO,SANTIAGO DEL ESTERO,-29.6452,-57.131
3712,CORONEL MANUEL LEONCIO RICO,SANTIAGO DEL ESTERO,-26.4,-61.8333
3714,LA VIRTUD,SANTIAGO DEL ESTERO,-26.1333,-63.3833
3731,SACHAYOJ,SANTIAGO DEL ESTERO,-26.6833,-61.8333
3734,"EL ARBOLITO (GANCEDO, DPTO.MORENO)",SANTIAGO DEL ESTERO,-27.4667,-61.6875
3736,CAMPO EL ROSARIO,SANTIAGO DEL ESTERO,-27.6944,-61.9778
3740,LAGUNA BRAVA (EMBARCADERO FCGB),SANTIAGO DEL ESTERO,-27.6333,-62.4167
3741,KILOMETRO 606 (APEADERO FCGB),SANTIAGO DEL ESTERO,-27.3681,-62.4792
3743,TINTINA,SANTIAGO DEL ESTERO,-27.0333,-62.7167
3745,"PUESTO DEL MEDIO (SANTOS LUGARES, DPTO. ALBERDI)",SANTIAGO DEL ESTERO,-26.92,-63.0633
3747,"MONTE VERDE (CAMPO GALLO, DPTO. ALBERDI)",SANTIAGO DEL ESTERO,-26.6083,-62.85
3749,CUQUERO,SANTIAGO DEL ESTERO,-26.65,-63.2
3752,PUNA,SANTIAGO DEL ESTERO,-27.8,-62.5167
3760,AÑATUYA,SANTIAGO DEL ESTERO,-28.4667,-62.8333
3761,LOS LINARES,SANTIAGO DEL ESTERO,-28.3667,-62.55
3763,LOS JURIES,SANTIAGO DEL ESTERO,-28.4667,-62.1
3765,EL CUADRADO,SANTIAGO DEL ESTERO,-28.2167,-61.9667
3766,AGUA DULCE,SANTIAGO DEL ESTERO,-28.6917,-62.525
4176,"EL ARBOLITO (ARBOLES GRANDES, DPTO.RIO HONDO)",SANTIAGO DEL ESTERO,-27.5944,-65.1917
4178,EL PACARA,SANTIAGO DEL ESTERO,-27.02,-65.0167
4184,ANIMAS,SANTIAGO DEL ESTERO,-27.3864,-64.6864
4186,EL PALOMAR (DPTO. JIMENEZ),SANTIAGO DEL ESTERO,-26.8333,-64.8333
4187,EL BOBADAL,SANTIAGO DEL ESTERO,-26.7111,-64.3944
4189,SANTA MARIA DE LAS CHACRAS,SANTIAGO DEL ESTERO,-27.3972,-64.1556
4195,QUEBRACHO COTO,SANTIAGO DEL ESTERO,-26.2833,-64.4667
4197,BAGUAL MUERTO,SANTIAGO DEL ESTERO,-26.11,-64.13
4200,HUAICO HONDO,SANTIAGO DEL ESTERO,-27.75,-64.5833
4201,LOS QUIROGA,SANTIAGO DEL ESTERO,-27.6667,-64.3667
4203,CABRA,SANTIAGO DEL ESTERO,-28.1606,-64.7318
4205,LAPRIDA,SANTIAGO DEL ESTERO,-28.3833,-64.5333
4206,"CAMPO GRANDE (SIMBOL, DPTO.CAPITAL)",SANTIAGO DEL ESTERO,-28.1188,-64.2917
4208,LORETO,SANTIAGO DEL ESTERO,-28.3,-64.2
4212,SAN VICENTE-LORETO,SANTIAGO DEL ESTERO,-28.7667,-64.0833
4220,LOS CASTILLOS,SANTIAGO DEL ESTERO,-27.5333,-64.8833
4221,YUTU YACO,SANTIAGO DEL ESTERO,-27.4417,-64.9583
4223,PALMA REDONDA,SANTIAGO DEL ESTERO,-27.3889,-64.8167
4225,ABRA DE LA CRUZ,SANTIAGO DEL ESTERO,-27.3833,-64.64
4230,CHAÑAR LAGUNA,SANTIAGO DEL ESTERO,-28.8667,-64.9542
4231,"25 DE MAYO (POZANCONES, DPTO.CHOYA)",SANTIAGO DEL ESTERO,-28.6333,-65.25
4233,RODEITO,SANTIAGO DEL ESTERO,-28.2958,-64.8583
4234,EL JUNCAL,SANTIAGO DEL ESTERO,-28.3571,-65.1238
4237,ZORRO HUARCUNA,SANTIAGO DEL ESTERO,-28.2667,-64.9417
4238,PROVIDENCIA,SANTIAGO DEL ESTERO,-28.65,-64.55
4239,POZANCON,SANTIAGO DEL ESTERO,-27.9667,-64.9333
4296,CARDOZOS,SANTIAGO DEL ESTERO,-27.9333,-64.1667
4298,ALBARDON CHUÑA,SANTIAGO DEL ESTERO,-27.9333,-64.1667
4300,BARRIO ESTE,SANTIAGO DEL ESTERO,-27.7222,-64.1944
4301,SEPULTURA,SANTIAGO DEL ESTERO,-27.75,-63.95
4302,ALTO POZO,SANTIAGO DEL ESTERO,-27.3667,-64.4667
4303,ANCHORIGA,SANTIAGO DEL ESTERO,-27.1846,-64.0675
4304,ALGARROBALES,SANTIAGO DEL ESTERO,-25.7667,-64.0167
4306,CASILLA DEL MEDIO,SANTIAGO DEL ESTERO,-27.1967,-64.7033
4308,CACHICO,SANTIAGO DEL ESTERO,-27.7889,-64.0278
4312,MORELLO,SANTIAGO DEL ESTERO,-27.8833,-63.9667
4313,CHARQUINA,SANTIAGO DEL ESTERO,-28.425,-63.7542
4314,"TORO POZO (GARZA, DPTO.SARMIENTO)",SANTIAGO DEL ESTERO,-28.4786,-63.775
4315,COLLERA HURCUNA,SANTIAGO DEL ESTERO,-28.4611,-63.9056
4317,SOCONCHO,SANTIAGO DEL ESTERO,-28.5333,-63.7583
4318,VACA HUMAN,SANTIAGO DEL ESTERO,-28.4786,-63.775
4319,TOLOZAS,SANTIAGO DEL ESTERO,-28.6667,-63.6583
4321,PASO DEL SALADILLO,SANTIAGO DEL ESTERO,-28.9958,-63.35
4322,"SAN VICENTE (FERNANDEZ, DPTO.RBLES)",SANTIAGO DEL ESTERO,-27.8222,-64.1222
4324,GARZA,SANTIAGO DEL ESTERO,-28.15,-63.5333
4326,SAN ROQUE (LUGONES-DPTO.AVELLANEDA),SANTIAGO DEL ESTERO,-28.275,-63.5042
4328,SAN JOSE-AVELLANEDA,SANTIAGO DEL ESTERO,-28.55,-63.2167
4332,LIBANESA,SANTIAGO DEL ESTERO,-28.65,-63.0167
4334,ORO PAMPA,SANTIAGO DEL ESTERO,-28.75,-62.875
4336,LA AURORA,SANTIAGO DEL ESTERO,-27.5,-64.25
4338,LAS CHACRAS (CLODOMIRA-DPTO.BANDA),SANTIAGO DEL ESTERO,-27.5722,-64.1056
4339,SANTA ROSA (SIMBOLAR-DPTO.BANDA),SANTIAGO DEL ESTERO,-27.97,-63.71
4343,"SANTO DOMINGO (LUGONES, DPTO.AVELLANEDA)",SANTIAGO DEL ESTERO,-27.7196,-63.7164
4349,MONTE RICO (DPTO. ALBERDI),SANTIAGO DEL ESTERO,-27.7196,-63.7164
4350,CRUZ LOMA,SANTIAGO DEL ESTERO,-27.8033,-63.43
4351,KISKA LORO,SANTIAGO DEL ESTERO,-27.4528,-62.8417
4352,ALZA NUEVA,SANTIAGO DEL ESTERO,-27.5853,-63.3627
4353,VILLA FIGUEROA,SANTIAGO DEL ESTERO,-27.7167,-63.5333
4354,CAVADO,SANTIAGO DEL ESTERO,-27.5183,-63.7017
4355,TIUN PUNCO,SANTIAGO DEL ESTERO,-28.05,-63.3167
4356,CASA ALTA,SANTIAGO DEL ESTERO,-28.1792,-63.1625
4361,"EL PALOMAR (VILLA BRANA, DPTO. MORENO)",SANTIAGO DEL ESTERO,-27.7196,-63.7164
4436,ABRA CORO,SANTIAGO DEL ESTERO,-24.8492,-64.8348
4514,"LA NORIA (ESTACION ATAMISQUI, DPTO. ATAMISQUI)",SANTIAGO DEL ESTERO,-23.7833,-64.7833
4613,"SUNCHO POZO (BREA POZO, DPTO.SAN MARTIN)",SANTIAGO DEL ESTERO,-23.9538,-65.3744
4643,QUERA,SANTIAGO DEL ESTERO,-22.7267,-66.4083
5150,"POZO CEBADO (OJO DE AGUA, DPTO. OJO DE AGUA)",SANTIAGO DEL ESTERO,-31.3603,-64.6885
5206,"LA HIGUERA (ARRAGA, DPTO.SILIPICA)",SANTIAGO DEL ESTERO,-30.3402,-64.1561
5249,"EL BARRIAL (CANDELARIA, DPTO. OJO DE AGUA)",SANTIAGO DEL ESTERO,-29.8333,-63.0833
5250,LA PRIMAVERA,SANTIAGO DEL ESTERO,-29.1833,-63.8833
5251,AMBARGASTA,SANTIAGO DEL ESTERO,-29.05,-63.95
5253,SUMAMPA,SANTIAGO DEL ESTERO,-29.3667,-63.4667
5255,AMOLADERAS,SANTIAGO DEL ESTERO,-29.5396,-63.3292
5257,RAMA PASO,SANTIAGO DEL ESTERO,-29.2119,-63.3762
5258,"SAN FRANCISCO (PIEDRA BLANCA, DPTO.OJO DE AGUA)",SANTIAGO DEL ESTERO,-29.1333,-63.9667
5260,"EL CHAÑAR (RECREO,DPTO. CHOYA)",SANTIAGO DEL ESTERO,-29.225,-65.1333
5266,"PARANA (QUIROS, DPTO. CHOYA)",SANTIAGO DEL ESTERO,-28.7833,-65.1167
3500,TIGRE,CHACO,-27.45,-58.9833
3501,"EL PALMAR (RESISTENCIA, SUC. Nº1 PDO. SAN FERNANDO)",CHACO,-27.1357,-59.1119
3503,VILLA FORESTACION,CHACO,-27.5,-58.9333
3505,COLONIA BENITEZ,CHACO,-27.3333,-58.9333
3506,LOS ALGARROBOS,CHACO,-27.7,-59.1167
3507,PAMPA ALMIRON,CHACO,-26.7,-59.1333
3508,KILOMETRO 39 (EMBARACADERO FCGB),CHACO,-27.1357,-59.1119
3509,CAMPO WINTER,CHACO,-26.4722,-59.3556
3511,PRESIDENCIA ROCA,CHACO,-26.1333,-59.6
3513,GENERAL OBLIGADO,CHACO,-27.4167,-59.4333
3514,CACUI,CHACO,-27.2476,-59.2619
3515,COLONIA ELISA,CHACO,-26.9333,-59.5333
3516,EL BAÑADO,CHACO,-27.95,-59.275
3518,CANCHA LARGA,CHACO,-27.0083,-58.7583
3522,GENERAL VEDIA,CHACO,-26.9333,-58.6667
3524,SOLALINDE,CHACO,-26.9333,-58.5
3526,VELAZ,CHACO,-26.7,-58.6667
3530,QUITILIPI,CHACO,-26.8667,-60.2167
3531,NAPALPI,CHACO,-26.9,-60.1333
3532,CURANDU,CHACO,-27.0667,-59.6333
3534,"LOTE 3 (ESCUELA 144) (MACHAGAI, PDO. 25 DE MAYO)",CHACO,-26.7917,-60.0167
3536,CORONEL BRANDSEN,CHACO,-26.9389,-60.2889
3540,VILLA ANGELA,CHACO,-27.5833,-60.7167
3541,SANTA SYLVINA,CHACO,-27.8167,-61.15
3543,LOTE 12,CHACO,-27.525,-60.2708
3545,VILLA BERTHET,CHACO,-27.2833,-60.4167
3620,KILOMETRO 184,CHACO,-25.1542,-59.3875
3700,PAMPA GALPON,CHACO,-26.7833,-60.45
3701,COLONIA BERNARDINO RIVADAVIA,CHACO,-27.0667,-60.5967
3703,PAMPA FLORIDA,CHACO,-26.55,-60.4
3705,COLONIA JUAN JOSE CASTELLI,CHACO,-25.95,-60.6167
3706,COLONIA AGRICOLA PAMPA DE NAPENAY,CHACO,-26.65,-60.6389
3708,PAMPA HERMOSA,CHACO,-26.5583,-61.0583
3716,FORTIN LAS CHUÑAS,CHACO,-26.8,-60.8333
3718,CORZUELA,CHACO,-26.95,-60.9667
3722,POZO DEL INDIO,CHACO,-27.0167,-61.0167
3730,CABRAL,CHACO,-27.0722,-61.2667
3732,COLONIA BRAVO,CHACO,-27.35,-61.1833
3733,VENADOS GRANDES,CHACO,-27.8167,-61.3833
5400,PRESBITERO FRANCISCO PEREZ HERNANDEZ,SAN JUAN,-31.4374,-68.5612
5401,ZONDA,SAN JUAN,-31.55,-68.7333
5403,CASTAÑO NUEVO,SAN JUAN,-31.0333,-69.55
5405,TONTAL,SAN JUAN,-31.6333,-69.4667
5407,VILLA OBRERA,SAN JUAN,-31.525,-68.6167
5409,NIQUIVIL,SAN JUAN,-30.4092,-68.6889
5411,LA LEGUA,SAN JUAN,-31.5333,-68.4833
5413,CHIMBAS DEL NORTE,SAN JUAN,-31.4833,-68.5333
5415,ALAMITO,SAN JUAN,-31.4492,-68.3812
5417,LA MAJADITA (DPTO. 9 DE JULIO),SAN JUAN,-31.65,-68.4
5419,LOS PUESTOS,SAN JUAN,-31.4186,-68.5128
5423,VILLA SANTA ANITA,SAN JUAN,-31.8472,-68.2028
5424,VILLA LARGA,SAN JUAN,-31.8472,-68.2028
5425,SEGUNDO CUARTEL,SAN JUAN,-31.5667,-68.5333
5427,VILLA ABERASTAIN,SAN JUAN,-31.65,-68.5833
5429,RINCONADA,SAN JUAN,-31.7167,-68.5833
5431,PEDERNAL,SAN JUAN,-31.9833,-68.7333
5433,ESTACION LA RINCONADA,SAN JUAN,-31.9026,-68.4343
5435,LAS LAGUNAS,SAN JUAN,-32.0212,-68.2672
5436,PUNTA DE LAGUNA,SAN JUAN,-31.9026,-68.4343
5438,ALTO DE SIERRA,SAN JUAN,-31.5333,-68.4167
5439,SAN MARTIN,SAN JUAN,-31.55,-68.3333
5442,LOTES RIVERA,SAN JUAN,-31.6542,-68.2853
5443,TUPELI,SAN JUAN,-31.7024,-68.2609
5444,BERMEJO,SAN JUAN,-31.6167,-67.65
5446,MARAYES,SAN JUAN,-31.4833,-67.3333
5447,LAS DELICIAS,SAN JUAN,-30.8667,-67.35
5449,BALDE DEL ROSARIO,SAN JUAN,-30.3167,-67.6833
5460,"CERRO NEGRO (JACHAL, DPTO. JACHAL)",SAN JUAN,-30.2425,-68.7458
5461,LA FALDA,SAN JUAN,-30.1667,-68.65
5463,PASO DEL LAMAR,SAN JUAN,-30.2,-68.4667
5465,COLOLA,SAN JUAN,-30.1833,-69.0833
5467,LAS FLORES,SAN JUAN,-30.3242,-69.2108
5480,TRANCAS,SAN JUAN,-31.1896,-68.0708
5546,COLANGUIL,SAN JUAN,-32.7896,-68.8979
4139,CERRILLOS,CATAMARCA,-26.7717,-66.285
4235,PUEBLITO,CATAMARCA,-28.4685,-65.4204
4700,LOMA CORTADA,CATAMARCA,-28.4633,-65.7667
4701,BARRANCAS,CATAMARCA,-28.7833,-65.5139
4705,HUAYCAMA (DPTO. VALLE VIEJO),CATAMARCA,-28.5,-65.75
4707,SAN ANTONIO DE PIEDRA BLANCA,CATAMARCA,-28.4444,-65.7333
4709,SAN JOSE (PIEDRA BLANCA-DPTO.FRAY MAMERTO ESQUIU),CATAMARCA,-28.3833,-65.7
4711,AMBATO,CATAMARCA,-27.9074,-65.9667
4713,OCHO VADOS,CATAMARCA,-28.1386,-65.8088
4715,VILLA QUINTIN AHUMADA,CATAMARCA,-28.2167,-65.8667
4716,YOCAN,CATAMARCA,-28.4167,-65.6333
4718,LA ESQUINA,CATAMARCA,-29.1,-65.5833
4719,VILLA COLLANTES,CATAMARCA,-27.8833,-65.7167
4722,LAS HUERTAS,CATAMARCA,-28.05,-65.5167
4723,LOS TRONCOS,CATAMARCA,-28.0852,-65.3704
4724,CONETA,CATAMARCA,-28.5833,-65.9
4726,CONCEPCION (DPTO. CAPAYAN),CATAMARCA,-28.7375,-66.0667
4728,SAN JERONIMO,CATAMARCA,-28.8667,-66.2333
4740,EL COLEGIO,CATAMARCA,-27.6083,-66.3208
4741,CARAPUNCO,CATAMARCA,-27.5708,-66.3125
4743,ALUMBRERA,CATAMARCA,-27.5167,-66.0333
4750,AMPUJACO,CATAMARCA,-27.8222,-66.3611
4751,LAS JUNTAS (LAS BARRANCAS-DPTO.BELEN),CATAMARCA,-27.1861,-66.8389
4753,LONDRES,CATAMARCA,-27.7167,-67.1167
4758,SAN BUENA VENTURA,CATAMARCA,-27.4455,-66.7667
5139,CAMPITOS,CATAMARCA,-30.9778,-62.8556
5261,LA VALENTINA,CATAMARCA,-28.9922,-65.4289
5264,TULA,CATAMARCA,-28.9333,-65.1
5265,"LA BARROSA (BAVIANO, DPTO. LA PAZ)",CATAMARCA,-28.7963,-65.5593
5315,"ESTACION POMAN (EL PAJONAL, DPTO. POMAN)",CATAMARCA,-28.3833,-66.2583
5317,RETIRO DE COLANA,CATAMARCA,-28.3083,-66.1542
5319,SAN JOSE (COIPES-DPTO.POMAN),CATAMARCA,-28.05,-66.2167
5321,"EL POTRERO (SAUJIL, DPTO. POMAN)",CATAMARCA,-28.1111,-66.3333
5331,SALADO,CATAMARCA,-28.3,-67.25
5333,BANDA DE LUCERO,CATAMARCA,-28.1833,-67.575
5340,TINOGASTA,CATAMARCA,-28.0667,-67.5667
5341,LAS PAPAS,CATAMARCA,-27.4905,-67.6405
5343,SANTA ROSA (DPTO.TINOGASTA),CATAMARCA,-27.5759,-67.6315
5345,LOS MORTEROS (FIAMBALA-DPTO.TINOGASTA),CATAMARCA,-27.6833,-67.6333
5621,AGUA DE TORRE,LA PAMPA,-35.7375,-68.0792
6200,REALICO,LA PAMPA,-35.0333,-64.25
6201,CHANILAO,LA PAMPA,-35.3333,-64
6203,EL TIGRE,LA PAMPA,-35.4167,-64.3
6205,"LOTE 5 (CALEUFU, ESCUELA 120)",LA PAMPA,-35.4167,-64.4833
6207,OJEDA,LA PAMPA,-35.3333,-64
6212,"SAN JUAN (SIMSON, DPTO. REALICO)",LA PAMPA,-35.0708,-64.2667
6213,LOTE 11 (ESCUELA 107),LA PAMPA,-35.1333,-64.5333
6220,BERNARDO LARROUDE,LA PAMPA,-35.0333,-63.5667
6221,INTENDENTE ALVEAR,LA PAMPA,-35.2333,-63.5833
6228,COLONIA DENEVI,LA PAMPA,-35.0125,-63.8458
6300,SANTA ROSA,LA PAMPA,-36.6167,-64.2833
6301,LA DOLORES,LA PAMPA,-36.8833,-63.8375
6303,TOAY,LA PAMPA,-36.6667,-64.35
6305,ROLON,LA PAMPA,-37.1833,-63.4
6307,LA JOSEFINA,LA PAMPA,-37.1583,-63.5917
6309,APUYACO (APEADERO FCDFS),LA PAMPA,-37.4167,-63.6833
6311,LOS TOROS,LA PAMPA,-37.6167,-63.475
6312,RICARDO LAVALLE,LA PAMPA,-35.1333,-64.1667
6313,COLONIA SAN FELIPE,LA PAMPA,-36.275,-64.3667
6315,MAURICIO MAYER,LA PAMPA,-36.2333,-64.0333
6317,LOVENTUEL,LA PAMPA,-36.1833,-65.3
6319,LA MOROCHA,LA PAMPA,-36.4611,-65.3556
6321,NANQUEL HUITRE,LA PAMPA,-36.6375,-66.5208
6323,BUTALO,LA PAMPA,-36.2,-67.1
6325,QUEHUE,LA PAMPA,-37.1333,-64.5167
6326,ANGUIL,LA PAMPA,-36.5167,-64.0167
6330,CATRILO,LA PAMPA,-36.4333,-63.4
6331,MIGUEL CANE,LA PAMPA,-36.1667,-63.5
6333,MARI-MARI,LA PAMPA,-36.025,-63.625
6336,LA JAPONESA,LA PAMPA,-36.4167,-63.287
6345,LA BILBAINA,LA PAMPA,-36.5095,-63.3214
6352,COLONIA SAN MIGUEL,LA PAMPA,-36.4667,-63.6167
6354,"LA CATALINA (URIBURU, DPTO. CATRILO)",LA PAMPA,-36.5,-63.8333
6360,LA GUEÑITA,LA PAMPA,-35.6667,-63.7333
6361,"LA VICTORIA (AGUSTONI, DPTO. MARACO)",LA PAMPA,-35.6833,-63.4917
6365,SPELUZZI,LA PAMPA,-35.5333,-63.8
6367,"ZONA RURAL (METILEO, DPTO. CONELO)",LA PAMPA,-35.75,-63.9333
6369,CAMPO SALUSSO,LA PAMPA,-35.7,-64.1333
6380,EDUARDO CASTEX,LA PAMPA,-35.9,-64.3
6381,COLONIA EL DESTINO,LA PAMPA,-36.0333,-64.7083
6383,SECCION PRIMERA CONELO,LA PAMPA,-35.8667,-64.15
6385,PICHI-HUINCA,LA PAMPA,-35.6333,-64.7667
6387,LOTE 15 (ESCUELA 18),LA PAMPA,-35.5833,-64.55
8200,COLONIA LIA Y ALLENDE,LA PAMPA,-37.2667,-64.7389
8201,LA REFORMA,LA PAMPA,-37.55,-66.2333
8203,SAN ANTONIO,LA PAMPA,-37.2667,-64.5667
8204,BERNASCONI,LA PAMPA,-37.9,-63.7167
8206,LA PORTEÑA,LA PAMPA,-38.2667,-63.7333
8208,JACINTO ARAUZ,LA PAMPA,-38.0667,-63.4333
8212,"DOS AMIGOS (HUCAL, DPTO. HUCAL)",LA PAMPA,-37.7,-64.0833
8214,EPU PEL,LA PAMPA,-37.5667,-64.2833
8238,LOS MORROS,LA PAMPA,-37.6641,-64.8647
8307,PUELEN,LA PAMPA,-37.3667,-67.6167
8336,LA PROVIDENCIA,LA PAMPA,-39,-66.9042
5500,MENDOZA,MENDOZA,-32.8833,-68.8167
5501,BARRIO TRAPICHE,MENDOZA,-32.9167,-68.8333
5503,PASO DE LOS ANDES,MENDOZA,-33.0778,-68.8556
5505,CARBOMETAL,MENDOZA,-32.9778,-68.8667
5507,BAÑOS LUNLUNTA,MENDOZA,-33.0667,-68.8333
5509,ANCHORIS,MENDOZA,-33.3333,-68.9167
5511,BARRIO SARMIENTO,MENDOZA,-32.95,-68.8
5513,BARRIO JARDIN LUZURIAGA,MENDOZA,-32.9583,-68.7833
5515,MAIPU,MENDOZA,-32.9667,-68.7833
5517,TRES BANDERAS,MENDOZA,-33.269,-68.8524
5519,BARRIO GRAFICO,MENDOZA,-33.1561,-68.8288
5521,BARRIO RESIDENCIAL SANTA ANA,MENDOZA,-32.9,-68.7833
5523,BUENA NUEVA,MENDOZA,-32.9,-68.75
5525,RODEO DE LA CRUZ,MENDOZA,-32.9167,-68.7333
5527,VERGEL,MENDOZA,-32.8,-68.6333
5529,COLONIA JARA,MENDOZA,-32.975,-68.6833
5531,FINCA EL ARROZ,MENDOZA,-33.0333,-68.6667
5533,EL CHIRCAL,MENDOZA,-32.7833,-68.669
5535,EL ALPERO (EMBARCADERO FCGB),MENDOZA,-32.7333,-68.3556
5537,SAN MIGUEL,MENDOZA,-32.2833,-67.5167
5539,SANCHEZ DE BUSTAMANTE,MENDOZA,-32.8417,-68.8417
5541,EL BORBOLLON,MENDOZA,-32.8,-68.75
5543,EL RESGUARDO,MENDOZA,-32.6833,-68.71
5544,GOBERNADOR BENEGAS,MENDOZA,-32.95,-68.85
5545,TERMAS VILLAVICENCIO,MENDOZA,-32.5167,-69.0167
5547,BARRIO VILLA DEL PARQUE,MENDOZA,-32.9167,-68.8333
5549,ALVAREZ CONDARCO (APEADERO FCGB),MENDOZA,-32.9625,-69.1333
5551,POLVAREDA,MENDOZA,-32.7833,-69.6333
5553,ZANJON AMARILLO,MENDOZA,-32.85,-69.75
5555,PUENTE DEL INCA,MENDOZA,-32.8167,-69.9167
5557,LAS CUEVAS,MENDOZA,-32.8167,-70.05
5560,ARROYO CLARO,MENDOZA,-33.525,-69.0083
5561,CORDON DEL PLATA,MENDOZA,-33.37,-68.9033
5563,"VILLA SECA (LOS ARBOLES DE VILLEGAS, DPTO. TUNUYAN)",MENDOZA,-33.5222,-69.2389
5565,"LA PRIMAVERA (VISTA FLORES, DPTO. TUNUYAN)",MENDOZA,-33.6444,-69.1333
5567,LA CAÑADA,MENDOZA,-33.7333,-69.1167
5569,TIERRAS BLANCAS,MENDOZA,-33.8367,-69.0567
5570,SAN MARTIN,MENDOZA,-33.0667,-68.4667
5571,CHIVILCOY,MENDOZA,-33.2894,-68.4576
5573,VILLA DE JUNIN,MENDOZA,-33.15,-68.4833
5575,LOS ARBOLES,MENDOZA,-33.1833,-68.5667
5577,EL ALTO,MENDOZA,-33.1833,-68.4667
5579,MINELLI,MENDOZA,-33.2444,-68.3833
5580,COLONIA TABANERA,MENDOZA,-33.0222,-68.5056
5582,EL RAMBLON,MENDOZA,-33.1167,-68.4167
5584,PALMIRA,MENDOZA,-33.05,-68.5667
5585,LOS BARRIALES,MENDOZA,-33.15,-68.6083
5587,VALLE HERMOSO,MENDOZA,-33.0333,-68.5833
5589,EL CENTRAL,MENDOZA,-32.8,-68.3667
5590,MAQUINISTA LEVET,MENDOZA,-33.6,-67.1167
5591,VILLA LA PAZ,MENDOZA,-33.45,-67.6333
5592,LA DORMIDA,MENDOZA,-33.35,-67.9167
5594,COMANDANTE SALAS,MENDOZA,-33.85,-68
5595,ÑACUÑAN,MENDOZA,-34.05,-67.9667
5596,SANTA ROSA,MENDOZA,-33.25,-68.15
5600,EL CERRITO,MENDOZA,-34.6,-68.3333
5601,EL USILLAL,MENDOZA,-34.5667,-68.3333
5603,GOUDGE,MENDOZA,-34.6667,-68.1333
5605,SALINAS EL DIAMANTE (ESTACION FCGSM),MENDOZA,-34.9667,-68.5278
5607,COLONIA ESPAÑOLA,MENDOZA,-34.6167,-68.2833
5609,MONTE COMAN,MENDOZA,-34.6,-67.9
5611,LOS PARLAMENTOS (APEADERO FCGSM),MENDOZA,-35.9444,-69.7806
5613,RIO GRANDE,MENDOZA,-35.6917,-69.7
5615,COLONIA PASCUAL IACARINI,MENDOZA,-34.5833,-68.55
5620,GENERAL ALVEAR,MENDOZA,-34.9667,-67.7
5622,VILLA ATUEL,MENDOZA,-34.8333,-67.9
5623,JAIME PRATS,MENDOZA,-34.9,-67.8
5624,REAL DEL PADRE,MENDOZA,-34.8333,-67.7667
5632,LA MARZOLINA,MENDOZA,-35,-67.6167
5634,LA ESCANDINAVA,MENDOZA,-34.9167,-67.5333
5635,KILOMETRO 43,MENDOZA,-34.9905,-67.2524
5636,LOS HUARPES (APEADERO FCDFS),MENDOZA,-35.1583,-66.6833
5637,PAMPA DEL TIGRE (EMBARCADERO FCGSM),MENDOZA,-34.7,-67.0667
5677,"LOS CAMPAMENTOS (RIVADAVIA, DPTO. RIVADAVIA)",MENDOZA,-35.1174,-68.3656
3300,POSADAS,MISIONES,-27.3833,-55.8833
3304,VILLA LANUS,MISIONES,-27.4333,-55.8833
3306,MANANTIALES,MISIONES,-27.5833,-55.5767
3308,CANDELARIA,MISIONES,-27.4667,-55.7333
3309,BELLA VISTA,MISIONES,-27.5333,-55.5333
3311,PICADA GALITZIANA,MISIONES,-27.55,-55.4667
3313,CERRO AZUL,MISIONES,-27.6333,-55.4833
3315,POZO FEO,MISIONES,-27.6722,-55.2444
3316,YERBAL MAMBORETA,MISIONES,-27.3778,-55.4667
3317,ALMAFUERTE,MISIONES,-27.5167,-55.4
3318,COLONIA MARTIRES,MISIONES,-27.5512,-55.4143
3324,GOBERNADOR ROCA,MISIONES,-27.1833,-55.4667
3326,PUERTO NARANJITO,MISIONES,-26.95,-55.3
3327,PUERTO DOCE,MISIONES,-27.15,-55.6167
3328,JARDIN AMERICA,MISIONES,-27.0435,-55.227
3332,MBOPICUA,MISIONES,-26.9,-55.05
3334,PUERTO ORO VERDE,MISIONES,-26.8667,-55.1333
3350,TIGRE,MISIONES,-27.2667,-54.95
3351,CAPON BONITO,MISIONES,-28.0667,-55.5833
3353,ITACARUARE,MISIONES,-27.8667,-55.2667
3355,CONCEPCION DE LA SIERRA,MISIONES,-27.9833,-55.5167
3357,BARRA BONITA,MISIONES,-27.5833,-54.85
3358,EL RANCHO,MISIONES,-27.9,-55.8583
3360,PUEBLO SALTO,MISIONES,-27.5,-55.2
3361,YERBAL VIEJO SECCION 5,MISIONES,-27.5278,-55.1278
3362,YERBAL VIEJO SECCION 7,MISIONES,-27.3,-55
3363,COLONIA AURORA,MISIONES,-27.4667,-54.4833
3364,FRACRAN,MISIONES,-26.7667,-54.2667
3366,SAN ANTONIO,MISIONES,-26.1167,-53.75
3370,PUERTO AGUIRRE,MISIONES,-25.5991,-54.5736
3371,CABURE I,MISIONES,-25.6833,-54.1333
3372,CATARATAS DEL IGUAZU,MISIONES,-25.6667,-54.45
3374,SEGUNDA ZONA,MISIONES,-25.8889,-54.5889
3376,GOBERNADOR JUAN J. LANUSSE,MISIONES,-25.9667,-54.4667
3378,VEINTIDOS DE DICIEMBRE,MISIONES,-26.0292,-54.6333
3380,"9 DE JULIO (ELDORADO, DPTO. ELDORADO)",MISIONES,-26.4,-54.6333
3381,SANTIAGO DE LINIERS,MISIONES,-26.3458,-54.6458
3382,COLONIA VICTORIA,MISIONES,-26.375,-54.6667
3384,LARRAQUE,MISIONES,-26.4208,-54.6083
3386,PUERTO PRESIDENTE AVELLANEDA,MISIONES,-26.65,-54.7917
3601,PICADITA,MISIONES,-26.19,-58.5733
3525,VILLA ESCOLAR,FORMOSA,-26.6167,-58.6667
3600,FORMOSA,FORMOSA,-26.1833,-58.1833
3603,GENERAL PABLO RICCHIERI,FORMOSA,-25.9655,-58.5429
3604,MARIANO BOEDO,FORMOSA,-26.1167,-58.4833
3606,LOMA SENES,FORMOSA,-25.7167,-59.1
3608,PALO SANTO,FORMOSA,-25.5667,-59.35
3610,ESTANCIA LAS HORQUETAS,FORMOSA,-25.2333,-57.8417
3611,COLONIA BOUVIER,FORMOSA,-25.45,-57.5833
3613,FRONTERA,FORMOSA,-25.4,-58.1833
3615,TACAAGLE,FORMOSA,-24.9667,-58.8167
3621,FORTIN LUGONES,FORMOSA,-24.2833,-59.8333
3622,TENIENTE BROWN,FORMOSA,-24.8,-60.4667
3624,LEGUA A,FORMOSA,-25.4667,-59.8833
3626,ESTANISLAO DEL CAMPO,FORMOSA,-25.05,-60.1
3628,POZO DEL TIGRE,FORMOSA,-24.9,-60.3167
3630,KILOMETRO 642 (NAVEGACION RIO BERMEJO),FORMOSA,-24.19,-60.6767
3632,KILOMETRO 1695 (APEADERO FCGB),FORMOSA,-24.2667,-61.0571
3634,JOAQUIN V. GONZALEZ,FORMOSA,-24.25,-61.25
8300,NEUQUEN,NEUQUEN,-38.95,-68.0667
8301,PLANICIE BANDERITA,NEUQUEN,-38.8083,-68.0833
8305,TRATAYEN,NEUQUEN,-38.4,-68.6
8309,VISTA ALEGRE NORTE,NEUQUEN,-38.8,-68.1333
8311,VILLA EL CHOCON,NEUQUEN,-39.2333,-68.75
8313,LIMAY CENTRO,NEUQUEN,-39.2278,-68.8056
8315,BAJADA COLORADA,NEUQUEN,-39.85,-69.7333
8316,CHINA MUERTA,NEUQUEN,-38.9833,-68.325
8318,PLAZA HUINCUL,NEUQUEN,-38.9167,-69.15
8319,CAMPAMENTO SOL,NEUQUEN,-39.4467,-69.3489
8322,BARRIO PELIGROSO,NEUQUEN,-38.9333,-69.2333
8340,AGUADA FLORENCIO,NEUQUEN,-38.7167,-70.1583
8341,CATAN LIL,NEUQUEN,-39.75,-70.6167
8345,HARAS PATRIA,NEUQUEN,-39.0667,-70.8333
8347,PINO SOLO,NEUQUEN,-38.2867,-70.49
8349,CERRO DE LA PARVA,NEUQUEN,-37.8061,-70.6485
8351,TRAHUNCURA,NEUQUEN,-38.15,-70.1139
8353,CHACAY MELEHUE,NEUQUEN,-37.2333,-70.3667
