Postal Code,Place Name,State,County,City,Latitude,Longitude
1010,Wien,,Politischer Bezirk Wien (Stadt),Wien,48.2077,16.3705
1020,Wien,,Politischer Bezirk Wien (Stadt),Wien,48.2167,16.4
1030,Wien,,Politischer Bezirk Wien (Stadt),Wien,48.1981,16.3948
1040,Wien,,Politischer Bezirk Wien (Stadt),Wien,48.192,16.3671
1050,Wien,,Politischer Bezirk Wien (Stadt),Wien,48.1865,16.3549
1060,Wien,,Politischer Bezirk Wien (Stadt),Wien,48.1952,16.3503
1070,Wien,,Politischer Bezirk Wien (Stadt),Wien,48.2,16.35
1080,Wien,,Politischer Bezirk Wien (Stadt),Wien,48.2167,16.35
1090,Wien,,Politischer Bezirk Wien (Stadt),Wien,48.2333,16.35
1100,Wien,,Politischer Bezirk Wien (Stadt),Wien,48.1711,16.3778
1110,Wien,,Politischer Bezirk Wien (Stadt),Wien,48.1758,16.4133
1120,Wien,,Politischer Bezirk Wien (Stadt),Wien,48.1667,16.3333
1130,Wien,,Politischer Bezirk Wien (Stadt),Wien,48.1833,16.3
1140,Purkersdorf,Niederösterreich,Politischer Bezirk Wien Umgebung,Purkersdorf,48.2077,16.1754
1150,Wien,,Politischer Bezirk Wien (Stadt),Wien,48.2,16.3333
1160,Wien,,Politischer Bezirk Wien (Stadt),Wien,48.2167,16.3
1170,Wien,,Politischer Bezirk Wien (Stadt),Wien,48.2333,16.3
1180,Wien,,Politischer Bezirk Wien (Stadt),Wien,48.2333,16.3167
1190,Wien,,Politischer Bezirk Wien (Stadt),Wien,48.25,16.3331
1200,Wien,,Politischer Bezirk Wien (Stadt),Wien,48.2345,16.3741
1210,Langenzersdorf,Niederösterreich,Politischer Bezirk Korneuburg,Langenzersdorf,48.3,16.35
1220,Wien,,Politischer Bezirk Wien (Stadt),Wien,48.2256,16.4997
1230,Wien,,Politischer Bezirk Wien (Stadt),Wien,48.1333,16.3
1300,Wien Flughafen,Niederösterreich,Politischer Bezirk Wien Umgebung,Schwechat,48.15,16.5167
2000,Hausleiten,Niederösterreich,Politischer Bezirk Korneuburg,Hausleiten,48.3929,16.1003
2002,Großmugl,Niederösterreich,Politischer Bezirk Korneuburg,Großmugl,48.4992,16.2306
2003,Niederhollabrunn,Niederösterreich,Politischer Bezirk Korneuburg,Niederhollabrunn,48.4333,16.3
2004,Niederhollabrunn,Niederösterreich,Politischer Bezirk Korneuburg,Niederhollabrunn,48.4333,16.3
2011,Leitzersdorf,Niederösterreich,Politischer Bezirk Korneuburg,Leitzersdorf,48.4167,16.2333
2013,Göllersdorf,Niederösterreich,Politischer Bezirk Hollabrunn,Göllersdorf,48.4833,16.1167
2014,Dietersdorf,Niederösterreich,Politischer Bezirk Hollabrunn,Hollabrunn,48.5615,16.1181
2020,Grabern,Niederösterreich,Politischer Bezirk Hollabrunn,Grabern,48.6066,16.0318
2022,Wullersdorf,Niederösterreich,Politischer Bezirk Hollabrunn,Wullersdorf,48.6167,16.1
2023,Wullersdorf,Niederösterreich,Politischer Bezirk Hollabrunn,Wullersdorf,48.6167,16.1
2024,Mailberg,Niederösterreich,Politischer Bezirk Hollabrunn,Mailberg,48.6667,16.1833
2031,Altenmarkt im Thale,Niederösterreich,Politischer Bezirk Hollabrunn,Hollabrunn,48.5833,16.2
2032,Hollabrunn,Niederösterreich,Politischer Bezirk Hollabrunn,Hollabrunn,48.55,16.0833
2033,Nappersdorf-Kammersdorf,Niederösterreich,Politischer Bezirk Hollabrunn,Nappersdorf-Kammersdorf,48.6222,16.2278
2034,Großharras,Niederösterreich,Politischer Bezirk Mistelbach an der Zaya,Großharras,48.6639,16.2456
2041,Wullersdorf,Niederösterreich,Politischer Bezirk Hollabrunn,Wullersdorf,48.6167,16.1
2042,Grabern,Niederösterreich,Politischer Bezirk Hollabrunn,Grabern,48.6066,16.0318
2051,Zellerndorf,Niederösterreich,Politischer Bezirk Hollabrunn,Zellerndorf,48.6833,15.95
2052,Pernersdorf,Niederösterreich,Politischer Bezirk Hollabrunn,Pernersdorf,48.7055,16.0305
2053,Haugsdorf,Niederösterreich,Politischer Bezirk Hollabrunn,Haugsdorf,48.7,16.0667
2054,Alberndorf im Pulkautal,Niederösterreich,Politischer Bezirk Hollabrunn,Alberndorf im Pulkautal,48.7292,16.05
2061,Hadres,Niederösterreich,Politischer Bezirk Hollabrunn,Hadres,48.7,16.1167
2062,Seefeld-Kadolz,Niederösterreich,Politischer Bezirk Hollabrunn,Seefeld-Kadolz,48.7125,16.1861
2063,Großharras,Niederösterreich,Politischer Bezirk Mistelbach an der Zaya,Großharras,48.6639,16.2456
2064,Laa an der Thaya,Niederösterreich,Politischer Bezirk Mistelbach an der Zaya,Laa an der Thaya,48.7167,16.3833
2070,Retz,Niederösterreich,Politischer Bezirk Hollabrunn,Retz,48.75,15.95
2073,Schrattenthal,Niederösterreich,Politischer Bezirk Hollabrunn,Schrattenthal,48.7,15.9
2074,Retz,Niederösterreich,Politischer Bezirk Hollabrunn,Retz,48.75,15.95
2081,Hardegg,Niederösterreich,Politischer Bezirk Hollabrunn,Hardegg,48.8263,15.8541
2082,Hardegg,Niederösterreich,Politischer Bezirk Hollabrunn,Hardegg,48.8263,15.8541
2083,Hardegg,Niederösterreich,Politischer Bezirk Hollabrunn,Hardegg,48.8111,15.8333
2084,Weitersfeld,Niederösterreich,Politischer Bezirk Horn,Weitersfeld,48.7694,15.7972
2091,Weitersfeld,Niederösterreich,Politischer Bezirk Horn,Weitersfeld,48.7767,15.7906
2092,Hardegg,Niederösterreich,Politischer Bezirk Hollabrunn,Hardegg,48.8417,15.7833
2093,Geras,Niederösterreich,Politischer Bezirk Horn,Geras,48.7973,15.6727
2094,Drosendorf-Zissersdorf,Niederösterreich,Politischer Bezirk Horn,Drosendorf-Zissersdorf,48.8355,15.5857
2095,Drosendorf-Zissersdorf,Niederösterreich,Politischer Bezirk Horn,Drosendorf-Zissersdorf,48.865,15.61
2100,Leobendorf,Niederösterreich,Politischer Bezirk Korneuburg,Leobendorf,48.3833,16.3167
2102,Bisamberg,Niederösterreich,Politischer Bezirk Korneuburg,Bisamberg,48.3333,16.35
2103,Langenzersdorf,Niederösterreich,Politischer Bezirk Korneuburg,Langenzersdorf,48.3,16.35
2104,Spillern,Niederösterreich,Politischer Bezirk Korneuburg,Spillern,48.3833,16.25
2105,Oberrohrbach,Niederösterreich,Politischer Bezirk Korneuburg,Leobendorf,48.3817,16.3204
2111,Rückersdorf,Niederösterreich,Politischer Bezirk Korneuburg,Harmannsdorf,48.4214,16.281
2112,Harmannsdorf,Niederösterreich,Politischer Bezirk Korneuburg,Harmannsdorf,48.4137,16.3805
2113,Karnabrunn,Niederösterreich,Politischer Bezirk Korneuburg,Großrußbach,48.45,16.3667
2114,Großrußbach,Niederösterreich,Politischer Bezirk Korneuburg,Großrußbach,48.4667,16.4167
2115,Ernstbrunn,Niederösterreich,Politischer Bezirk Korneuburg,Ernstbrunn,48.5333,16.35
2116,Ernstbrunn,Niederösterreich,Politischer Bezirk Korneuburg,Ernstbrunn,48.5333,16.35
2120,Wolkersdorf im Weinviertel,Niederösterreich,Politischer Bezirk Mistelbach an der Zaya,Wolkersdorf im Weinviertel,48.3667,16.5167
2122,Ulrichskirchen-Schleinbach,Niederösterreich,Politischer Bezirk Mistelbach an der Zaya,Ulrichskirchen-Schleinbach,48.3958,16.4792
2123,Wolfpassing a.d.Hochleithen,Niederösterreich,Politischer Bezirk Mistelbach an der Zaya,Hochleithen,48.4306,16.4972
2124,Kreuzstetten,Niederösterreich,Politischer Bezirk Mistelbach an der Zaya,Kreuzstetten,48.4997,16.5003
2125,Hochleithen,Niederösterreich,Politischer Bezirk Mistelbach an der Zaya,Hochleithen,48.4667,16.5333
2126,Ladendorf,Niederösterreich,Politischer Bezirk Mistelbach an der Zaya,Ladendorf,48.5333,16.4833
2130,Mistelbach,Niederösterreich,Politischer Bezirk Mistelbach an der Zaya,Mistelbach,48.57,16.5767
2132,Mistelbach,Niederösterreich,Politischer Bezirk Mistelbach an der Zaya,Mistelbach,48.57,16.5767
2133,Fallbach,Niederösterreich,Politischer Bezirk Mistelbach an der Zaya,Fallbach,48.65,16.4167
2134,Staatz,Niederösterreich,Politischer Bezirk Mistelbach an der Zaya,Staatz,48.6667,16.4833
2135,Neudorf bei Staatz,Niederösterreich,Politischer Bezirk Mistelbach an der Zaya,Neudorf bei Staatz,48.7208,16.4914
2136,Laa an der Thaya,Niederösterreich,Politischer Bezirk Mistelbach an der Zaya,Laa an der Thaya,48.7167,16.3833
2141,Poysdorf,Niederösterreich,Politischer Bezirk Mistelbach an der Zaya,Poysdorf,48.6667,16.6333
2143,Großkrut,Niederösterreich,Politischer Bezirk Mistelbach an der Zaya,Großkrut,48.6439,16.7236
2144,Altlichtenwarth,Niederösterreich,Politischer Bezirk Mistelbach an der Zaya,Altlichtenwarth,48.6333,16.8
2145,Hausbrunn,Niederösterreich,Politischer Bezirk Mistelbach an der Zaya,Hausbrunn,48.6167,16.8167
2151,Asparn an der Zaya,Niederösterreich,Politischer Bezirk Mistelbach an der Zaya,Asparn an der Zaya,48.5833,16.5
2152,Gnadendorf,Niederösterreich,Politischer Bezirk Mistelbach an der Zaya,Gnadendorf,48.6167,16.4
2153,Stronsdorf,Niederösterreich,Politischer Bezirk Mistelbach an der Zaya,Stronsdorf,48.65,16.2833
2154,Unterstinkenbrunn,Niederösterreich,Politischer Bezirk Mistelbach an der Zaya,Unterstinkenbrunn,48.6667,16.3333
2161,Poysdorf,Niederösterreich,Politischer Bezirk Mistelbach an der Zaya,Poysdorf,48.6667,16.6333
2162,Falkenstein,Niederösterreich,Politischer Bezirk Mistelbach an der Zaya,Falkenstein,48.7145,16.5909
2163,Ottenthal,Niederösterreich,Politischer Bezirk Mistelbach an der Zaya,Ottenthal,48.7715,16.5719
2164,Wildendürnbach,Niederösterreich,Politischer Bezirk Mistelbach an der Zaya,Wildendürnbach,48.7665,16.4917
2165,Drasenhofen,Niederösterreich,Politischer Bezirk Mistelbach an der Zaya,Drasenhofen,48.75,16.65
2170,Poysdorf,Niederösterreich,Politischer Bezirk Mistelbach an der Zaya,Poysdorf,48.6667,16.6333
2171,Herrnbaumgarten,Niederösterreich,Politischer Bezirk Mistelbach an der Zaya,Herrnbaumgarten,48.6833,16.6833
2172,Schrattenberg,Niederösterreich,Politischer Bezirk Mistelbach an der Zaya,Schrattenberg,48.6639,16.6389
2181,Palterndorf-Dobermannsdorf,Niederösterreich,Politischer Bezirk Gänserndorf,Palterndorf-Dobermannsdorf,48.6,16.8167
2182,Palterndorf-Dobermannsdorf,Niederösterreich,Politischer Bezirk Gänserndorf,Palterndorf-Dobermannsdorf,48.5833,16.8167
2183,Neusiedl an der Zaya,Niederösterreich,Politischer Bezirk Gänserndorf,Neusiedl an der Zaya,48.6333,16.8
2184,Hauskirchen,Niederösterreich,Politischer Bezirk Gänserndorf,Hauskirchen,48.6,16.7667
2185,Rannersdorf an der Zaya,Niederösterreich,Politischer Bezirk Gänserndorf,Hauskirchen,48.6036,16.7167
2191,Gaweinstal,Niederösterreich,Politischer Bezirk Mistelbach an der Zaya,Gaweinstal,48.4667,16.5833
2192,Mistelbach,Niederösterreich,Politischer Bezirk Mistelbach an der Zaya,Mistelbach,48.57,16.5767
2193,Wilfersdorf,Niederösterreich,Politischer Bezirk Mistelbach an der Zaya,Wilfersdorf,48.5951,16.662
2201,Hagenbrunn,Niederösterreich,Politischer Bezirk Korneuburg,Hagenbrunn,48.3333,16.4
2202,Hagenbrunn,Niederösterreich,Politischer Bezirk Korneuburg,Hagenbrunn,48.3333,16.4
2203,Manhartsbrunn,Niederösterreich,Politischer Bezirk Mistelbach an der Zaya,Großebersdorf,48.3833,16.4167
2211,Pillichsdorf,Niederösterreich,Politischer Bezirk Mistelbach an der Zaya,Pillichsdorf,48.35,16.5333
2212,Groß-Engersdorf,Niederösterreich,Politischer Bezirk Mistelbach an der Zaya,Großengersdorf,48.35,16.5667
2213,Bockfließ,Niederösterreich,Politischer Bezirk Mistelbach an der Zaya,Bockfließ,48.36,16.6039
2214,Auersthal,Niederösterreich,Politischer Bezirk Gänserndorf,Auersthal,48.3667,16.6333
2215,Matzen-Raggendorf,Niederösterreich,Politischer Bezirk Gänserndorf,Matzen-Raggendorf,48.3941,16.6582
2221,Groß-Schweinbarth,Niederösterreich,Politischer Bezirk Gänserndorf,Groß-Schweinbarth,48.4147,16.6319
2222,Bad Pirawarth,Niederösterreich,Politischer Bezirk Gänserndorf,Bad Pirawarth,48.4519,16.5983
2223,Matzen-Raggendorf,Niederösterreich,Politischer Bezirk Gänserndorf,Matzen-Raggendorf,48.4626,16.6235
2224,Sulz im Weinviertel,Niederösterreich,Politischer Bezirk Gänserndorf,Sulz im Weinviertel,48.4901,16.6743
2225,Zistersdorf,Niederösterreich,Politischer Bezirk Gänserndorf,Zistersdorf,48.5333,16.75
2230,Gänserndorf,Niederösterreich,Politischer Bezirk Gänserndorf,Gänserndorf,48.3392,16.7202
2231,Strasshof an der Nordbahn,Niederösterreich,Politischer Bezirk Gänserndorf,Strasshof an der Nordbahn,48.3167,16.6667
2232,Deutsch-Wagram,Niederösterreich,Politischer Bezirk Gänserndorf,Deutsch-Wagram,48.2997,16.5667
2241,Schönkirchen-Reyersdorf,Niederösterreich,Politischer Bezirk Gänserndorf,Schönkirchen-Reyersdorf,48.3722,16.6851
2242,Prottes,Niederösterreich,Politischer Bezirk Gänserndorf,Prottes,48.2572,16.6277
2243,Matzen-Raggendorf,Niederösterreich,Politischer Bezirk Gänserndorf,Matzen-Raggendorf,48.4,16.7
2244,Spannberg,Niederösterreich,Politischer Bezirk Gänserndorf,Spannberg,48.4639,16.7365
2245,Velm-Götzendorf,Niederösterreich,Politischer Bezirk Gänserndorf,Velm-Götzendorf,48.4704,16.7893
2251,Ebenthal,Niederösterreich,Politischer Bezirk Gänserndorf,Ebenthal,48.4319,16.7885
2252,Angern an der March,Niederösterreich,Politischer Bezirk Gänserndorf,Angern an der March,48.3778,16.8281
2253,Weikendorf,Niederösterreich,Politischer Bezirk Gänserndorf,Weikendorf,48.3444,16.7665
2261,Mannersdorf an der March,Niederösterreich,Politischer Bezirk Gänserndorf,Angern an der March,48.3833,16.8333
2262,Angern an der March,Niederösterreich,Politischer Bezirk Gänserndorf,Angern an der March,48.3778,16.8281
2263,Dürnkrut,Niederösterreich,Politischer Bezirk Gänserndorf,Dürnkrut,48.4731,16.8506
2264,Sierndorf an der March,Niederösterreich,Politischer Bezirk Gänserndorf,Jedenspeigen,48.5107,16.8858
2265,Waltersdorf an der March,Niederösterreich,Politischer Bezirk Gänserndorf,Drösing,48.5275,16.888
2272,Ringelsdorf-Niederabsdorf,Niederösterreich,Politischer Bezirk Gänserndorf,Ringelsdorf-Niederabsdorf,48.5667,16.8583
2273,Hohenau an der March,Niederösterreich,Politischer Bezirk Gänserndorf,Hohenau an der March,48.5769,16.7366
2274,Rabensburg,Niederösterreich,Politischer Bezirk Mistelbach an der Zaya,Rabensburg,48.65,16.9
2275,Bernhardsthal,Niederösterreich,Politischer Bezirk Mistelbach an der Zaya,Bernhardsthal,48.6916,16.8695
2276,Reintal,Niederösterreich,Politischer Bezirk Mistelbach an der Zaya,Bernhardsthal,48.7017,16.8253
2281,Raasdorf,Niederösterreich,Politischer Bezirk Gänserndorf,Raasdorf,48.2466,16.5653
2282,Großhofen,Niederösterreich,Politischer Bezirk Gänserndorf,Großhofen,48.2583,16.6194
2283,Obersiebenbrunn,Niederösterreich,Politischer Bezirk Gänserndorf,Obersiebenbrunn,48.2667,16.7
2284,Untersiebenbrunn,Niederösterreich,Politischer Bezirk Gänserndorf,Untersiebenbrunn,48.25,16.7333
2285,Leopoldsdorf im Marchfelde,Niederösterreich,Politischer Bezirk Gänserndorf,Leopoldsdorf im Marchfelde,48.2226,16.6886
2286,Haringsee,Niederösterreich,Politischer Bezirk Gänserndorf,Haringsee,48.1927,16.7874
2291,Schönfeld im Marchfeld,Niederösterreich,Politischer Bezirk Gänserndorf,Lassee,48.2656,16.805
2292,Engelhartstetten,Niederösterreich,Politischer Bezirk Gänserndorf,Engelhartstetten,48.1667,16.8833
2293,Marchegg,Niederösterreich,Politischer Bezirk Gänserndorf,Marchegg,48.2789,16.9093
2294,Engelhartstetten,Niederösterreich,Politischer Bezirk Gänserndorf,Engelhartstetten,48.1667,16.8833
2295,Weiden an der March,Niederösterreich,Politischer Bezirk Gänserndorf,Weiden an der March,48.3189,16.8453
2301,Andlersdorf,Niederösterreich,Politischer Bezirk Gänserndorf,Andlersdorf,48.1833,16.6667
2304,Orth an der Donau,Niederösterreich,Politischer Bezirk Gänserndorf,Orth an der Donau,48.1452,16.7009
2305,Eckartsau,Niederösterreich,Politischer Bezirk Gänserndorf,Eckartsau,48.1451,16.7974
2320,Mannswörth,Niederösterreich,Politischer Bezirk Wien Umgebung,Schwechat,48.15,16.5167
2322,Zwölfaxing,Niederösterreich,Politischer Bezirk Wien Umgebung,Zwölfaxing,48.1099,16.4627
2325,Himberg,Niederösterreich,Politischer Bezirk Wien Umgebung,Himberg,48.0644,16.448
2326,Maria-Lanzendorf,Niederösterreich,Politischer Bezirk Wien Umgebung,Maria-Lanzendorf,48.0992,16.4198
2331,Vösendorf,Niederösterreich,Politischer Bezirk Mödling,Vösendorf,48.1211,16.3404
2332,Hennersdorf,Niederösterreich,Politischer Bezirk Mödling,Hennersdorf,48.1117,16.3631
2333,Leopoldsdorf,Niederösterreich,Politischer Bezirk Wien Umgebung,Leopoldsdorf,48.1079,16.3985
2334,Wiener Neudorf,Niederösterreich,Politischer Bezirk Mödling,Wiener Neudorf,48.0828,16.3138
2340,Mödling,Niederösterreich,Politischer Bezirk Mödling,Mödling,48.086,16.2892
2344,Maria Enzersdorf,Niederösterreich,Politischer Bezirk Mödling,Maria Enzersdorf,48.1,16.2833
2345,Brunn am Gebirge,Niederösterreich,Politischer Bezirk Mödling,Brunn am Gebirge,48.107,16.2847
2351,Wiener Neudorf,Niederösterreich,Politischer Bezirk Mödling,Wiener Neudorf,48.0828,16.3138
2352,Gumpoldskirchen,Niederösterreich,Politischer Bezirk Mödling,Gumpoldskirchen,48.0454,16.2771
2353,Gumpoldskirchen,Niederösterreich,Politischer Bezirk Mödling,Gumpoldskirchen,48.0454,16.2771
2361,Laxenburg,Niederösterreich,Politischer Bezirk Mödling,Laxenburg,48.0683,16.3561
2362,Biedermannsdorf,Niederösterreich,Politischer Bezirk Mödling,Biedermannsdorf,48.0839,16.3454
2371,Hinterbrühl,Niederösterreich,Politischer Bezirk Mödling,Hinterbrühl,48.0861,16.2481
2372,Gießhübl,Niederösterreich,Politischer Bezirk Mödling,Gießhübl,48.0978,16.2348
2380,Perchtoldsdorf,Niederösterreich,Politischer Bezirk Mödling,Perchtoldsdorf,48.1194,16.2661
2381,Laab im Walde,Niederösterreich,Politischer Bezirk Mödling,Laab im Walde,48.1549,16.1736
2384,Breitenfurt bei Wien,Niederösterreich,Politischer Bezirk Mödling,Breitenfurt bei Wien,48.1333,16.15
2391,Kaltenleutgeben,Niederösterreich,Politischer Bezirk Mödling,Kaltenleutgeben,48.1165,16.1996
2392,Dornbach,Niederösterreich,Politischer Bezirk Mödling,Wienerwald,48.0975,16.1072
2393,Wienerwald,Niederösterreich,Politischer Bezirk Mödling,Wienerwald,48.1004,16.1375
2401,Fischamend,Niederösterreich,Politischer Bezirk Wien Umgebung,Fischamend,48.1178,16.6064
2402,Haslau-Maria Ellend,Niederösterreich,Politischer Bezirk Bruck an der Leitha,Haslau-Maria Ellend,48.1083,16.7
2403,Scharndorf,Niederösterreich,Politischer Bezirk Bruck an der Leitha,Scharndorf,48.0833,16.7833
2404,Petronell-Carnuntum,Niederösterreich,Politischer Bezirk Bruck an der Leitha,Petronell-Carnuntum,48.1167,16.85
2405,Bad Deutsch-Altenburg,Niederösterreich,Politischer Bezirk Bruck an der Leitha,Bad Deutsch-Altenburg,48.1342,16.9062
2410,Hainburg a.d. Donau,Niederösterreich,Politischer Bezirk Bruck an der Leitha,Hainburg a.d. Donau,48.1463,16.945
2412,Wolfsthal,Niederösterreich,Politischer Bezirk Bruck an der Leitha,Wolfsthal,48.1333,17
2413,Edelstal,Burgenland,Politischer Bezirk Neusiedl am See,Edelstal,48.1,16.9833
2421,Kittsee,Burgenland,Politischer Bezirk Neusiedl am See,Kittsee,48.0925,17.0639
2422,Pama,Burgenland,Politischer Bezirk Neusiedl am See,Pama,48.05,17.0333
2423,Deutsch Jahrndorf,Burgenland,Politischer Bezirk Neusiedl am See,Deutsch Jahrndorf,48.0167,17.1
2424,Zurndorf,Burgenland,Politischer Bezirk Neusiedl am See,Zurndorf,47.9831,17.0031
2425,Nickelsdorf,Burgenland,Politischer Bezirk Neusiedl am See,Nickelsdorf,47.9406,17.0694
2431,Enzersdorf an der Fischa,Niederösterreich,Politischer Bezirk Bruck an der Leitha,Enzersdorf an der Fischa,48.0833,16.6
2432,Schwadorf,Niederösterreich,Politischer Bezirk Wien Umgebung,Schwadorf,48.0784,16.5719
2433,Enzersdorf an der Fischa,Niederösterreich,Politischer Bezirk Bruck an der Leitha,Enzersdorf an der Fischa,48.0833,16.6
2434,Pischelsdorf,Niederösterreich,Politischer Bezirk Bruck an der Leitha,Götzendorf an der Leitha,47.9889,16.6111
2435,Pischelsdorf,Niederösterreich,Politischer Bezirk Bruck an der Leitha,Götzendorf an der Leitha,48.0404,16.5508
2440,Reisenberg,Niederösterreich,Politischer Bezirk Baden,Reisenberg,48,16.5167
2441,Mitterndorf an der Fischa,Niederösterreich,Politischer Bezirk Baden,Mitterndorf an der Fischa,47.9833,16.4667
2442,Ebreichsdorf,Niederösterreich,Politischer Bezirk Baden,Ebreichsdorf,47.95,16.4
2443,Stotzing,Burgenland,Politischer Bezirk Eisenstadt,Stotzing,47.9,16.55
2444,Seibersdorf,Niederösterreich,Politischer Bezirk Baden,Seibersdorf,47.9545,16.4955
2451,Au am Leithaberge,Niederösterreich,Politischer Bezirk Bruck an der Leitha,Au am Leithaberge,47.9167,16.55
2452,Reisenberg,Niederösterreich,Politischer Bezirk Baden,Reisenberg,48,16.5167
2453,Sommerein,Niederösterreich,Politischer Bezirk Bruck an der Leitha,Sommerein,47.9833,16.65
2454,Sarasdorf,Niederösterreich,Politischer Bezirk Bruck an der Leitha,Trautmannsdorf an der Leitha,48.0167,16.6667
2460,Bruckneudorf,Burgenland,Politischer Bezirk Neusiedl am See,Bruckneudorf,48.0167,16.7833
2462,Bruckneudorf,Burgenland,Politischer Bezirk Neusiedl am See,Bruckneudorf,48.0167,16.7833
2463,Stixneusiedl,Niederösterreich,Politischer Bezirk Bruck an der Leitha,Trautmannsdorf an der Leitha,48.0333,16.6667
2464,Göttlesbrunn-Arbesthal,Niederösterreich,Politischer Bezirk Bruck an der Leitha,Göttlesbrunn-Arbesthal,48.0583,16.7167
2465,Höflein,Niederösterreich,Politischer Bezirk Bruck an der Leitha,Höflein,47.7833,16.0167
2471,Parndorf,Burgenland,Politischer Bezirk Neusiedl am See,Parndorf,47.9996,16.8605
2472,Prellenkirchen,Niederösterreich,Politischer Bezirk Bruck an der Leitha,Prellenkirchen,48.0667,16.95
2473,Potzneusiedl,Burgenland,Politischer Bezirk Neusiedl am See,Potzneusiedl,48.0333,16.9333
2474,Gattendorf,Burgenland,Politischer Bezirk Neusiedl am See,Gattendorf,48.0167,16.9833
2475,Neudorf,Burgenland,Politischer Bezirk Neusiedl am See,Neudorf,48.0167,16.9333
2481,Achau,Niederösterreich,Politischer Bezirk Mödling,Achau,48.0803,16.3861
2482,Münchendorf,Niederösterreich,Politischer Bezirk Mödling,Münchendorf,48.0333,16.3833
2483,Ebreichsdorf,Niederösterreich,Politischer Bezirk Baden,Ebreichsdorf,47.95,16.4
2485,Wimpassing an der Leitha,Burgenland,Politischer Bezirk Eisenstadt,Wimpassing an der Leitha,47.9167,16.4333
2486,Landegg,Niederösterreich,Politischer Bezirk Baden,Pottendorf,47.9,16.4
2490,Ebenfurth,Niederösterreich,Politischer Bezirk Wiener Neustadt,Ebenfurth,47.8667,16.3667
2491,Hornstein,Burgenland,Politischer Bezirk Eisenstadt,Hornstein,47.8667,16.4333
2492,Zillingdorf,Niederösterreich,Politischer Bezirk Wiener Neustadt,Zillingdorf,47.85,16.3333
2493,Eggendorf,Niederösterreich,Politischer Bezirk Wiener Neustadt,Eggendorf,47.85,16.3167
2500,Alland,Niederösterreich,Politischer Bezirk Baden,Alland,48.0583,16.079
2511,Pfaffstätten,Niederösterreich,Politischer Bezirk Baden,Pfaffstätten,48.0174,16.2635
2512,Traiskirchen,Niederösterreich,Politischer Bezirk Baden,Traiskirchen,48.0148,16.2932
2514,Möllersdorf,Niederösterreich,Politischer Bezirk Baden,Traiskirchen,48.0258,16.3051
2521,Trumau,Niederösterreich,Politischer Bezirk Baden,Trumau,47.9935,16.3427
2522,Oberwaltersdorf,Niederösterreich,Politischer Bezirk Baden,Oberwaltersdorf,47.9757,16.3219
2523,Tattendorf,Niederösterreich,Politischer Bezirk Baden,Tattendorf,47.95,16.3
2524,Teesdorf,Niederösterreich,Politischer Bezirk Baden,Teesdorf,47.95,16.2833
2525,Schönau an der Triesting,Niederösterreich,Politischer Bezirk Baden,Schönau an der Triesting,47.9345,16.2538
2531,Gaaden,Niederösterreich,Politischer Bezirk Mödling,Gaaden,48.0526,16.218
2532,Alland,Niederösterreich,Politischer Bezirk Baden,Alland,48.0583,16.079
2533,Klausen-Leopoldsdorf,Niederösterreich,Politischer Bezirk Baden,Klausen-Leopoldsdorf,48.0877,16.0169
2534,Heiligenkreuz,Niederösterreich,Politischer Bezirk Baden,Heiligenkreuz,48.0426,16.1529
2540,Heiligenkreuz,Niederösterreich,Politischer Bezirk Baden,Heiligenkreuz,48.0426,16.1529
2542,Leobersdorf,Niederösterreich,Politischer Bezirk Baden,Leobersdorf,47.928,16.2165
2544,Enzesfeld-Lindabrunn,Niederösterreich,Politischer Bezirk Baden,Enzesfeld-Lindabrunn,47.9532,16.1791
2551,Enzesfeld-Lindabrunn,Niederösterreich,Politischer Bezirk Baden,Enzesfeld-Lindabrunn,47.931,16.1791
2552,Hirtenberg,Niederösterreich,Politischer Bezirk Baden,Hirtenberg,47.931,16.1791
2560,Berndorf,Niederösterreich,Politischer Bezirk Baden,Berndorf,47.9422,16.1264
2563,Pottenstein,Niederösterreich,Politischer Bezirk Baden,Pottenstein,47.9582,16.0948
2564,Pottenstein,Niederösterreich,Politischer Bezirk Baden,Pottenstein,47.9582,16.0948
2565,Altenmarkt an der Triesting,Niederösterreich,Politischer Bezirk Baden,Altenmarkt an der Triesting,48.0155,15.9966
2571,Altenmarkt an der Triesting,Niederösterreich,Politischer Bezirk Baden,Altenmarkt an der Triesting,48.0155,15.9966
2572,Altenmarkt an der Triesting,Niederösterreich,Politischer Bezirk Baden,Altenmarkt an der Triesting,48.0155,15.9966
2601,Ebenfurth,Niederösterreich,Politischer Bezirk Wiener Neustadt,Ebenfurth,47.8667,16.3667
2602,Blumau-Neurißhof,Niederösterreich,Politischer Bezirk Baden,Blumau-Neurißhof,47.9227,16.3037
2603,Felixdorf,Niederösterreich,Politischer Bezirk Wiener Neustadt,Felixdorf,47.8816,16.2421
2604,Eggendorf,Niederösterreich,Politischer Bezirk Wiener Neustadt,Eggendorf,47.85,16.3167
2620,Wartmannstetten,Niederösterreich,Politischer Bezirk Neunkirchen,Wartmannstetten,47.6936,16.0751
2624,Breitenau,Niederösterreich,Politischer Bezirk Neunkirchen,Breitenau,47.738,16.1401
2625,Schwarzau am Steinfeld,Niederösterreich,Politischer Bezirk Neunkirchen,Schwarzau am Steinfeld,47.7167,16.15
2630,Grafenbach,Niederösterreich,Politischer Bezirk Neunkirchen,Grafenbach-St. Valentin,47.6801,16.0073
2631,Ternitz,Niederösterreich,Politischer Bezirk Neunkirchen,Ternitz,47.7157,16.0357
2632,Wimpassing im Schwarzatale,Niederösterreich,Politischer Bezirk Neunkirchen,Wimpassing im Schwarzatale,47.7029,16.0333
2640,Altendorf,Niederösterreich,Politischer Bezirk Neunkirchen,Altendorf,47.656,16.0081
2641,Schottwien,Niederösterreich,Politischer Bezirk Neunkirchen,Schottwien,47.6568,15.8725
2642,Schottwien,Niederösterreich,Politischer Bezirk Neunkirchen,Schottwien,47.6568,15.8725
2650,Payerbach,Niederösterreich,Politischer Bezirk Neunkirchen,Payerbach,47.6921,15.8634
2651,Reichenau an der Rax,Niederösterreich,Politischer Bezirk Neunkirchen,Reichenau an der Rax,47.6951,15.8457
2654,Reichenau an der Rax,Niederösterreich,Politischer Bezirk Neunkirchen,Reichenau an der Rax,47.6951,15.8457
2661,Schwarzau im Gebirge,Niederösterreich,Politischer Bezirk Neunkirchen,Schwarzau im Gebirge,47.8122,15.7058
2662,Schwarzau im Gebirge,Niederösterreich,Politischer Bezirk Neunkirchen,Schwarzau im Gebirge,47.8122,15.7058
2663,Kleinzell,Niederösterreich,Politischer Bezirk Lilienfeld,Kleinzell,47.9599,15.722
2671,Payerbach,Niederösterreich,Politischer Bezirk Neunkirchen,Payerbach,47.6921,15.8634
2673,Breitenstein,Niederösterreich,Politischer Bezirk Neunkirchen,Breitenstein,47.655,15.8051
2680,Semmering,Niederösterreich,Politischer Bezirk Neunkirchen,Semmering,47.6335,15.8299
2700,Wiener Neustadt,Niederösterreich,Wiener Neustadt Stadt,Wiener Neustadt,47.8,16.25
2721,Markt Piesting,Niederösterreich,Politischer Bezirk Wiener Neustadt,Markt Piesting,47.8736,16.1251
2722,Weikersdorf am Steinfelde,Niederösterreich,Politischer Bezirk Wiener Neustadt,Weikersdorf am Steinfelde,47.8061,16.1439
2723,Hohe Wand,Niederösterreich,Politischer Bezirk Wiener Neustadt,Hohe Wand,47.8286,16.0921
2724,Höflein an der Hohen Wand,Niederösterreich,Politischer Bezirk Neunkirchen,Höflein an der Hohen Wand,47.7803,16.0363
2731,Saubersdorf,Niederösterreich,Politischer Bezirk Neunkirchen,St. Egyden am Steinfeld,47.7894,16.1187
2732,Hettmannsdorf,Niederösterreich,Politischer Bezirk Neunkirchen,Würflach,47.7667,16.05
2733,Höflein an der Hohen Wand,Niederösterreich,Politischer Bezirk Neunkirchen,Höflein an der Hohen Wand,47.7967,15.9259
2734,Puchberg am Schneeberg,Niederösterreich,Politischer Bezirk Neunkirchen,Puchberg am Schneeberg,47.7871,15.9135
2751,Wiener Neustadt,Niederösterreich,Wiener Neustadt Stadt,Wiener Neustadt,47.8,16.25
2752,Wiener Neustadt,Niederösterreich,Wiener Neustadt Stadt,Wiener Neustadt,47.8,16.25
2753,Waldegg,Niederösterreich,Politischer Bezirk Wiener Neustadt,Waldegg,47.8685,16.0515
2754,Waldegg,Niederösterreich,Politischer Bezirk Wiener Neustadt,Waldegg,47.8685,16.0515
2755,Waldegg,Niederösterreich,Politischer Bezirk Wiener Neustadt,Waldegg,47.8685,16.0515
2761,Puchberg am Schneeberg,Niederösterreich,Politischer Bezirk Neunkirchen,Puchberg am Schneeberg,47.7871,15.9135
2763,Pernitz,Niederösterreich,Politischer Bezirk Wiener Neustadt,Pernitz,47.8976,15.9602
2770,Gutenstein,Niederösterreich,Politischer Bezirk Wiener Neustadt,Gutenstein,47.876,15.8888
2801,Katzelsdorf,Niederösterreich,Politischer Bezirk Wiener Neustadt,Katzelsdorf,47.7715,16.2768
2802,Schwarzenbach,Niederösterreich,Politischer Bezirk Wiener Neustadt,Schwarzenbach,47.644,16.3448
2803,Schwarzenbach,Niederösterreich,Politischer Bezirk Wiener Neustadt,Schwarzenbach,47.644,16.3448
2811,Bromberg,Niederösterreich,Politischer Bezirk Wiener Neustadt,Bromberg,47.6553,16.2336
2812,Markt Sankt Martin,Burgenland,Politischer Bezirk Oberpullendorf,Markt Sankt Martin,47.5667,16.4333
2813,Thomasberg,Niederösterreich,Politischer Bezirk Neunkirchen,Thomasberg,47.5671,16.1537
2821,Lanzenkirchen,Niederösterreich,Politischer Bezirk Wiener Neustadt,Lanzenkirchen,47.7333,16.2333
2822,Schwarzau am Steinfeld,Niederösterreich,Politischer Bezirk Neunkirchen,Schwarzau am Steinfeld,47.7345,16.1767
2823,Pitten,Niederösterreich,Politischer Bezirk Neunkirchen,Pitten,47.7167,16.1833
2824,Seebenstein,Niederösterreich,Politischer Bezirk Neunkirchen,Seebenstein,47.6833,16.1333
2831,Seebenstein,Niederösterreich,Politischer Bezirk Neunkirchen,Seebenstein,47.6833,16.1333
2832,Scheiblingkirchen-Thernberg,Niederösterreich,Politischer Bezirk Neunkirchen,Scheiblingkirchen-Thernberg,47.65,16.1833
2833,Scheiblingkirchen-Thernberg,Niederösterreich,Politischer Bezirk Neunkirchen,Scheiblingkirchen-Thernberg,47.6609,16.1642
2840,Thomasberg,Niederösterreich,Politischer Bezirk Neunkirchen,Thomasberg,47.5671,16.1537
2842,Thomasberg,Niederösterreich,Politischer Bezirk Neunkirchen,Thomasberg,47.5671,16.1537
2851,Thomasberg,Niederösterreich,Politischer Bezirk Neunkirchen,Thomasberg,47.5671,16.1537
2852,Oberschützen,Burgenland,Politischer Bezirk Oberwart,Oberschützen,47.35,16.2
2853,Bad Schönau,Niederösterreich,Politischer Bezirk Wiener Neustadt,Bad Schönau,47.4833,16.2333
2860,Kirchschlag i.d. Buckl.Welt,Niederösterreich,Politischer Bezirk Wiener Neustadt,Kirchschlag in der Buckligen Welt,47.5133,16.2826
2870,Thomasberg,Niederösterreich,Politischer Bezirk Neunkirchen,Thomasberg,47.5671,16.1537
2871,Zöbern,Niederösterreich,Politischer Bezirk Neunkirchen,Zöbern,47.5,16.1167
2872,Aspangberg-St. Peter,Niederösterreich,Politischer Bezirk Neunkirchen,Aspangberg-St. Peter,47.41,15.98
2873,Aspangberg-St. Peter,Niederösterreich,Politischer Bezirk Neunkirchen,Aspangberg-St. Peter,47.5504,16.0264
2880,Feistritz am Wechsel,Niederösterreich,Politischer Bezirk Neunkirchen,Feistritz am Wechsel,47.6,16.05
2881,Kirchberg am Wechsel,Niederösterreich,Politischer Bezirk Neunkirchen,Kirchberg am Wechsel,47.6,15.9833
3001,Tulbing,Niederösterreich,Politischer Bezirk Tulln,Tulbing,48.2934,16.1223
3002,Purkersdorf,Niederösterreich,Politischer Bezirk Wien Umgebung,Purkersdorf,48.2077,16.1754
3003,Gablitz,Niederösterreich,Politischer Bezirk Wien Umgebung,Gablitz,48.2286,16.1544
3004,Weinzierl,Niederösterreich,Politischer Bezirk Tulln,Sieghartskirchen,48.2474,16.0215
3011,Tullnerbach,Niederösterreich,Politischer Bezirk Wien Umgebung,Tullnerbach,48.1891,16.0912
3012,Wolfsgraben,Niederösterreich,Politischer Bezirk Wien Umgebung,Wolfsgraben,48.151,16.1124
3013,Tullnerbach,Niederösterreich,Politischer Bezirk Wien Umgebung,Tullnerbach,48.1891,16.0912
3021,Wolfsgraben,Niederösterreich,Politischer Bezirk Wien Umgebung,Wolfsgraben,48.151,16.1124
3031,Pressbaum,Niederösterreich,Politischer Bezirk Wien Umgebung,Pressbaum,48.1833,16.0833
3032,Maria-Anzbach,Niederösterreich,Politischer Bezirk Sankt Pölten,Maria-Anzbach,48.1901,15.9315
3033,Klausen-Leopoldsdorf,Niederösterreich,Politischer Bezirk Baden,Klausen-Leopoldsdorf,48.0877,16.0169
3034,Hof,Niederösterreich,Politischer Bezirk Sankt Pölten,Maria-Anzbach,48.1879,15.9485
3040,Raipoltenbach,Niederösterreich,Politischer Bezirk Sankt Pölten,Neulengbach,48.2179,15.887
3041,Siegersdorf,Niederösterreich,Politischer Bezirk Sankt Pölten,Asperhofen,48.2341,15.9413
3042,Würmla,Niederösterreich,Politischer Bezirk Tulln,Würmla,48.255,15.8603
3051,Leitsberg,Niederösterreich,Politischer Bezirk Sankt Pölten,Altlengbach,48.1598,15.8969
3052,Manzing,Niederösterreich,Politischer Bezirk Sankt Pölten,Altlengbach,48.1322,15.9147
3053,Klausen-Leopoldsdorf,Niederösterreich,Politischer Bezirk Baden,Klausen-Leopoldsdorf,48.0877,16.0169
3061,Schönfeld,Niederösterreich,Politischer Bezirk Sankt Pölten,Neulengbach,48.1946,15.8768
3062,Kirchstetten,Niederösterreich,Politischer Bezirk Sankt Pölten,Kirchstetten,48.195,15.82
3071,Böheimkirchen,Niederösterreich,Politischer Bezirk Sankt Pölten,Böheimkirchen,48.1978,15.7618
3072,Böheimkirchen,Niederösterreich,Politischer Bezirk Sankt Pölten,Böheimkirchen,48.1978,15.7618
3073,Michelbach,Niederösterreich,Politischer Bezirk Sankt Pölten,Michelbach,48.1,15.75
3074,Michelbach,Niederösterreich,Politischer Bezirk Sankt Pölten,Michelbach,48.1648,15.8348
3100,St. Pölten,Niederösterreich,Sankt Pölten Stadt,St. Pölten,48.2,15.6333
3104,St. Pölten,Niederösterreich,Sankt Pölten Stadt,St. Pölten,48.2,15.6333
3105,St. Pölten,Niederösterreich,Sankt Pölten Stadt,St. Pölten,48.2,15.6333
3107,St. Pölten,Niederösterreich,Sankt Pölten Stadt,St. Pölten,48.2,15.6333
3110,Neidling,Niederösterreich,Politischer Bezirk Sankt Pölten,Neidling,48.2333,15.55
3121,Karlstetten,Niederösterreich,Politischer Bezirk Sankt Pölten,Karlstetten,48.25,15.5667
3122,Bergern i.Dunkelsteinerwald,Niederösterreich,Politischer Bezirk Krems an der Donau,Bergern im Dunkelsteinerwald,48.3453,15.5095
3123,Obritzberg-Rust,Niederösterreich,Politischer Bezirk Sankt Pölten,Obritzberg-Rust,48.2959,15.4817
3124,Wölbling,Niederösterreich,Politischer Bezirk Sankt Pölten,Wölbling,48.3111,15.5806
3125,Statzendorf,Niederösterreich,Politischer Bezirk Sankt Pölten,Statzendorf,48.3075,15.6413
3130,Herzogenburg,Niederösterreich,Politischer Bezirk Sankt Pölten,Herzogenburg,48.2814,15.6943
3131,Inzersdorf-Getzersdorf,Niederösterreich,Politischer Bezirk Sankt Pölten,Inzersdorf-Getzersdorf,48.3372,15.5096
3133,Traismauer,Niederösterreich,Politischer Bezirk Sankt Pölten,Traismauer,48.35,15.7333
3134,Nußdorf ob der Traisen,Niederösterreich,Politischer Bezirk Sankt Pölten,Nußdorf ob der Traisen,48.3463,15.6956
3140,St. Pölten,Niederösterreich,Sankt Pölten Stadt,St. Pölten,48.2,15.6333
3141,Kapelln,Niederösterreich,Politischer Bezirk Sankt Pölten,Kapelln,48.2582,15.7573
3142,Weißenkirchen/Perschling,Niederösterreich,Politischer Bezirk Sankt Pölten,Weißenkirchen an der Perschling,48.155,15.7755
3143,Pyhra,Niederösterreich,Politischer Bezirk Sankt Pölten,Pyhra,48.1442,15.6978
3144,Pyhra,Niederösterreich,Politischer Bezirk Sankt Pölten,Pyhra,48.1442,15.6978
3150,St. Veit an der Gölsen,Niederösterreich,Politischer Bezirk Lilienfeld,St. Veit an der Gölsen,48.0432,15.6694
3151,St. Pölten,Niederösterreich,Sankt Pölten Stadt,St. Pölten,48.2,15.6333
3153,Eschenau,Niederösterreich,Politischer Bezirk Lilienfeld,Eschenau,48.046,15.5604
3160,Traisen,Niederösterreich,Politischer Bezirk Lilienfeld,Traisen,48.0333,15.6
3161,Pfenningbach,Niederösterreich,Politischer Bezirk Lilienfeld,St. Veit an der Gölsen,48.0332,15.695
3162,St. Veit an der Gölsen,Niederösterreich,Politischer Bezirk Lilienfeld,St. Veit an der Gölsen,48.0432,15.6694
3163,St. Veit an der Gölsen,Niederösterreich,Politischer Bezirk Lilienfeld,St. Veit an der Gölsen,48.0432,15.6694
3170,Ramsau,Niederösterreich,Politischer Bezirk Lilienfeld,Ramsau,47.9805,15.8205
3171,Kleinzell,Niederösterreich,Politischer Bezirk Lilienfeld,Kleinzell,47.9599,15.722
3172,Ramsau,Niederösterreich,Politischer Bezirk Lilienfeld,Ramsau,47.9805,15.8205
3180,Lilienfeld,Niederösterreich,Politischer Bezirk Lilienfeld,Lilienfeld,48.0131,15.5966
3183,Türnitz,Niederösterreich,Politischer Bezirk Lilienfeld,Türnitz,47.931,15.493
3184,Türnitz,Niederösterreich,Politischer Bezirk Lilienfeld,Türnitz,47.931,15.493
3192,Kleinzell,Niederösterreich,Politischer Bezirk Lilienfeld,Kleinzell,47.9599,15.722
3193,St. Aegyd am Neuwalde,Niederösterreich,Politischer Bezirk Lilienfeld,St. Aegyd am Neuwalde,47.8538,15.5697
3195,St. Aegyd am Neuwalde,Niederösterreich,Politischer Bezirk Lilienfeld,St. Aegyd am Neuwalde,47.8538,15.5697
3200,Weinburg,Niederösterreich,Politischer Bezirk Sankt Pölten,Weinburg,48.115,15.5325
3202,Hofstetten-Grünau,Niederösterreich,Politischer Bezirk Sankt Pölten,Hofstetten-Grünau,47.9322,15.4947
3203,Kilb,Niederösterreich,Politischer Bezirk Melk,Kilb,48.101,15.4085
3204,Kilb,Niederösterreich,Politischer Bezirk Melk,Kilb,48.101,15.4085
3211,Loich,Niederösterreich,Politischer Bezirk Sankt Pölten,Loich,47.9958,15.4016
3212,Frankenfels,Niederösterreich,Politischer Bezirk Sankt Pölten,Frankenfels,47.9823,15.3259
3213,Frankenfels,Niederösterreich,Politischer Bezirk Sankt Pölten,Frankenfels,47.9823,15.3259
3214,Frankenfels,Niederösterreich,Politischer Bezirk Sankt Pölten,Frankenfels,47.9823,15.3259
3221,Puchenstuben,Niederösterreich,Politischer Bezirk Scheibbs,Puchenstuben,47.9282,15.2875
3222,Annaberg,Niederösterreich,Politischer Bezirk Lilienfeld,Annaberg,47.8658,15.3597
3223,Mitterbach am Erlaufsee,Niederösterreich,Politischer Bezirk Lilienfeld,Mitterbach am Erlaufsee,47.814,15.2954
3224,Mitterbach am Erlaufsee,Niederösterreich,Politischer Bezirk Lilienfeld,Mitterbach am Erlaufsee,47.814,15.2954
3231,St.Margarethen a.d.Sierning,Niederösterreich,Politischer Bezirk Sankt Pölten,St. Margarethen an der Sierning,48.1546,15.4953
3232,Bischofstetten,Niederösterreich,Politischer Bezirk Melk,Bischofstetten,48.1222,15.4691
3233,Kilb,Niederösterreich,Politischer Bezirk Melk,Kilb,48.101,15.4085
3240,Mank,Niederösterreich,Politischer Bezirk Melk,Mank,48.1102,15.3391
3241,Kirnberg an der Mank,Niederösterreich,Politischer Bezirk Melk,Kirnberg an der Mank,48.0725,15.3223
3242,Texingtal,Niederösterreich,Politischer Bezirk Melk,Texingtal,48.0383,15.317
3243,St. Leonhard am Forst,Niederösterreich,Politischer Bezirk Melk,St. Leonhard am Forst,48.1333,15.2833
3244,Ruprechtshofen,Niederösterreich,Politischer Bezirk Melk,Ruprechtshofen,48.1258,15.2409
3250,Bergland,Niederösterreich,Politischer Bezirk Melk,Bergland,48.0429,15.1057
3251,Purgstall an der Erlauf,Niederösterreich,Politischer Bezirk Scheibbs,Purgstall an der Erlauf,48.0551,15.1332
3252,Petzenkirchen,Niederösterreich,Politischer Bezirk Melk,Petzenkirchen,48.1333,15.15
3253,Pöchlarn,Niederösterreich,Politischer Bezirk Melk,Pöchlarn,48.2,15.2
3261,Wolfpassing,Niederösterreich,Politischer Bezirk Scheibbs,Wolfpassing,48.096,15.0713
3262,Wang,Niederösterreich,Politischer Bezirk Scheibbs,Wang,48.0454,15.0267
3263,Waidhofen an der Ybbs,Niederösterreich,Waidhofen an der Ybbs,Waidhofen an der Ybbs,47.96,14.7736
3264,Gaming,Niederösterreich,Politischer Bezirk Scheibbs,Gaming,47.8569,15.1315
3270,Scheibbs,Niederösterreich,Politischer Bezirk Scheibbs,Scheibbs,48.0047,15.1682
3281,Oberndorf an der Melk,Niederösterreich,Politischer Bezirk Scheibbs,Oberndorf an der Melk,48.0639,15.2243
3282,St. Georgen an der Leys,Niederösterreich,Politischer Bezirk Scheibbs,St. Georgen an der Leys,48.0315,15.2272
3283,St. Anton an der Jeßnitz,Niederösterreich,Politischer Bezirk Scheibbs,St. Anton an der Jeßnitz,47.9615,15.2069
3291,Gaming,Niederösterreich,Politischer Bezirk Scheibbs,Gaming,47.8569,15.1315
3292,St. Anton an der Jeßnitz,Niederösterreich,Politischer Bezirk Scheibbs,St. Anton an der Jeßnitz,47.9615,15.2069
3293,Lunz am See,Niederösterreich,Politischer Bezirk Scheibbs,Lunz am See,47.8612,15.03
3294,Gaming,Niederösterreich,Politischer Bezirk Scheibbs,Gaming,47.8569,15.1315
3295,Gaming,Niederösterreich,Politischer Bezirk Scheibbs,Gaming,47.8569,15.1315
3300,Winklarn,Niederösterreich,Politischer Bezirk Amstetten,Winklarn,48.0833,14.8333
3304,St. Georgen am Ybbsfelde,Niederösterreich,Politischer Bezirk Amstetten,St. Georgen am Ybbsfelde,48.1333,14.95
3311,Amstetten,Niederösterreich,Politischer Bezirk Amstetten,Amstetten,48.1229,14.8721
3312,Zeillern,Niederösterreich,Politischer Bezirk Amstetten,Zeillern,48.1167,14.8
3313,Wallsee-Sindelburg,Niederösterreich,Politischer Bezirk Amstetten,Wallsee-Sindelburg,48.1471,14.7244
3314,Strengberg,Niederösterreich,Politischer Bezirk Amstetten,Strengberg,48.1495,14.6481
3321,Zeillern,Niederösterreich,Politischer Bezirk Amstetten,Zeillern,48.1167,14.8
3322,Ardagger,Niederösterreich,Politischer Bezirk Amstetten,Ardagger,48.1667,14.8167
3323,Neustadtl an der Donau,Niederösterreich,Politischer Bezirk Amstetten,Neustadtl an der Donau,48.1455,15.0482
3324,Euratsfeld,Niederösterreich,Politischer Bezirk Amstetten,Euratsfeld,48.0818,14.9315
3325,Ferschnitz,Niederösterreich,Politischer Bezirk Amstetten,Ferschnitz,48.0833,15
3331,Sonntagberg,Niederösterreich,Politischer Bezirk Amstetten,Sonntagberg,47.9956,14.7606
3332,Rotte Wühr,Niederösterreich,Politischer Bezirk Amstetten,Sonntagberg,48.0116,14.7412
3333,Böhlerwerk,Niederösterreich,Politischer Bezirk Amstetten,Sonntagberg,47.985,14.7479
3334,Gaflenz,Oberösterreich,Politischer Bezirk Steyr-Land,Gaflenz,47.8833,14.7167
3335,Gaflenz,Oberösterreich,Politischer Bezirk Steyr-Land,Gaflenz,47.8833,14.7167
3340,Waidhofen an der Ybbs,Niederösterreich,Waidhofen an der Ybbs,Waidhofen an der Ybbs,47.96,14.7736
3341,Ybbsitz,Niederösterreich,Politischer Bezirk Amstetten,Ybbsitz,47.9333,14.8833
3342,Opponitz,Niederösterreich,Politischer Bezirk Amstetten,Opponitz,47.8667,14.8167
3343,Hollenstein an der Ybbs,Niederösterreich,Politischer Bezirk Amstetten,Hollenstein an der Ybbs,47.8,14.7667
3344,St. Georgen am Reith,Niederösterreich,Politischer Bezirk Amstetten,St. Georgen am Reith,47.8333,14.8667
3345,Göstling an der Ybbs,Niederösterreich,Politischer Bezirk Scheibbs,Göstling an der Ybbs,47.8,14.9167
3350,St. Valentin,Niederösterreich,Politischer Bezirk Amstetten,St. Valentin,48.1697,14.5357
3351,Weistrach,Niederösterreich,Politischer Bezirk Amstetten,Weistrach,48.05,14.5833
3352,Weistrach,Niederösterreich,Politischer Bezirk Amstetten,Weistrach,48.05,14.5833
3353,Biberbach,Niederösterreich,Politischer Bezirk Amstetten,Biberbach,48.0167,14.7
3354,Wolfsbach,Niederösterreich,Politischer Bezirk Amstetten,Wolfsbach,48.0853,14.6652
3355,Ertl,Niederösterreich,Politischer Bezirk Amstetten,Ertl,48.0255,14.7909
3361,Aschbach-Markt,Niederösterreich,Politischer Bezirk Amstetten,Aschbach-Markt,48.0723,14.754
3362,Greinsfurth,Niederösterreich,Politischer Bezirk Amstetten,Amstetten,48.1085,14.8439
3363,Amstetten,Niederösterreich,Politischer Bezirk Amstetten,Amstetten,48.1229,14.8721
3364,Neuhofen an der Ybbs,Niederösterreich,Politischer Bezirk Amstetten,Neuhofen an der Ybbs,48.0579,14.8549
3365,Allhartsberg,Niederösterreich,Politischer Bezirk Amstetten,Allhartsberg,48.0263,14.7901
3370,Göttsbach,Niederösterreich,Politischer Bezirk Melk,Ybbs an der Donau,48.1667,15.0667
3371,Neumarkt an der Ybbs,Niederösterreich,Politischer Bezirk Melk,Neumarkt an der Ybbs,48.1333,15.05
3372,Ferschnitz,Niederösterreich,Politischer Bezirk Amstetten,Ferschnitz,48.0833,15
3373,Ybbs an der Donau,Niederösterreich,Politischer Bezirk Melk,Ybbs an der Donau,48.1667,15.0833
3374,Krummnußbaum,Niederösterreich,Politischer Bezirk Melk,Krummnußbaum,48.175,15.1125
3375,Krummnußbaum,Niederösterreich,Politischer Bezirk Melk,Krummnußbaum,48.2,15.15
3376,St. Martin am Ybbsfelde,Niederösterreich,Politischer Bezirk Melk,St. Martin-Karlsbach,48.1667,15.0333
3380,Pöchlarn,Niederösterreich,Politischer Bezirk Melk,Pöchlarn,48.2,15.2
3381,Golling an der Erlauf,Niederösterreich,Politischer Bezirk Melk,Golling an der Erlauf,48.1953,15.1764
3382,Dunkelsteinerwald,Niederösterreich,Politischer Bezirk Melk,Dunkelsteinerwald,48.2675,15.4541
3383,Hürm,Niederösterreich,Politischer Bezirk Melk,Hürm,48.156,15.4126
3384,Markersdorf-Haindorf,Niederösterreich,Politischer Bezirk Sankt Pölten,Markersdorf-Haindorf,48.1803,15.4877
3385,St. Pölten,Niederösterreich,Sankt Pölten Stadt,St. Pölten,48.2,15.6333
3386,Hafnerbach,Niederösterreich,Politischer Bezirk Sankt Pölten,Hafnerbach,48.2167,15.4833
3390,Schollach,Niederösterreich,Politischer Bezirk Melk,Schollach,48.201,15.3176
3392,Schönbühel-Aggsbach,Niederösterreich,Politischer Bezirk Melk,Schönbühel-Aggsbach,48.2797,15.4121
3393,Zelking-Matzleinsdorf,Niederösterreich,Politischer Bezirk Melk,Zelking-Matzleinsdorf,48.1865,15.2593
3400,Weidling,Niederösterreich,Politischer Bezirk Wien Umgebung,Klosterneuburg,48.291,16.3087
3413,St. Andrä-Wördern,Niederösterreich,Politischer Bezirk Tulln,St. Andrä-Wördern,48.3241,16.2171
3420,Klosterneuburg,Niederösterreich,Politischer Bezirk Wien Umgebung,Klosterneuburg,48.3052,16.3252
3421,Klosterneuburg,Niederösterreich,Politischer Bezirk Wien Umgebung,Klosterneuburg,48.3052,16.3252
3422,Altenberg,Niederösterreich,Politischer Bezirk Tulln,St. Andrä-Wördern,48.3241,16.2171
3423,St. Andrä-Wördern,Niederösterreich,Politischer Bezirk Tulln,St. Andrä-Wördern,48.328,16.2087
3424,Wolfpassing,Niederösterreich,Politischer Bezirk Tulln,Zeiselmauer-Wolfpassing,48.3239,16.1808
3425,Tulln an der Donau,Niederösterreich,Politischer Bezirk Tulln,Tulln an der Donau,48.331,16.1159
3430,Stetteldorf am Wagram,Niederösterreich,Politischer Bezirk Korneuburg,Stetteldorf am Wagram,48.4,16.0167
3433,Königstetten,Niederösterreich,Politischer Bezirk Tulln,Königstetten,48.302,16.1449
3434,Katzelsdorf,Niederösterreich,Politischer Bezirk Tulln,Tulbing,48.2846,16.1084
3435,Zwentendorf an der Donau,Niederösterreich,Politischer Bezirk Tulln,Zwentendorf an der Donau,48.3508,15.8824
3441,Zöfing,Niederösterreich,Politischer Bezirk Tulln,Judenau-Baumgarten,48.2806,16.0217
3442,Langenschönbichl,Niederösterreich,Politischer Bezirk Tulln,Langenrohr,48.3297,15.9808
3443,Asperhofen,Niederösterreich,Politischer Bezirk Sankt Pölten,Asperhofen,48.2458,15.9261
3451,Siegersdorf,Niederösterreich,Politischer Bezirk Sankt Pölten,Asperhofen,48.2341,15.9413
3452,Michelhausen,Niederösterreich,Politischer Bezirk Tulln,Michelhausen,48.2908,15.9389
3454,Herzogenburg,Niederösterreich,Politischer Bezirk Sankt Pölten,Herzogenburg,48.2814,15.6943
3462,Hippersdorf,Niederösterreich,Politischer Bezirk Tulln,Königsbrunn am Wagram,48.4167,15.9667
3463,Stetteldorf am Wagram,Niederösterreich,Politischer Bezirk Korneuburg,Stetteldorf am Wagram,48.4,16.0167
3464,Stetteldorf am Wagram,Niederösterreich,Politischer Bezirk Korneuburg,Stetteldorf am Wagram,48.4,16.0167
3465,Königsbrunn am Wagram,Niederösterreich,Politischer Bezirk Tulln,Königsbrunn am Wagram,48.4333,15.9083
3470,Kirchberg am Wagram,Niederösterreich,Politischer Bezirk Tulln,Kirchberg am Wagram,48.4333,15.8833
3471,Großriedenthal,Niederösterreich,Politischer Bezirk Tulln,Großriedenthal,48.4833,15.8667
3472,Hohenwarth-Mühlbach a.M.,Niederösterreich,Politischer Bezirk Hollabrunn,Hohenwarth-Mühlbach a.M.,48.5129,15.8104
3473,Hohenwarth-Mühlbach a.M.,Niederösterreich,Politischer Bezirk Hollabrunn,Hohenwarth-Mühlbach a.M.,48.3267,15.8533
3474,Kirchberg am Wagram,Niederösterreich,Politischer Bezirk Tulln,Kirchberg am Wagram,48.4333,15.8833
3481,Fels am Wagram,Niederösterreich,Politischer Bezirk Tulln,Fels am Wagram,48.4333,15.8167
3482,Stettenhof,Niederösterreich,Politischer Bezirk Tulln,Fels am Wagram,48.4833,15.8167
3483,Grafenwörth,Niederösterreich,Politischer Bezirk Tulln,Grafenwörth,48.4,15.7833
3484,Jettsdorf,Niederösterreich,Politischer Bezirk Tulln,Grafenwörth,48.4,15.75
3485,Gedersdorf,Niederösterreich,Politischer Bezirk Krems an der Donau,Gedersdorf,48.4332,15.6886
3491,Elsarn im Straßertal,Niederösterreich,Politischer Bezirk Krems an der Donau,Straß im Straßertale,48.4833,15.7333
3492,Diendorf am Kamp,Niederösterreich,Politischer Bezirk Krems an der Donau,Grafenegg,48.45,15.7167
3493,Hadersdorf-Kammern,Niederösterreich,Politischer Bezirk Krems an der Donau,Hadersdorf-Kammern,48.4583,15.7167
3494,Gedersdorf,Niederösterreich,Politischer Bezirk Krems an der Donau,Gedersdorf,48.4332,15.6886
3495,Rohrendorf bei Krems,Niederösterreich,Politischer Bezirk Krems an der Donau,Rohrendorf bei Krems,48.415,15.6641
3500,Krems an der Donau,Niederösterreich,Krems an der Donau,Krems an der Donau,48.4092,15.6141
3506,Krems an der Donau,Niederösterreich,Krems an der Donau,Krems an der Donau,48.4092,15.6141
3508,Tiefenfucha,Niederösterreich,Politischer Bezirk Krems an der Donau,Paudorf,48.3679,15.6474
3511,Furth bei Göttweig,Niederösterreich,Politischer Bezirk Krems an der Donau,Furth bei Göttweig,48.3815,15.6155
3512,Mautern an der Donau,Niederösterreich,Politischer Bezirk Krems an der Donau,Mautern an der Donau,48.362,15.585
3521,Weinzierl am Walde,Niederösterreich,Politischer Bezirk Krems an der Donau,Weinzierl am Walde,48.4167,15.4333
3522,Lichtenau im Waldviertel,Niederösterreich,Politischer Bezirk Krems an der Donau,Lichtenau im Waldviertel,48.5401,15.2696
3524,Lichtenau im Waldviertel,Niederösterreich,Politischer Bezirk Krems an der Donau,Lichtenau im Waldviertel,48.5001,15.3557
3525,Sallingberg,Niederösterreich,Politischer Bezirk Zwettl,Sallingberg,48.4667,15.2333
3531,Waldhausen,Niederösterreich,Politischer Bezirk Zwettl,Waldhausen,48.5342,15.2768
3532,Rastenfeld,Niederösterreich,Politischer Bezirk Krems an der Donau,Rastenfeld,48.5651,15.3639
3533,Zwettl,Niederösterreich,Politischer Bezirk Zwettl,Zwettl-Niederösterreich,48.6,15.15
3541,Krems an der Donau,Niederösterreich,Krems an der Donau,Krems an der Donau,48.4092,15.6141
3542,Jaidhof,Niederösterreich,Politischer Bezirk Krems an der Donau,Jaidhof,48.5333,15.4833
3543,Krumau am Kamp,Niederösterreich,Politischer Bezirk Krems an der Donau,Krumau am Kamp,48.5833,15.4333
3544,Krumau am Kamp,Niederösterreich,Politischer Bezirk Krems an der Donau,Krumau am Kamp,48.5833,15.4333
3550,Langenlois,Niederösterreich,Politischer Bezirk Krems an der Donau,Langenlois,48.4667,15.6667
3552,Lengenfeld,Niederösterreich,Politischer Bezirk Krems an der Donau,Lengenfeld,48.4667,15.5833
3553,Langenlois,Niederösterreich,Politischer Bezirk Krems an der Donau,Langenlois,48.4667,15.6667
3561,Langenlois,Niederösterreich,Politischer Bezirk Krems an der Donau,Langenlois,48.4667,15.6667
3562,Stiefern,Niederösterreich,Politischer Bezirk Krems an der Donau,Schönberg am Kamp,48.5333,15.6833
3564,Schönberg am Kamp,Niederösterreich,Politischer Bezirk Krems an der Donau,Schönberg am Kamp,48.5436,15.6924
3571,Gars am Kamp,Niederösterreich,Politischer Bezirk Horn,Gars am Kamp,48.5833,15.65
3572,Jaidhof,Niederösterreich,Politischer Bezirk Krems an der Donau,Jaidhof,48.5333,15.4833
3573,Rosenburg-Mold,Niederösterreich,Politischer Bezirk Horn,Rosenburg-Mold,48.6112,15.6268
3580,Horn,Niederösterreich,Politischer Bezirk Horn,Horn,48.6627,15.6566
3591,Altenburg,Niederösterreich,Politischer Bezirk Horn,Altenburg,48.6442,15.5809
3592,Röhrenbach,Niederösterreich,Politischer Bezirk Horn,Röhrenbach,48.6628,15.4936
3593,Röhrenbach,Niederösterreich,Politischer Bezirk Horn,Röhrenbach,48.6628,15.4936
3594,Pölla,Niederösterreich,Politischer Bezirk Zwettl,Pölla,48.628,15.3964
3595,Brunn an der Wild,Niederösterreich,Politischer Bezirk Horn,Brunn an der Wild,48.6942,15.5201
3601,Dürnstein,Niederösterreich,Politischer Bezirk Krems an der Donau,Dürnstein,48.4075,15.5198
3602,Rossatz-Arnsdorf,Niederösterreich,Politischer Bezirk Krems an der Donau,Rossatz-Arnsdorf,48.3932,15.507
3610,Weißenkirchen in der Wachau,Niederösterreich,Politischer Bezirk Krems an der Donau,Weißenkirchen in der Wachau,48.3979,15.4693
3611,Weinzierl am Walde,Niederösterreich,Politischer Bezirk Krems an der Donau,Weinzierl am Walde,48.4167,15.4333
3613,Weinzierl am Walde,Niederösterreich,Politischer Bezirk Krems an der Donau,Weinzierl am Walde,48.4167,15.4333
3620,Spitz,Niederösterreich,Politischer Bezirk Krems an der Donau,Spitz,48.3656,15.4142
3621,Rossatz-Arnsdorf,Niederösterreich,Politischer Bezirk Krems an der Donau,Rossatz-Arnsdorf,48.3594,15.4258
3622,Mühldorf,Niederösterreich,Politischer Bezirk Krems an der Donau,Mühldorf,48.3713,15.3295
3623,Kottes-Purk,Niederösterreich,Politischer Bezirk Zwettl,Kottes-Purk,48.445,15.2733
3631,Ottenschlag,Niederösterreich,Politischer Bezirk Zwettl,Ottenschlag,48.4281,15.2007
3632,Schönbach,Niederösterreich,Politischer Bezirk Zwettl,Schönbach,48.4578,15.0508
3633,Schönbach,Niederösterreich,Politischer Bezirk Zwettl,Schönbach,48.4578,15.0508
3641,Aggsbach,Niederösterreich,Politischer Bezirk Krems an der Donau,Aggsbach,48.294,15.4038
3642,Bergern i.Dunkelsteinerwald,Niederösterreich,Politischer Bezirk Krems an der Donau,Bergern im Dunkelsteinerwald,48.3453,15.5095
3643,Maria Laach am Jauerling,Niederösterreich,Politischer Bezirk Krems an der Donau,Maria Laach am Jauerling,48.3,15.3333
3644,Emmersdorf an der Donau,Niederösterreich,Politischer Bezirk Melk,Emmersdorf an der Donau,48.2414,15.3372
3650,Raxendorf,Niederösterreich,Politischer Bezirk Melk,Raxendorf,48.3333,15.2667
3652,Klein-Pöchlarn,Niederösterreich,Politischer Bezirk Melk,Klein-Pöchlarn,48.2167,15.2167
3653,Weiten,Niederösterreich,Politischer Bezirk Melk,Weiten,48.2833,15.25
3654,Raxendorf,Niederösterreich,Politischer Bezirk Melk,Raxendorf,48.3333,15.2667
3660,Klein-Pöchlarn,Niederösterreich,Politischer Bezirk Melk,Klein-Pöchlarn,48.2167,15.2167
3661,Artstetten-Pöbring,Niederösterreich,Politischer Bezirk Melk,Artstetten-Pöbring,48.2292,15.1082
3662,Münichreith-Laimbach,Niederösterreich,Politischer Bezirk Melk,Münichreith-Laimbach,48.1881,15.2667
3663,Pöggstall,Niederösterreich,Politischer Bezirk Melk,Pöggstall,48.3167,15.1833
3664,Martinsberg,Niederösterreich,Politischer Bezirk Zwettl,Martinsberg,48.3667,15.15
3665,Gutenbrunn,Niederösterreich,Politischer Bezirk Zwettl,Gutenbrunn,48.3653,15.095
3671,Marbach an der Donau,Niederösterreich,Politischer Bezirk Melk,Marbach an der Donau,48.2167,15.15
3672,Marbach an der Donau,Niederösterreich,Politischer Bezirk Melk,Marbach an der Donau,48.2167,15.15
3680,Persenbeug-Gottsdorf,Niederösterreich,Politischer Bezirk Melk,Persenbeug-Gottsdorf,48.2458,15.1451
3683,Yspertal,Niederösterreich,Politischer Bezirk Melk,Yspertal,48.3111,15.061
3684,St. Oswald,Niederösterreich,Politischer Bezirk Melk,St. Oswald,48.2691,15.0197
3691,Nöchling,Niederösterreich,Politischer Bezirk Melk,Nöchling,48.2243,14.9812
3701,Heldenberg,Niederösterreich,Politischer Bezirk Hollabrunn,Heldenberg,48.3136,15.9682
3702,Oberrußbach,Niederösterreich,Politischer Bezirk Korneuburg,Rußbach,48.4667,16.05
3704,Heldenberg,Niederösterreich,Politischer Bezirk Hollabrunn,Heldenberg,48.5,15.9333
3710,Ziersdorf,Niederösterreich,Politischer Bezirk Hollabrunn,Ziersdorf,48.5167,15.9167
3711,Ziersdorf,Niederösterreich,Politischer Bezirk Hollabrunn,Ziersdorf,48.5167,15.9167
3712,Maissau,Niederösterreich,Politischer Bezirk Hollabrunn,Maissau,48.5667,15.8167
3713,Maissau,Niederösterreich,Politischer Bezirk Hollabrunn,Maissau,48.5667,15.8167
3714,Sitzendorf an der Schmida,Niederösterreich,Politischer Bezirk Hollabrunn,Sitzendorf an der Schmida,48.5833,15.9333
3720,Ravelsbach,Niederösterreich,Politischer Bezirk Hollabrunn,Ravelsbach,48.55,15.85
3721,Sitzendorf an der Schmida,Niederösterreich,Politischer Bezirk Hollabrunn,Sitzendorf an der Schmida,48.5833,15.9333
3722,Straning-Grafenberg,Niederösterreich,Politischer Bezirk Horn,Straning-Grafenberg,48.6083,15.85
3730,Burgschleinitz-Kühnring,Niederösterreich,Politischer Bezirk Horn,Burgschleinitz-Kühnring,48.6008,15.7145
3741,Pulkau,Niederösterreich,Politischer Bezirk Hollabrunn,Pulkau,48.7048,15.8603
3742,Pulkau,Niederösterreich,Politischer Bezirk Hollabrunn,Pulkau,48.7048,15.8603
3743,Röschitz,Niederösterreich,Politischer Bezirk Horn,Röschitz,48.6431,15.8177
3744,Rosenburg-Mold,Niederösterreich,Politischer Bezirk Horn,Rosenburg-Mold,48.6572,15.7347
3751,Rodingersdorf,Niederösterreich,Politischer Bezirk Horn,Sigmundsherberg,48.6872,15.7213
3752,Geras,Niederösterreich,Politischer Bezirk Horn,Geras,48.7973,15.6727
3753,Pernegg,Niederösterreich,Politischer Bezirk Horn,Pernegg,48.7347,15.6352
3754,Irnfritz-Messern,Niederösterreich,Politischer Bezirk Horn,Irnfritz-Messern,48.7447,15.5384
3761,St. Bernhard-Frauenhofen,Niederösterreich,Politischer Bezirk Horn,St. Bernhard-Frauenhofen,48.6565,15.5182
3762,Ludweis-Aigen,Niederösterreich,Politischer Bezirk Waidhofen an der Thaya,Ludweis-Aigen,48.7719,15.4273
3763,Japons,Niederösterreich,Politischer Bezirk Horn,Japons,48.7925,15.5683
3800,Göpfritz an der Wild,Niederösterreich,Politischer Bezirk Zwettl,Göpfritz an der Wild,48.7167,15.4
3804,Echsenbach,Niederösterreich,Politischer Bezirk Zwettl,Echsenbach,48.7167,15.2167
3811,Göpfritz an der Wild,Niederösterreich,Politischer Bezirk Zwettl,Göpfritz an der Wild,48.7167,15.4
3812,Groß-Siegharts,Niederösterreich,Politischer Bezirk Waidhofen an der Thaya,Groß-Siegharts,48.7833,15.4
3813,Dietmanns,Niederösterreich,Politischer Bezirk Waidhofen an der Thaya,Dietmanns,48.7833,15.3833
3814,Ludweis-Aigen,Niederösterreich,Politischer Bezirk Waidhofen an der Thaya,Ludweis-Aigen,48.7767,15.4811
3820,Raabs an der Thaya,Niederösterreich,Politischer Bezirk Waidhofen an der Thaya,Raabs an der Thaya,48.85,15.5
3822,Karlstein an der Thaya,Niederösterreich,Politischer Bezirk Waidhofen an der Thaya,Karlstein an der Thaya,48.7354,15.3754
3823,Raabs an der Thaya,Niederösterreich,Politischer Bezirk Waidhofen an der Thaya,Raabs an der Thaya,48.85,15.5
3824,Raabs an der Thaya,Niederösterreich,Politischer Bezirk Waidhofen an der Thaya,Raabs an der Thaya,48.85,15.5
3830,Waidhofen an der Thaya,Niederösterreich,Politischer Bezirk Waidhofen an der Thaya,Waidhofen an der Thaya,48.8167,15.2833
3834,Heidenreichstein,Niederösterreich,Politischer Bezirk Gmünd,Heidenreichstein,48.8667,15.1167
3841,Windigsteig,Niederösterreich,Politischer Bezirk Waidhofen an der Thaya,Windigsteig,48.7667,15.2833
3842,Gastern,Niederösterreich,Politischer Bezirk Waidhofen an der Thaya,Gastern,48.8945,15.2203
3843,Dobersberg,Niederösterreich,Politischer Bezirk Waidhofen an der Thaya,Dobersberg,48.7554,15.374
3844,Dobersberg,Niederösterreich,Politischer Bezirk Waidhofen an der Thaya,Dobersberg,48.7865,15.2383
3851,Dobersberg,Niederösterreich,Politischer Bezirk Waidhofen an der Thaya,Dobersberg,48.9285,15.3103
3852,Kautzen,Niederösterreich,Politischer Bezirk Waidhofen an der Thaya,Kautzen,48.9167,15.2333
3860,Eggern,Niederösterreich,Politischer Bezirk Gmünd,Eggern,48.9083,15.1488
3861,Eggern,Niederösterreich,Politischer Bezirk Gmünd,Eggern,48.9083,15.1488
3862,Eisgarn,Niederösterreich,Politischer Bezirk Gmünd,Eisgarn,48.9,15.1
3863,Reingers,Niederösterreich,Politischer Bezirk Gmünd,Reingers,48.9667,15.1333
3871,Gmünd,Niederösterreich,Politischer Bezirk Gmünd,Gmünd,48.7833,14.989
3872,Amaliendorf-Aalfang,Niederösterreich,Politischer Bezirk Gmünd,Amaliendorf-Aalfang,48.8419,15.0788
3873,Litschau,Niederösterreich,Politischer Bezirk Gmünd,Litschau,48.9333,15.05
3874,Reingers,Niederösterreich,Politischer Bezirk Gmünd,Reingers,48.9667,15.1333
3900,Windigsteig,Niederösterreich,Politischer Bezirk Waidhofen an der Thaya,Windigsteig,48.7667,15.2833
3902,Vitis,Niederösterreich,Politischer Bezirk Waidhofen an der Thaya,Vitis,48.7596,15.1826
3903,Echsenbach,Niederösterreich,Politischer Bezirk Zwettl,Echsenbach,48.7167,15.2167
3910,Großgöttfritz,Niederösterreich,Politischer Bezirk Zwettl,Großgöttfritz,48.5333,15.1833
3911,Zwettl,Niederösterreich,Politischer Bezirk Zwettl,Zwettl-Niederösterreich,48.6,15.15
3912,Grafenschlag,Niederösterreich,Politischer Bezirk Zwettl,Grafenschlag,48.4932,15.1604
3913,Großgöttfritz,Niederösterreich,Politischer Bezirk Zwettl,Großgöttfritz,48.5333,15.1833
3914,Sallingberg,Niederösterreich,Politischer Bezirk Zwettl,Sallingberg,48.4667,15.2333
3920,Groß Gerungs,Niederösterreich,Politischer Bezirk Zwettl,Groß Gerungs,48.5742,14.9579
3921,Groß Gerungs,Niederösterreich,Politischer Bezirk Zwettl,Groß Gerungs,48.5742,14.9579
3922,Großschönau,Niederösterreich,Politischer Bezirk Gmünd,Großschönau,48.65,14.9333
3923,Großschönau,Niederösterreich,Politischer Bezirk Gmünd,Großschönau,48.65,14.9333
3924,Zwettl,Niederösterreich,Politischer Bezirk Zwettl,Zwettl-Niederösterreich,48.6,15.15
3925,Altmelon,Niederösterreich,Politischer Bezirk Zwettl,Altmelon,48.45,14.9667
3931,Schweiggers,Niederösterreich,Politischer Bezirk Zwettl,Schweiggers,48.6667,15.0667
3932,Kirchberg am Walde,Niederösterreich,Politischer Bezirk Gmünd,Kirchberg am Walde,48.7207,15.0957
3942,Hirschbach,Niederösterreich,Politischer Bezirk Gmünd,Hirschbach,48.7467,15.1191
3943,Schrems,Niederösterreich,Politischer Bezirk Gmünd,Schrems,48.7833,15.0667
3944,Schrems,Niederösterreich,Politischer Bezirk Gmünd,Schrems,48.7833,15.0667
3945,Hoheneich,Niederösterreich,Politischer Bezirk Gmünd,Hoheneich,48.7667,15.0167
3950,Gmünd,Niederösterreich,Politischer Bezirk Gmünd,Gmünd,48.7833,14.989
3961,Waldenstein,Niederösterreich,Politischer Bezirk Gmünd,Waldenstein,48.7257,15.0183
3962,Unserfrau-Altweitra,Niederösterreich,Politischer Bezirk Gmünd,Unserfrau-Altweitra,48.76,14.8567
3970,Weitra,Niederösterreich,Politischer Bezirk Gmünd,Weitra,48.7,14.8833
3971,St. Martin,Niederösterreich,Politischer Bezirk Gmünd,St. Martin,48.663,14.808
3972,Bad Großpertholz,Niederösterreich,Politischer Bezirk Gmünd,Bad Großpertholz,48.5307,14.7645
3973,Bad Großpertholz,Niederösterreich,Politischer Bezirk Gmünd,Bad Großpertholz,48.525,14.9667
4020,Linz,Oberösterreich,Linz Stadt,Linz,48.3064,14.2861
4030,Linz,Oberösterreich,Linz Stadt,Linz,48.3064,14.2861
4040,Linz,Oberösterreich,Linz Stadt,Linz,48.3064,14.2861
4048,Puchenau,Oberösterreich,Politischer Bezirk Urfahr Umgebung,Puchenau,48.3121,14.2361
4050,Traun,Oberösterreich,Politischer Bezirk Linz Land,Traun,48.2266,14.2346
4052,Ansfelden,Oberösterreich,Politischer Bezirk Linz Land,Ansfelden,48.2097,14.29
4053,Neuhofen an der Krems,Oberösterreich,Politischer Bezirk Linz Land,Neuhofen an der Krems,48.1387,14.2276
4055,Pucking,Oberösterreich,Politischer Bezirk Linz Land,Pucking,48.1889,14.1882
4060,Leonding,Oberösterreich,Politischer Bezirk Linz Land,Leonding,48.2797,14.2533
4061,Pasching,Oberösterreich,Politischer Bezirk Linz Land,Pasching,48.2593,14.2037
4062,Kirchberg-Thening,Oberösterreich,Politischer Bezirk Linz Land,Kirchberg-Thening,48.0798,14.1745
4063,Traun,Oberösterreich,Politischer Bezirk Linz Land,Traun,48.2266,14.2346
4064,Oftering,Oberösterreich,Politischer Bezirk Linz Land,Oftering,48.234,14.1357
4070,Hartkirchen,Oberösterreich,Politischer Bezirk Eferding,Hartkirchen,48.3635,14.0042
4072,Bergham,Oberösterreich,Politischer Bezirk Eferding,Alkoven,48.2941,14.1263
4073,Wilhering,Oberösterreich,Politischer Bezirk Linz Land,Wilhering,48.3233,14.188
4074,Stroheim,Oberösterreich,Politischer Bezirk Eferding,Stroheim,48.3376,13.9571
4075,Scharten,Oberösterreich,Politischer Bezirk Eferding,Scharten,48.2514,14.0354
4076,St.Marienkirchen/Polsenz,Oberösterreich,Politischer Bezirk Eferding,Sankt Marienkirchen an der Polsenz,48.2657,13.9313
4081,Pupping,Oberösterreich,Politischer Bezirk Eferding,Pupping,48.3386,13.9999
4082,Aschach an der Donau,Oberösterreich,Politischer Bezirk Eferding,Aschach an der Donau,48.3646,14.0204
4083,Haibach ob der Donau,Oberösterreich,Politischer Bezirk Eferding,Haibach ob der Donau,48.4102,13.9162
4084,Eschenau im Hausruckkreis,Oberösterreich,Politischer Bezirk Grieskirchen,Eschenau im Hausruckkreis,48.3895,13.8209
4085,Eschenau im Hausruckkreis,Oberösterreich,Politischer Bezirk Grieskirchen,Eschenau im Hausruckkreis,48.3895,13.8209
4090,Engelhartszell,Oberösterreich,Politischer Bezirk Schärding,Engelhartszell,48.5063,13.7321
4091,Sankt Roman,Oberösterreich,Politischer Bezirk Schärding,Sankt Roman,48.4818,13.6106
4092,Esternberg,Oberösterreich,Politischer Bezirk Schärding,Esternberg,48.5433,13.5708
4100,Ottensheim,Oberösterreich,Politischer Bezirk Urfahr Umgebung,Ottensheim,48.3325,14.1743
4101,Feldkirchen an der Donau,Oberösterreich,Politischer Bezirk Urfahr Umgebung,Feldkirchen an der Donau,48.35,14.05
4102,Goldwörth,Oberösterreich,Politischer Bezirk Urfahr Umgebung,Goldwörth,48.3333,14.1
4111,Walding,Oberösterreich,Politischer Bezirk Urfahr Umgebung,Walding,48.35,14.1667
4112,Sankt Gotthard im Mühlkreis,Oberösterreich,Politischer Bezirk Urfahr Umgebung,Sankt Gotthard im Mühlkreis,48.3667,14.1333
4113,Sankt Martin im Mühlkreis,Oberösterreich,Politischer Bezirk Rohrbach,Sankt Martin im Mühlkreis,48.4155,14.0382
4114,Kirchberg ob der Donau,Oberösterreich,Politischer Bezirk Rohrbach,Kirchberg ob der Donau,48.4444,13.938
4115,Kleinzell im Mühlkreis,Oberösterreich,Politischer Bezirk Rohrbach,Kleinzell im Mühlkreis,48.4558,13.9919
4120,Niederwaldkirchen,Oberösterreich,Politischer Bezirk Rohrbach,Niederwaldkirchen,48.4504,14.0855
4121,Altenfelden,Oberösterreich,Politischer Bezirk Rohrbach,Altenfelden,48.4856,13.9698
4122,Arnreit,Oberösterreich,Politischer Bezirk Rohrbach,Arnreit,48.5251,13.9949
4131,Kirchberg ob der Donau,Oberösterreich,Politischer Bezirk Rohrbach,Kirchberg ob der Donau,48.4444,13.938
4132,Niederkappel,Oberösterreich,Politischer Bezirk Rohrbach,Niederkappel,48.4653,13.8809
4133,Hofkirchen im Mühlkreis,Oberösterreich,Politischer Bezirk Rohrbach,Hofkirchen im Mühlkreis,48.4834,13.8096
4134,Atzesberg,Oberösterreich,Politischer Bezirk Rohrbach,Atzesberg,48.4702,13.9586
4141,Putzleinsdorf,Oberösterreich,Politischer Bezirk Rohrbach,Putzleinsdorf,48.5159,13.8732
4142,Hofkirchen im Mühlkreis,Oberösterreich,Politischer Bezirk Rohrbach,Hofkirchen im Mühlkreis,48.4834,13.8096
4143,Neustift im Mühlkreis,Oberösterreich,Politischer Bezirk Rohrbach,Neustift im Mühlkreis,48.5288,13.7564
4144,Oberkappel,Oberösterreich,Politischer Bezirk Rohrbach,Oberkappel,48.5528,13.7707
4150,Rohrbach in Oberösterreich,Oberösterreich,Politischer Bezirk Rohrbach,Rohrbach in Oberösterreich,48.5727,13.9883
4151,Marbach,Oberösterreich,Politischer Bezirk Rohrbach,Oepping,48.6031,13.9453
4152,Oberkappel,Oberösterreich,Politischer Bezirk Rohrbach,Oberkappel,48.5528,13.7707
4153,Julbach,Oberösterreich,Politischer Bezirk Rohrbach,Julbach,48.6609,13.8652
4154,Julbach,Oberösterreich,Politischer Bezirk Rohrbach,Julbach,48.6609,13.8652
4160,Schlägl,Oberösterreich,Politischer Bezirk Rohrbach,Schlägl,48.6367,13.9656
4161,Schwarzenberg am Böhmerwald,Oberösterreich,Politischer Bezirk Rohrbach,Schwarzenberg am Böhmerwald,48.7375,13.8343
4162,Ulrichsberg,Oberösterreich,Politischer Bezirk Rohrbach,Ulrichsberg,48.675,13.9105
4163,Klaffer am Hochficht,Oberösterreich,Politischer Bezirk Rohrbach,Klaffer am Hochficht,48.6954,13.8813
4164,Klaffer am Hochficht,Oberösterreich,Politischer Bezirk Rohrbach,Klaffer am Hochficht,48.6954,13.8813
4170,Auberg,Oberösterreich,Politischer Bezirk Rohrbach,Auberg,48.5447,14.0527
4171,Sankt Stefan am Walde,Oberösterreich,Politischer Bezirk Rohrbach,Sankt Stefan am Walde,48.5675,14.1024
4172,Niederwaldkirchen,Oberösterreich,Politischer Bezirk Rohrbach,Niederwaldkirchen,48.4504,14.0855
4173,Sankt Veit im Mühlkreis,Oberösterreich,Politischer Bezirk Rohrbach,Sankt Veit im Mühlkreis,48.4681,14.1635
4174,Niederwaldkirchen,Oberösterreich,Politischer Bezirk Rohrbach,Niederwaldkirchen,48.4504,14.0855
4175,Sankt Veit im Mühlkreis,Oberösterreich,Politischer Bezirk Rohrbach,Sankt Veit im Mühlkreis,48.4681,14.1635
4180,Sonnberg im Mühlkreis,Oberösterreich,Politischer Bezirk Urfahr Umgebung,Sonnberg im Mühlkreis,48.4588,14.2993
4181,Herzogsdorf,Oberösterreich,Politischer Bezirk Urfahr Umgebung,Herzogsdorf,48.4223,14.1376
4182,Ahorn,Oberösterreich,Politischer Bezirk Rohrbach,Ahorn,48.5235,14.1739
4183,Ahorn,Oberösterreich,Politischer Bezirk Rohrbach,Ahorn,48.5235,14.1739
4184,Helfenberg,Oberösterreich,Politischer Bezirk Rohrbach,Helfenberg,48.5443,14.1422
4190,Vorderweißenbach,Oberösterreich,Politischer Bezirk Urfahr Umgebung,Vorderweißenbach,48.5521,14.2179
4191,Schönegg,Oberösterreich,Politischer Bezirk Rohrbach,Schönegg,48.5804,14.1883
4192,Hirschbach im Mühlkreis,Oberösterreich,Politischer Bezirk Freistadt,Hirschbach im Mühlkreis,48.489,14.412
4193,Waldburg,Oberösterreich,Politischer Bezirk Freistadt,Waldburg,48.5085,14.4398
4201,Lichtenberg,Oberösterreich,Politischer Bezirk Urfahr Umgebung,Lichtenberg,48.365,14.26
4202,Kirchschlag bei Linz,Oberösterreich,Politischer Bezirk Urfahr Umgebung,Kirchschlag bei Linz,48.4,14.2667
4203,Altenberg bei Linz,Oberösterreich,Politischer Bezirk Urfahr Umgebung,Altenberg bei Linz,48.3719,14.3476
4204,Haibach im Mühlkreis,Oberösterreich,Politischer Bezirk Urfahr Umgebung,Haibach im Mühlkreis,48.45,14.35
4209,Altenberg bei Linz,Oberösterreich,Politischer Bezirk Urfahr Umgebung,Altenberg bei Linz,48.3719,14.3476
4210,Unterweitersdorf,Oberösterreich,Politischer Bezirk Freistadt,Unterweitersdorf,48.3674,14.4678
4211,Neumarkt im Mühlkreis,Oberösterreich,Politischer Bezirk Freistadt,Neumarkt im Mühlkreis,48.4282,14.4844
4212,Kefermarkt,Oberösterreich,Politischer Bezirk Freistadt,Kefermarkt,48.4426,14.5388
4221,Steyregg,Oberösterreich,Politischer Bezirk Urfahr Umgebung,Steyregg,48.2851,14.3699
4222,Langenstein,Oberösterreich,Politischer Bezirk Perg,Langenstein,48.252,14.4765
4223,Wartberg ob der Aist,Oberösterreich,Politischer Bezirk Freistadt,Wartberg ob der Aist,48.3479,14.508
4224,Wartberg ob der Aist,Oberösterreich,Politischer Bezirk Freistadt,Wartberg ob der Aist,48.3479,14.508
4225,Luftenberg an der Donau,Oberösterreich,Politischer Bezirk Perg,Luftenberg an der Donau,48.2746,14.413
4230,Pregarten,Oberösterreich,Politischer Bezirk Freistadt,Pregarten,48.3549,14.5322
4231,Wartberg ob der Aist,Oberösterreich,Politischer Bezirk Freistadt,Wartberg ob der Aist,48.3479,14.508
4232,Hagenberg im Mühlkreis,Oberösterreich,Politischer Bezirk Freistadt,Hagenberg im Mühlkreis,48.3679,14.5169
4240,Am Berg,Oberösterreich,Politischer Bezirk Freistadt,Lasberg,48.471,14.5407
4242,Hirschbach im Mühlkreis,Oberösterreich,Politischer Bezirk Freistadt,Hirschbach im Mühlkreis,48.489,14.412
4251,Sandl,Oberösterreich,Politischer Bezirk Freistadt,Sandl,48.5609,14.6422
4252,Liebenau,Oberösterreich,Politischer Bezirk Freistadt,Liebenau,48.5313,14.8039
4261,Rainbach im Mühlkreis,Oberösterreich,Politischer Bezirk Freistadt,Rainbach im Mühlkreis,48.5576,14.4745
4262,Leopoldschlag,Oberösterreich,Politischer Bezirk Freistadt,Leopoldschlag,48.6157,14.5038
4263,Windhaag bei Freistadt,Oberösterreich,Politischer Bezirk Freistadt,Windhaag bei Freistadt,48.5877,14.5619
4264,Grünbach,Oberösterreich,Politischer Bezirk Freistadt,Grünbach,48.5381,14.5346
4271,Lasberg,Oberösterreich,Politischer Bezirk Freistadt,Lasberg,48.4712,14.5402
4272,Weitersfelden,Oberösterreich,Politischer Bezirk Freistadt,Weitersfelden,48.4773,14.7255
4273,Kaltenberg,Oberösterreich,Politischer Bezirk Freistadt,Kaltenberg,48.4503,14.7758
4274,Schönau im Mühlkreis,Oberösterreich,Politischer Bezirk Freistadt,Schönau im Mühlkreis,48.3946,14.7302
4280,Königswiesen,Oberösterreich,Politischer Bezirk Freistadt,Königswiesen,48.4045,14.8382
4281,Königswiesen,Oberösterreich,Politischer Bezirk Freistadt,Königswiesen,48.4045,14.8382
4282,Königswiesen,Oberösterreich,Politischer Bezirk Freistadt,Königswiesen,48.4045,14.8382
4283,Bad Zell,Oberösterreich,Politischer Bezirk Freistadt,Bad Zell,48.3491,14.6695
4284,Tragwein,Oberösterreich,Politischer Bezirk Freistadt,Tragwein,48.3331,14.6224
4291,Kefermarkt,Oberösterreich,Politischer Bezirk Freistadt,Kefermarkt,48.4426,14.5388
4292,Pregarten,Oberösterreich,Politischer Bezirk Freistadt,Pregarten,48.3549,14.5322
4293,St.Leonhard bei Freistadt,Oberösterreich,Politischer Bezirk Freistadt,Sankt Leonhard bei Freistadt,48.4441,14.6782
4294,Gutau,Oberösterreich,Politischer Bezirk Freistadt,Gutau,48.4172,14.6128
4300,Ernsthofen,Niederösterreich,Politischer Bezirk Amstetten,Ernsthofen,48.1291,14.4806
4303,St. Pantaleon-Erla,Niederösterreich,Politischer Bezirk Amstetten,St. Pantaleon-Erla,48.1698,14.4964
4310,Langenstein,Oberösterreich,Politischer Bezirk Perg,Langenstein,48.252,14.4765
4311,Tragwein,Oberösterreich,Politischer Bezirk Freistadt,Tragwein,48.3331,14.6224
4312,Katsdorf,Oberösterreich,Politischer Bezirk Perg,Katsdorf,48.318,14.4728
4320,Naarn im Machlande,Oberösterreich,Politischer Bezirk Perg,Naarn im Machlande,48.2255,14.6084
4322,Windhaag bei Perg,Oberösterreich,Politischer Bezirk Perg,Windhaag bei Perg,48.2858,14.6809
4323,Bad Kreuzen,Oberösterreich,Politischer Bezirk Perg,Bad Kreuzen,48.2674,14.8065
4324,Rechberg,Oberösterreich,Politischer Bezirk Perg,Rechberg,48.3222,14.7117
4331,Naarn im Machlande,Oberösterreich,Politischer Bezirk Perg,Naarn im Machlande,48.2255,14.6084
4332,Naarn im Machlande,Oberösterreich,Politischer Bezirk Perg,Naarn im Machlande,48.2255,14.6084
4341,Arbing,Oberösterreich,Politischer Bezirk Perg,Arbing,48.2291,14.703
4342,Arbing,Oberösterreich,Politischer Bezirk Perg,Arbing,48.2291,14.703
4343,Mitterkirchen im Machland,Oberösterreich,Politischer Bezirk Perg,Mitterkirchen im Machland,48.1879,14.6959
4351,Baumgartenberg,Oberösterreich,Politischer Bezirk Perg,Baumgartenberg,48.2087,14.7437
4352,Saxen,Oberösterreich,Politischer Bezirk Perg,Saxen,48.2083,14.7905
4360,Waldhausen im Strudengau,Oberösterreich,Politischer Bezirk Perg,Waldhausen im Strudengau,48.2738,14.9475
4362,Bad Kreuzen,Oberösterreich,Politischer Bezirk Perg,Bad Kreuzen,48.2674,14.8065
4363,Pabneukirchen,Oberösterreich,Politischer Bezirk Perg,Pabneukirchen,48.3237,14.8175
4364,Sankt Thomas am Blasenstein,Oberösterreich,Politischer Bezirk Perg,Sankt Thomas am Blasenstein,48.317,14.7642
4371,Dimbach,Oberösterreich,Politischer Bezirk Perg,Dimbach,48.3061,14.908
4372,Altmelon,Niederösterreich,Politischer Bezirk Zwettl,Altmelon,48.45,14.9667
4381,Sankt Nikola an der Donau,Oberösterreich,Politischer Bezirk Perg,Sankt Nikola an der Donau,48.233,14.9066
4382,Waldhausen im Strudengau,Oberösterreich,Politischer Bezirk Perg,Waldhausen im Strudengau,48.2738,14.9475
4391,Waldhausen im Strudengau,Oberösterreich,Politischer Bezirk Perg,Waldhausen im Strudengau,48.2738,14.9475
4392,Dorfstetten,Niederösterreich,Politischer Bezirk Melk,Dorfstetten,48.3167,14.9667
4400,Steyr,Oberösterreich,Steyr Stadt,Steyr,48.0427,14.4213
4407,Steyr,Oberösterreich,Steyr Stadt,Steyr,48.0427,14.4213
4421,Aschach an der Steyr,Oberösterreich,Politischer Bezirk Steyr-Land,Aschach an der Steyr,48.0131,14.3354
4431,Haidershofen,Niederösterreich,Politischer Bezirk Amstetten,Haidershofen,48.0667,14.45
4432,Ernsthofen,Niederösterreich,Politischer Bezirk Amstetten,Ernsthofen,48.1291,14.4806
4441,Haidershofen,Niederösterreich,Politischer Bezirk Amstetten,Haidershofen,48.0667,14.45
4442,St. Peter in der Au,Niederösterreich,Politischer Bezirk Amstetten,St. Peter in der Au,48.014,14.5911
4443,St. Peter in der Au,Niederösterreich,Politischer Bezirk Amstetten,St. Peter in der Au,48.014,14.5911
4451,Steyr,Oberösterreich,Steyr Stadt,Steyr,48.0427,14.4213
4452,Ternberg,Oberösterreich,Politischer Bezirk Steyr-Land,Ternberg,47.9333,14.35
4453,Ternberg,Oberösterreich,Politischer Bezirk Steyr-Land,Ternberg,47.9333,14.35
4460,Losenstein,Oberösterreich,Politischer Bezirk Steyr-Land,Losenstein,47.9167,14.4333
4461,Laussa,Oberösterreich,Politischer Bezirk Steyr-Land,Laussa,47.95,14.45
4462,Reichraming,Oberösterreich,Politischer Bezirk Steyr-Land,Reichraming,47.8833,14.45
4463,Laussa,Oberösterreich,Politischer Bezirk Steyr-Land,Laussa,47.95,14.45
4464,Weyer,,,Weyer,47.85,14.6667
4470,Kronstorf,Oberösterreich,Politischer Bezirk Linz Land,Kronstorf,48.1432,14.4631
4481,Asten,Oberösterreich,Politischer Bezirk Linz Land,Asten,48.2194,14.4178
4482,St. Pantaleon-Erla,Niederösterreich,Politischer Bezirk Amstetten,St. Pantaleon-Erla,48.1976,14.5014
4483,Kronstorf,Oberösterreich,Politischer Bezirk Linz Land,Kronstorf,48.1432,14.4631
4484,Kronstorf,Oberösterreich,Politischer Bezirk Linz Land,Kronstorf,48.1432,14.4631
4490,Sankt Florian,Oberösterreich,Politischer Bezirk Linz Land,Sankt Florian,48.2057,14.3784
4491,Sankt Marien,Oberösterreich,Politischer Bezirk Linz Land,Sankt Marien,48.148,14.2776
4492,Hofkirchen im Traunkreis,Oberösterreich,Politischer Bezirk Linz Land,Hofkirchen im Traunkreis,48.1431,14.3778
4493,Wolfern,Oberösterreich,Politischer Bezirk Steyr-Land,Wolfern,48.0833,14.3667
4501,Neuhofen an der Krems,Oberösterreich,Politischer Bezirk Linz Land,Neuhofen an der Krems,48.1387,14.2276
4502,Sankt Marien,Oberösterreich,Politischer Bezirk Linz Land,Sankt Marien,48.148,14.2776
4511,Allhaming,Oberösterreich,Politischer Bezirk Linz Land,Allhaming,48.1525,14.1702
4521,Sankt Marien,Oberösterreich,Politischer Bezirk Linz Land,Sankt Marien,48.148,14.2776
4522,Bad Hall,Oberösterreich,Politischer Bezirk Steyr-Land,Bad Hall,48.0383,14.2077
4523,Neuzeug,Oberösterreich,Politischer Bezirk Steyr-Land,Sierning,48.05,14.3333
4531,Neuhofen an der Krems,Oberösterreich,Politischer Bezirk Linz Land,Neuhofen an der Krems,48.1387,14.2276
4532,Kremsmünster,Oberösterreich,Politischer Bezirk Kirchdorf an der Krems,Kremsmünster,48.0529,14.1292
4533,Piberbach,Oberösterreich,Politischer Bezirk Linz Land,Piberbach,48.1151,14.2264
4540,Kremsmünster,Oberösterreich,Politischer Bezirk Kirchdorf an der Krems,Kremsmünster,48.0529,14.1292
4541,Adlwang,Oberösterreich,Politischer Bezirk Steyr-Land,Adlwang,47.9924,14.2174
4542,Nußbach,Oberösterreich,Politischer Bezirk Kirchdorf an der Krems,Nußbach,47.9725,14.1639
4550,Kremsmünster,Oberösterreich,Politischer Bezirk Kirchdorf an der Krems,Kremsmünster,48.0529,14.1292
4551,Ried im Traunkreis,Oberösterreich,Politischer Bezirk Kirchdorf an der Krems,Ried im Traunkreis,48.0258,14.0745
4552,Wartberg an der Krems,Oberösterreich,Politischer Bezirk Kirchdorf an der Krems,Wartberg an der Krems,47.9891,14.1186
4553,Oberschlierbach,Oberösterreich,Politischer Bezirk Kirchdorf an der Krems,Oberschlierbach,47.9259,14.1662
4560,Inzersdorf im Kremstal,Oberösterreich,Politischer Bezirk Kirchdorf an der Krems,Inzersdorf im Kremstal,47.9281,14.081
4562,Steinbach am Ziehberg,Oberösterreich,Politischer Bezirk Kirchdorf an der Krems,Steinbach am Ziehberg,47.8926,14.0304
4563,Kirchdorf an der Krems,Oberösterreich,Politischer Bezirk Kirchdorf an der Krems,Kirchdorf an der Krems,47.9056,14.1223
4564,Micheldorf i.Oberösterreich,Oberösterreich,Politischer Bezirk Kirchdorf an der Krems,Micheldorf in Oberösterreich,47.8823,14.1334
4571,Klaus an der Pyhrnbahn,Oberösterreich,Politischer Bezirk Kirchdorf an der Krems,Klaus an der Pyhrnbahn,47.8314,14.1572
4572,Hinterstoder,Oberösterreich,Politischer Bezirk Kirchdorf an der Krems,Hinterstoder,47.6996,14.1547
4573,Hinterstoder,Oberösterreich,Politischer Bezirk Kirchdorf an der Krems,Hinterstoder,47.6996,14.1547
4574,Vorderstoder,Oberösterreich,Politischer Bezirk Kirchdorf an der Krems,Vorderstoder,47.7134,14.2271
4575,Vorderstoder,Oberösterreich,Politischer Bezirk Kirchdorf an der Krems,Vorderstoder,47.7134,14.2271
4580,Windischgarsten,Oberösterreich,Politischer Bezirk Kirchdorf an der Krems,Windischgarsten,47.7222,14.3275
4581,Rosenau am Hengstpaß,Oberösterreich,Politischer Bezirk Kirchdorf an der Krems,Rosenau am Hengstpaß,47.7131,14.3925
4582,Edlbach,Oberösterreich,Politischer Bezirk Kirchdorf an der Krems,Edlbach,47.7149,14.3447
4591,Molln,Oberösterreich,Politischer Bezirk Kirchdorf an der Krems,Molln,47.8872,14.2582
4592,Grünburg,Oberösterreich,Politischer Bezirk Kirchdorf an der Krems,Grünburg,47.9723,14.2647
4593,Grünburg,Oberösterreich,Politischer Bezirk Kirchdorf an der Krems,Grünburg,47.9723,14.2647
4594,Steinbach an der Steyr,Oberösterreich,Politischer Bezirk Kirchdorf an der Krems,Steinbach an der Steyr,47.9708,14.2694
4595,Waldneukirchen,Oberösterreich,Politischer Bezirk Steyr-Land,Waldneukirchen,47.9985,14.2588
4600,Wels,Oberösterreich,Wels(Stadt),Wels,48.1667,14.0333
4611,Wallern an der Trattnach,Oberösterreich,Politischer Bezirk Grieskirchen,Wallern an der Trattnach,48.233,13.9462
4612,Fraham,Oberösterreich,Politischer Bezirk Eferding,Fraham,48.2835,14.0302
4613,Buchkirchen,Oberösterreich,Wels-Land,Buchkirchen,48.2243,14.0224
4614,Marchtrenk,Oberösterreich,Wels-Land,Marchtrenk,48.1833,14.1167
4615,Holzhausen,Oberösterreich,Wels-Land,Holzhausen,48.2285,14.0968
4616,Eggendorf im Traunkreis,Oberösterreich,Politischer Bezirk Linz Land,Eggendorf im Traunkreis,48.1307,14.1441
4621,Kremsmünster,Oberösterreich,Politischer Bezirk Kirchdorf an der Krems,Kremsmünster,48.0529,14.1292
4622,Eggendorf im Traunkreis,Oberösterreich,Politischer Bezirk Linz Land,Eggendorf im Traunkreis,48.1307,14.1441
4623,Wels,Oberösterreich,Wels(Stadt),Wels,48.1667,14.0333
4624,Pennewang,Oberösterreich,Wels-Land,Pennewang,48.1333,13.85
4625,Meggenhofen,Oberösterreich,Politischer Bezirk Grieskirchen,Meggenhofen,48.1802,13.7958
4631,Wallern an der Trattnach,Oberösterreich,Politischer Bezirk Grieskirchen,Wallern an der Trattnach,48.233,13.9462
4632,Kematen am Innbach,Oberösterreich,Politischer Bezirk Grieskirchen,Kematen am Innbach,48.1764,13.8587
4633,Kematen am Innbach,Oberösterreich,Politischer Bezirk Grieskirchen,Kematen am Innbach,48.1764,13.8587
4641,Steinhaus,Oberösterreich,Wels-Land,Steinhaus,48.1137,14.0146
4642,Ried im Traunkreis,Oberösterreich,Politischer Bezirk Kirchdorf an der Krems,Ried im Traunkreis,48.0258,14.0745
4643,Pettenbach,Oberösterreich,Politischer Bezirk Kirchdorf an der Krems,Pettenbach,47.9591,14.017
4644,Sankt Konrad,Oberösterreich,Politischer Bezirk Gmunden,Sankt Konrad,47.9128,13.8882
4645,Scharnstein,Oberösterreich,Politischer Bezirk Gmunden,Scharnstein,47.9043,13.9613
4650,Lambach,Oberösterreich,Wels-Land,Lambach,48.0925,13.8695
4651,Stadl-Paura,Oberösterreich,Wels-Land,Stadl-Paura,48.0833,13.8667
4652,Steinerkirchen an der Traun,Oberösterreich,Wels-Land,Steinerkirchen an der Traun,48.0791,13.958
4653,Vorchdorf,Oberösterreich,Politischer Bezirk Gmunden,Vorchdorf,48.0039,13.9212
4654,Bad Wimsbach-Neydharting,Oberösterreich,Wels-Land,Bad Wimsbach-Neydharting,48.0667,13.9
4655,Vorchdorf,Oberösterreich,Politischer Bezirk Gmunden,Vorchdorf,48.0039,13.9212
4656,Kirchham,Oberösterreich,Politischer Bezirk Gmunden,Kirchham,47.9714,13.8981
4661,Roitham,Oberösterreich,Politischer Bezirk Gmunden,Roitham,48.0243,13.8217
4662,Ohlsdorf,Oberösterreich,Politischer Bezirk Gmunden,Ohlsdorf,47.9607,13.7914
4663,Laakirchen,Oberösterreich,Politischer Bezirk Gmunden,Laakirchen,47.9819,13.8217
4664,Gschwandt,Oberösterreich,Politischer Bezirk Gmunden,Gschwandt,47.9367,13.8472
4671,Neukirchen bei Lambach,Oberösterreich,Wels-Land,Neukirchen bei Lambach,48.1,13.8167
4672,Meggenhofen,Oberösterreich,Politischer Bezirk Grieskirchen,Meggenhofen,48.1802,13.7958
4673,Gaspoltshofen,Oberösterreich,Politischer Bezirk Grieskirchen,Gaspoltshofen,48.1432,13.7364
4674,Gaspoltshofen,Oberösterreich,Politischer Bezirk Grieskirchen,Gaspoltshofen,48.1432,13.7364
4675,Weibern,Oberösterreich,Politischer Bezirk Grieskirchen,Weibern,48.1833,13.7
4676,Gaspoltshofen,Oberösterreich,Politischer Bezirk Grieskirchen,Gaspoltshofen,48.1432,13.7364
4680,Weibern,Oberösterreich,Politischer Bezirk Grieskirchen,Weibern,48.1833,13.7
4681,Rottenbach,Oberösterreich,Politischer Bezirk Grieskirchen,Rottenbach,48.2055,13.6809
4682,Gaspoltshofen,Oberösterreich,Politischer Bezirk Grieskirchen,Gaspoltshofen,48.1432,13.7364
4690,Rutzenham,Oberösterreich,Politischer Bezirk Vöcklabruck,Rutzenham,48.0608,13.7188
4691,Niederthalheim,Oberösterreich,Politischer Bezirk Vöcklabruck,Niederthalheim,48.1,13.75
4692,Gaspoltshofen,Oberösterreich,Politischer Bezirk Grieskirchen,Gaspoltshofen,48.1432,13.7364
4693,Ohlsdorf,Oberösterreich,Politischer Bezirk Gmunden,Ohlsdorf,47.9607,13.7914
4694,Ohlsdorf,Oberösterreich,Politischer Bezirk Gmunden,Ohlsdorf,47.9607,13.7914
4701,Bad Schallerbach,Oberösterreich,Politischer Bezirk Grieskirchen,Bad Schallerbach,48.23,13.9192
4702,Bad Schallerbach,Oberösterreich,Politischer Bezirk Grieskirchen,Bad Schallerbach,48.23,13.9192
4707,Schlüßlberg,Oberösterreich,Politischer Bezirk Grieskirchen,Schlüßlberg,48.2186,13.8716
4710,Pollham,Oberösterreich,Politischer Bezirk Grieskirchen,Pollham,48.2603,13.8506
4712,Tollet,Oberösterreich,Politischer Bezirk Grieskirchen,Tollet,48.2454,13.8069
4713,Grieskirchen,Oberösterreich,Politischer Bezirk Grieskirchen,Grieskirchen,48.2333,13.8333
4714,Gaspoltshofen,Oberösterreich,Politischer Bezirk Grieskirchen,Gaspoltshofen,48.1432,13.7364
4715,St.Georgen bei Grieskirchen,Oberösterreich,Politischer Bezirk Grieskirchen,Sankt Georgen bei Grieskirchen,48.2123,13.7784
4716,Hofkirchen an der Trattnach,Oberösterreich,Politischer Bezirk Grieskirchen,Hofkirchen an der Trattnach,48.2198,13.7394
4720,Michaelnbach,Oberösterreich,Politischer Bezirk Grieskirchen,Michaelnbach,48.2879,13.8314
4721,Kallham,Oberösterreich,Politischer Bezirk Grieskirchen,Kallham,48.2849,13.7109
4722,Steegen,Oberösterreich,Politischer Bezirk Grieskirchen,Steegen,48.3391,13.7636
4723,Natternbach,Oberösterreich,Politischer Bezirk Grieskirchen,Natternbach,48.3973,13.7496
4724,Neukirchen am Walde,Oberösterreich,Politischer Bezirk Grieskirchen,Neukirchen am Walde,48.4058,13.7816
4725,Engelhartszell,Oberösterreich,Politischer Bezirk Schärding,Engelhartszell,48.5063,13.7321
4730,Stroheim,Oberösterreich,Politischer Bezirk Eferding,Stroheim,48.3376,13.9571
4731,Prambachkirchen,Oberösterreich,Politischer Bezirk Eferding,Prambachkirchen,48.3171,13.9045
4732,St.Marienkirchen/Polsenz,Oberösterreich,Politischer Bezirk Eferding,Sankt Marienkirchen an der Polsenz,48.2657,13.9313
4733,Heiligenberg,Oberösterreich,Politischer Bezirk Grieskirchen,Heiligenberg,48.3549,13.8204
4741,Wendling,Oberösterreich,Politischer Bezirk Grieskirchen,Wendling,48.2316,13.6659
4742,Pram,Oberösterreich,Politischer Bezirk Grieskirchen,Pram,48.2354,13.6058
4743,Peterskirchen,Oberösterreich,Politischer Bezirk Ried im Innkreis,Peterskirchen,48.2374,13.5473
4751,Taiskirchen im Innkreis,Oberösterreich,Politischer Bezirk Ried im Innkreis,Taiskirchen im Innkreis,48.2647,13.5732
4752,Lambrechten,Oberösterreich,Politischer Bezirk Ried im Innkreis,Lambrechten,48.3177,13.513
4753,Lambrechten,Oberösterreich,Politischer Bezirk Ried im Innkreis,Lambrechten,48.3177,13.513
4754,Utzenaich,Oberösterreich,Politischer Bezirk Ried im Innkreis,Utzenaich,48.2762,13.4609
4755,Zell an der Pram,Oberösterreich,Politischer Bezirk Schärding,Zell an der Pram,48.3163,13.6292
4760,Sankt Willibald,Oberösterreich,Politischer Bezirk Schärding,Sankt Willibald,48.3608,13.6854
4761,Kopfing im Innkreis,Oberösterreich,Politischer Bezirk Schärding,Kopfing im Innkreis,48.4399,13.6584
4762,Natternbach,Oberösterreich,Politischer Bezirk Grieskirchen,Natternbach,48.3973,13.7496
4770,Andorf,Oberösterreich,Politischer Bezirk Schärding,Andorf,48.3713,13.5741
4771,Sigharting,Oberösterreich,Politischer Bezirk Schärding,Sigharting,48.3965,13.598
4772,Utzenaich,Oberösterreich,Politischer Bezirk Ried im Innkreis,Utzenaich,48.2762,13.4609
4773,St.Marienkirchen/Schärding,Oberösterreich,Politischer Bezirk Schärding,Sankt Marienkirchen bei Schärding,48.3868,13.4514
4774,Taufkirchen an der Pram,Oberösterreich,Politischer Bezirk Schärding,Taufkirchen an der Pram,48.411,13.5395
4775,Taufkirchen an der Pram,Oberösterreich,Politischer Bezirk Schärding,Taufkirchen an der Pram,48.411,13.5395
4776,Diersbach,Oberösterreich,Politischer Bezirk Schärding,Diersbach,48.4128,13.5715
4777,Mayrhof,Oberösterreich,Politischer Bezirk Schärding,Mayrhof,48.3494,13.4938
4780,Rainbach im Innkreis,Oberösterreich,Politischer Bezirk Schärding,Rainbach im Innkreis,48.4547,13.5352
4782,Rainbach im Innkreis,Oberösterreich,Politischer Bezirk Schärding,Rainbach im Innkreis,48.4547,13.5352
4783,Schardenberg,Oberösterreich,Politischer Bezirk Schärding,Schardenberg,48.5206,13.4979
4784,Esternberg,Oberösterreich,Politischer Bezirk Schärding,Esternberg,48.5433,13.5708
4785,Freinberg,Oberösterreich,Politischer Bezirk Schärding,Freinberg,48.5663,13.5137
4786,Brunnenthal,Oberösterreich,Politischer Bezirk Schärding,Brunnenthal,48.4685,13.4607
4791,Rainbach im Innkreis,Oberösterreich,Politischer Bezirk Schärding,Rainbach im Innkreis,48.4547,13.5352
4792,Schardenberg,Oberösterreich,Politischer Bezirk Schärding,Schardenberg,48.5206,13.4979
4793,Sankt Roman,Oberösterreich,Politischer Bezirk Schärding,Sankt Roman,48.4818,13.6106
4794,Kopfing im Innkreis,Oberösterreich,Politischer Bezirk Schärding,Kopfing im Innkreis,48.4399,13.6584
4800,Pilsbach,Oberösterreich,Politischer Bezirk Vöcklabruck,Pilsbach,48.0333,13.6667
4801,Mühlbach,Oberösterreich,Politischer Bezirk Gmunden,Altmünster,47.9009,13.7642
4802,Ebensee,Oberösterreich,Politischer Bezirk Gmunden,Ebensee,47.8072,13.779
4810,Pinsdorf,Oberösterreich,Politischer Bezirk Gmunden,Pinsdorf,47.9298,13.7707
4812,Ohlsdorf,Oberösterreich,Politischer Bezirk Gmunden,Ohlsdorf,47.9607,13.7914
4813,Eben,Oberösterreich,Politischer Bezirk Gmunden,Altmünster,47.9009,13.7642
4814,Mühlbach,Oberösterreich,Politischer Bezirk Gmunden,Altmünster,47.9009,13.7642
4816,Laakirchen,Oberösterreich,Politischer Bezirk Gmunden,Laakirchen,47.9819,13.8217
4817,Kirchham,Oberösterreich,Politischer Bezirk Gmunden,Kirchham,47.9714,13.8981
4820,Bad Ischl,Oberösterreich,Politischer Bezirk Gmunden,Bad Ischl,47.7111,13.6189
4821,Bad Ischl,Oberösterreich,Politischer Bezirk Gmunden,Bad Ischl,47.7111,13.6189
4822,Bad Goisern,Oberösterreich,Politischer Bezirk Gmunden,Bad Goisern am Hallstättersee,47.6425,13.6161
4823,Hallstatt,Oberösterreich,Politischer Bezirk Gmunden,Hallstatt,47.5623,13.6491
4824,Gosau,Oberösterreich,Politischer Bezirk Gmunden,Gosau,47.5842,13.5345
4825,Gosau,Oberösterreich,Politischer Bezirk Gmunden,Gosau,47.5842,13.5345
4830,Hallstatt,Oberösterreich,Politischer Bezirk Gmunden,Hallstatt,47.5623,13.6491
4831,Obertraun,Oberösterreich,Politischer Bezirk Gmunden,Obertraun,47.5574,13.6865
4840,Vöcklabruck,Oberösterreich,Politischer Bezirk Vöcklabruck,Vöcklabruck,48.0167,13.65
4841,Pilsbach,Oberösterreich,Politischer Bezirk Vöcklabruck,Pilsbach,48.0333,13.6667
4842,Zell am Pettenfirst,Oberösterreich,Politischer Bezirk Vöcklabruck,Zell am Pettenfirst,48.0667,13.5833
4843,Ampflwang im Hausruckwald,Oberösterreich,Politischer Bezirk Vöcklabruck,Ampflwang im Hausruckwald,48.095,13.5577
4844,Regau,Oberösterreich,Politischer Bezirk Vöcklabruck,Regau,47.9913,13.6878
4845,Pinsdorf,Oberösterreich,Politischer Bezirk Gmunden,Pinsdorf,47.9298,13.7707
4846,Redlham,Oberösterreich,Politischer Bezirk Vöcklabruck,Redlham,48.0167,13.7333
4849,Puchkirchen am Trattberg,Oberösterreich,Politischer Bezirk Vöcklabruck,Puchkirchen am Trattberg,48.0333,13.5667
4850,Vöcklabruck,Oberösterreich,Politischer Bezirk Vöcklabruck,Vöcklabruck,48.0167,13.65
4851,Seewalchen am Attersee,Oberösterreich,Politischer Bezirk Vöcklabruck,Seewalchen am Attersee,47.9543,13.5669
4852,Weyregg am Attersee,Oberösterreich,Politischer Bezirk Vöcklabruck,Weyregg am Attersee,47.9,13.5667
4853,Steinbach am Attersee,Oberösterreich,Politischer Bezirk Vöcklabruck,Steinbach am Attersee,47.8167,13.55
4854,Steinbach am Attersee,Oberösterreich,Politischer Bezirk Vöcklabruck,Steinbach am Attersee,47.8167,13.55
4860,Regau,Oberösterreich,Politischer Bezirk Vöcklabruck,Regau,47.9913,13.6878
4861,Weyregg am Attersee,Oberösterreich,Politischer Bezirk Vöcklabruck,Weyregg am Attersee,47.9,13.5667
4863,Berg im Attergau,Oberösterreich,Politischer Bezirk Vöcklabruck,Berg im Attergau,47.9333,13.5167
4864,Attersee,Oberösterreich,Politischer Bezirk Vöcklabruck,Attersee am Attersee,47.9167,13.55
4865,Nußdorf am Attersee,Oberösterreich,Politischer Bezirk Vöcklabruck,Nußdorf am Attersee,47.8833,13.5167
4866,Unterach am Attersee,Oberösterreich,Politischer Bezirk Vöcklabruck,Unterach am Attersee,47.74,13.6533
4870,Pfaffing,Oberösterreich,Politischer Bezirk Vöcklabruck,Pfaffing,48.0185,13.4667
4871,Neukirchen an der Vöckla,Oberösterreich,Politischer Bezirk Vöcklabruck,Neukirchen an der Vöckla,48.0333,13.5333
4872,Neukirchen an der Vöckla,Oberösterreich,Politischer Bezirk Vöcklabruck,Neukirchen an der Vöckla,48.0333,13.5333
4873,Neukirchen an der Vöckla,Oberösterreich,Politischer Bezirk Vöcklabruck,Neukirchen an der Vöckla,48.0333,13.5333
4880,Seewalchen am Attersee,Oberösterreich,Politischer Bezirk Vöcklabruck,Seewalchen am Attersee,47.9543,13.5669
4881,Straß im Attergau,Oberösterreich,Politischer Bezirk Vöcklabruck,Straß im Attergau,47.9,13.45
4882,Oberwang,Oberösterreich,Politischer Bezirk Vöcklabruck,Oberwang,47.8667,13.4333
4890,Fornach,Oberösterreich,Politischer Bezirk Vöcklabruck,Fornach,48.0228,13.4294
4891,Pöndorf,Oberösterreich,Politischer Bezirk Vöcklabruck,Pöndorf,47.9958,13.3704
4892,Pfaffing,Oberösterreich,Politischer Bezirk Vöcklabruck,Pfaffing,48.0185,13.4667
4893,Oberhofen am Irrsee,Oberösterreich,Politischer Bezirk Vöcklabruck,Oberhofen am Irrsee,47.95,13.3
4894,Oberhofen am Irrsee,Oberösterreich,Politischer Bezirk Vöcklabruck,Oberhofen am Irrsee,47.95,13.3
4901,Ottnang am Hausruck,Oberösterreich,Politischer Bezirk Vöcklabruck,Ottnang am Hausruck,48.1044,13.6319
4902,Gaspoltshofen,Oberösterreich,Politischer Bezirk Grieskirchen,Gaspoltshofen,48.1432,13.7364
4904,Atzbach,Oberösterreich,Politischer Bezirk Vöcklabruck,Atzbach,48.0836,13.7035
4905,Ottnang am Hausruck,Oberösterreich,Politischer Bezirk Vöcklabruck,Ottnang am Hausruck,48.1044,13.6319
4906,Eberschwang,Oberösterreich,Politischer Bezirk Ried im Innkreis,Eberschwang,48.155,13.5619
4910,Ried im Innkreis,Oberösterreich,Politischer Bezirk Ried im Innkreis,Ried im Innkreis,48.2112,13.4886
4912,Neuhofen im Innkreis,Oberösterreich,Politischer Bezirk Ried im Innkreis,Neuhofen im Innkreis,48.1905,13.4725
4920,Schildorn,Oberösterreich,Politischer Bezirk Ried im Innkreis,Schildorn,48.1456,13.4631
4921,Hohenzell,Oberösterreich,Politischer Bezirk Ried im Innkreis,Hohenzell,48.1936,13.542
4922,Pram,Oberösterreich,Politischer Bezirk Grieskirchen,Pram,48.2354,13.6058
4923,Lohnsburg a.Kobernaußerwald,Oberösterreich,Politischer Bezirk Ried im Innkreis,Lohnsburg am Kobernaußerwald,48.1439,13.4043
4924,Waldzell,Oberösterreich,Politischer Bezirk Ried im Innkreis,Waldzell,48.1356,13.427
4925,Pattigham,Oberösterreich,Politischer Bezirk Ried im Innkreis,Pattigham,48.1552,13.4844
4926,St.Marienkirchen a.Hausruck,Oberösterreich,Politischer Bezirk Ried im Innkreis,Sankt Marienkirchen am Hausruck,48.1828,13.5759
4931,Aspach,Oberösterreich,Politischer Bezirk Braunau am Inn,Aspach,48.1857,13.3044
4932,Aspach,Oberösterreich,Politischer Bezirk Braunau am Inn,Aspach,48.1857,13.3044
4933,Aspach,Oberösterreich,Politischer Bezirk Braunau am Inn,Aspach,48.1857,13.3044
4941,Mehrnbach,Oberösterreich,Politischer Bezirk Ried im Innkreis,Mehrnbach,48.2081,13.4352
4942,Wippenham,Oberösterreich,Politischer Bezirk Ried im Innkreis,Wippenham,48.2225,13.3792
4943,Polling im Innkreis,Oberösterreich,Politischer Bezirk Braunau am Inn,Polling im Innkreis,48.2312,13.28
4950,Weng im Innkreis,Oberösterreich,Politischer Bezirk Braunau am Inn,Weng im Innkreis,48.2351,13.178
4951,Polling im Innkreis,Oberösterreich,Politischer Bezirk Braunau am Inn,Polling im Innkreis,48.2312,13.28
4952,Moosbach,Oberösterreich,Politischer Bezirk Braunau am Inn,Moosbach,48.2081,13.1642
4961,Weng im Innkreis,Oberösterreich,Politischer Bezirk Braunau am Inn,Weng im Innkreis,48.2351,13.178
4962,Mining,Oberösterreich,Politischer Bezirk Braunau am Inn,Mining,48.2765,13.1618
4963,Sankt Peter am Hart,Oberösterreich,Politischer Bezirk Braunau am Inn,Sankt Peter am Hart,48.2527,13.0961
4970,Eitzing,Oberösterreich,Politischer Bezirk Ried im Innkreis,Eitzing,48.2379,13.43
4971,Mehrnbach,Oberösterreich,Politischer Bezirk Ried im Innkreis,Mehrnbach,48.2081,13.4352
4972,Andrichsfurt,Oberösterreich,Politischer Bezirk Ried im Innkreis,Andrichsfurt,48.2657,13.5264
4973,Reichersberg,Oberösterreich,Politischer Bezirk Ried im Innkreis,Reichersberg,48.3338,13.3604
4974,Ort im Innkreis,Oberösterreich,Politischer Bezirk Ried im Innkreis,Ort im Innkreis,48.3165,13.4336
4975,Suben,Oberösterreich,Politischer Bezirk Schärding,Suben,48.4118,13.4304
4980,Antiesenhofen,Oberösterreich,Politischer Bezirk Ried im Innkreis,Antiesenhofen,48.3448,13.3995
4981,Reichersberg,Oberösterreich,Politischer Bezirk Ried im Innkreis,Reichersberg,48.3338,13.3604
4982,Obernberg am Inn,Oberösterreich,Politischer Bezirk Ried im Innkreis,Obernberg am Inn,48.3213,13.3343
4983,St.Georgen b. Obernberg/Inn,Oberösterreich,Politischer Bezirk Ried im Innkreis,Sankt Georgen bei Obernberg am Inn,48.2908,13.3282
4984,Weilbach,Oberösterreich,Politischer Bezirk Ried im Innkreis,Weilbach,48.2774,13.3724
5020,Salzburg,Salzburg,Salzburg Stadt,Salzburg,47.7994,13.044
5023,Salzburg,Salzburg,Salzburg Stadt,Salzburg,47.7994,13.044
5026,Salzburg,Salzburg,Salzburg Stadt,Salzburg,47.7994,13.044
5061,Salzburg,Salzburg,Salzburg Stadt,Salzburg,47.7994,13.044
5071,Salzburg,Salzburg,Salzburg Stadt,Salzburg,47.7994,13.044
5081,Salzburg,Salzburg,Salzburg Stadt,Salzburg,47.7994,13.044
5082,Salzburg,Salzburg,Salzburg Stadt,Salzburg,47.7994,13.044
5083,Hallein,Salzburg,Politischer Bezirk Hallein,Hallein,47.6833,13.1
5084,Großgmain,Salzburg,Politischer Bezirk Salzburg Umgebung,Großgmain,47.7167,12.9167
5090,Lofer,Salzburg,Politischer Bezirk Zell am See,Lofer,47.5863,12.6932
5091,Unken,Salzburg,Politischer Bezirk Zell am See,Unken,47.65,12.7167
5092,Sankt Martin bei Lofer,Salzburg,Politischer Bezirk Zell am See,Sankt Martin bei Lofer,47.5667,12.7
5093,Weißbach bei Lofer,Salzburg,Politischer Bezirk Zell am See,Weißbach bei Lofer,47.5167,12.7542
5101,Bergheim,Salzburg,Politischer Bezirk Salzburg Umgebung,Bergheim,47.8526,13.0325
5102,Anthering,Salzburg,Politischer Bezirk Salzburg Umgebung,Anthering,47.8833,13.0167
5110,Lamprechtshausen,Salzburg,Politischer Bezirk Salzburg Umgebung,Lamprechtshausen,47.9833,12.95
5111,Bürmoos,Salzburg,Politischer Bezirk Salzburg Umgebung,Bürmoos,47.9834,12.9179
5112,Lamprechtshausen,Salzburg,Politischer Bezirk Salzburg Umgebung,Lamprechtshausen,47.9833,12.95
5113,Sankt Georgen bei Salzburg,Salzburg,Politischer Bezirk Salzburg Umgebung,Sankt Georgen bei Salzburg,47.9908,12.885
5114,Göming,Salzburg,Politischer Bezirk Salzburg Umgebung,Göming,47.9511,12.955
5120,Ostermiething,Oberösterreich,Politischer Bezirk Braunau am Inn,Ostermiething,48.0464,12.8294
5121,Haigermoos,Oberösterreich,Politischer Bezirk Braunau am Inn,Haigermoos,48.045,12.8818
5122,Überackern,Oberösterreich,Politischer Bezirk Braunau am Inn,Überackern,48.1929,12.8743
5131,Franking,Oberösterreich,Politischer Bezirk Braunau am Inn,Franking,48.0522,12.9117
5132,Geretsberg,Oberösterreich,Politischer Bezirk Braunau am Inn,Geretsberg,48.0893,12.934
5133,Geretsberg,Oberösterreich,Politischer Bezirk Braunau am Inn,Geretsberg,48.0893,12.934
5134,Handenberg,Oberösterreich,Politischer Bezirk Braunau am Inn,Handenberg,48.1336,13.0075
5141,Mühlbach,Oberösterreich,Politischer Bezirk Braunau am Inn,Moosdorf,48.0458,12.9885
5142,Feldkirchen bei Mattighofen,Oberösterreich,Politischer Bezirk Braunau am Inn,Feldkirchen bei Mattighofen,48.0678,13.0448
5143,Feldkirchen bei Mattighofen,Oberösterreich,Politischer Bezirk Braunau am Inn,Feldkirchen bei Mattighofen,48.0678,13.0448
5144,Handenberg,Oberösterreich,Politischer Bezirk Braunau am Inn,Handenberg,48.1336,13.0075
5145,Neukirchen an der Enknach,Oberösterreich,Politischer Bezirk Braunau am Inn,Neukirchen an der Enknach,48.1783,13.0501
5151,Nußdorf am Haunsberg,Salzburg,Politischer Bezirk Salzburg Umgebung,Nußdorf am Haunsberg,47.9594,13.0092
5152,Dorfbeuern,Salzburg,Politischer Bezirk Salzburg Umgebung,Dorfbeuern,48.0167,13.0167
5161,Elixhausen,Salzburg,Politischer Bezirk Salzburg Umgebung,Elixhausen,47.8667,13.0667
5162,Seekirchen am Wallersee,Salzburg,Politischer Bezirk Salzburg Umgebung,Seekirchen am Wallersee,47.9,13.1333
5163,Palting,Oberösterreich,Politischer Bezirk Braunau am Inn,Palting,48.0154,13.1271
5164,Seeham,Salzburg,Politischer Bezirk Salzburg Umgebung,Seeham,47.9667,13.0833
5165,Nußdorf am Haunsberg,Salzburg,Politischer Bezirk Salzburg Umgebung,Nußdorf am Haunsberg,47.9594,13.0092
5166,Perwang am Grabensee,Oberösterreich,Politischer Bezirk Braunau am Inn,Perwang am Grabensee,48.0069,13.083
5201,Seekirchen am Wallersee,Salzburg,Politischer Bezirk Salzburg Umgebung,Seekirchen am Wallersee,47.9,13.1333
5202,Oberhofen am Irrsee,Oberösterreich,Politischer Bezirk Vöcklabruck,Oberhofen am Irrsee,47.95,13.3
5203,Seekirchen am Wallersee,Salzburg,Politischer Bezirk Salzburg Umgebung,Seekirchen am Wallersee,47.9,13.1333
5204,Weißenkirchen im Attergau,Oberösterreich,Politischer Bezirk Vöcklabruck,Weißenkirchen im Attergau,47.9333,13.3833
5205,Schleedorf,Salzburg,Politischer Bezirk Salzburg Umgebung,Schleedorf,47.95,13.15
5211,Lengau,Oberösterreich,Politischer Bezirk Braunau am Inn,Lengau,48.0059,13.2159
5212,Lengau,Oberösterreich,Politischer Bezirk Braunau am Inn,Lengau,48.0059,13.2159
5221,Lochen,Oberösterreich,Politischer Bezirk Braunau am Inn,Lochen,48.008,13.1798
5222,Munderfing,Oberösterreich,Politischer Bezirk Braunau am Inn,Munderfing,48.0704,13.1816
5223,Pfaffstätt,Oberösterreich,Politischer Bezirk Braunau am Inn,Pfaffstätt,48.0768,13.1439
5224,Auerbach,Oberösterreich,Politischer Bezirk Braunau am Inn,Auerbach,48.0642,13.1087
5225,Jeging,Oberösterreich,Politischer Bezirk Braunau am Inn,Jeging,48.0483,13.1481
5230,Mattighofen,Oberösterreich,Politischer Bezirk Braunau am Inn,Mattighofen,48.1073,13.1508
5231,Schalchen,Oberösterreich,Politischer Bezirk Braunau am Inn,Schalchen,48.205,13.217
5232,Kirchberg bei Mattighofen,Oberösterreich,Politischer Bezirk Braunau am Inn,Kirchberg bei Mattighofen,48.0389,13.1152
5233,Pischelsdorf am Engelbach,Oberösterreich,Politischer Bezirk Braunau am Inn,Pischelsdorf am Engelbach,48.1299,13.0837
5241,Maria Schmolln,Oberösterreich,Politischer Bezirk Braunau am Inn,Maria Schmolln,48.1382,13.2198
5242,Maria Schmolln,Oberösterreich,Politischer Bezirk Braunau am Inn,Maria Schmolln,48.1382,13.2198
5251,Höhnhart,Oberösterreich,Politischer Bezirk Braunau am Inn,Höhnhart,48.1659,13.2675
5252,Aspach,Oberösterreich,Politischer Bezirk Braunau am Inn,Aspach,48.1857,13.3044
5261,Helpfau-Uttendorf,Oberösterreich,Politischer Bezirk Braunau am Inn,Helpfau-Uttendorf,48.1551,13.1176
5270,Moosbach,Oberösterreich,Politischer Bezirk Braunau am Inn,Moosbach,48.2081,13.1642
5271,Moosbach,Oberösterreich,Politischer Bezirk Braunau am Inn,Moosbach,48.2081,13.1642
5272,Moosbach,Oberösterreich,Politischer Bezirk Braunau am Inn,Moosbach,48.2081,13.1642
5273,Roßbach,Oberösterreich,Politischer Bezirk Braunau am Inn,Roßbach,48.2007,13.2544
5274,Burgkirchen,Oberösterreich,Politischer Bezirk Braunau am Inn,Burgkirchen,48.2044,13.0999
5280,Sankt Peter am Hart,Oberösterreich,Politischer Bezirk Braunau am Inn,Sankt Peter am Hart,48.2527,13.0961
5282,Burgkirchen,Oberösterreich,Politischer Bezirk Braunau am Inn,Burgkirchen,48.2044,13.0999
5300,Hallwang,Salzburg,Politischer Bezirk Salzburg Umgebung,Hallwang,47.85,13.0833
5301,Eugendorf,Salzburg,Politischer Bezirk Salzburg Umgebung,Eugendorf,47.8667,13.1167
5302,Eugendorf,Salzburg,Politischer Bezirk Salzburg Umgebung,Eugendorf,47.8667,13.1167
5303,Thalgau,Salzburg,Politischer Bezirk Salzburg Umgebung,Thalgau,47.8333,13.25
5310,Tiefgraben,Oberösterreich,Politischer Bezirk Vöcklabruck,Tiefgraben,47.8833,13.35
5311,Mondsee,Oberösterreich,Politischer Bezirk Vöcklabruck,Mondsee,47.8565,13.3491
5321,Koppl,Salzburg,Politischer Bezirk Salzburg Umgebung,Koppl,47.8081,13.1556
5322,Hof bei Salzburg,Salzburg,Politischer Bezirk Salzburg Umgebung,Hof bei Salzburg,47.8193,13.2149
5323,Adnet,Salzburg,Politischer Bezirk Hallein,Adnet,47.6833,13.1333
5324,Hintersee,Salzburg,Politischer Bezirk Salzburg Umgebung,Hintersee,47.7,13.2833
5325,Plainfeld,Salzburg,Politischer Bezirk Salzburg Umgebung,Plainfeld,47.8333,13.1833
5330,Fuschl am See,Salzburg,Politischer Bezirk Salzburg Umgebung,Fuschl am See,47.8,13.3
5340,Sankt Gilgen,Salzburg,Politischer Bezirk Salzburg Umgebung,Sankt Gilgen,47.7667,13.3667
5342,Sankt Gilgen,Salzburg,Politischer Bezirk Salzburg Umgebung,Sankt Gilgen,47.7667,13.3667
5350,Strobl,Salzburg,Politischer Bezirk Salzburg Umgebung,Strobl,47.7167,13.4833
5351,Bad Ischl,Oberösterreich,Politischer Bezirk Gmunden,Bad Ischl,47.7111,13.6189
5360,St.Wolfgang i.Salzkammergut,Oberösterreich,Politischer Bezirk Gmunden,St. Wolfgang im Salzkammergut,47.7398,13.4459
5400,Oberalm,Salzburg,Politischer Bezirk Hallein,Oberalm,47.7,13.1
5411,Oberalm,Salzburg,Politischer Bezirk Hallein,Oberalm,47.7,13.1
5412,Hallein,Salzburg,Politischer Bezirk Hallein,Hallein,47.6833,13.1
5421,Krispl,Salzburg,Politischer Bezirk Hallein,Krispl,47.7167,13.1833
5422,Hallein,Salzburg,Politischer Bezirk Hallein,Hallein,47.6833,13.1
5423,Sankt Koloman,Salzburg,Politischer Bezirk Hallein,Sankt Koloman,47.6333,13.2
5424,Bad Vigaun,Salzburg,Politischer Bezirk Hallein,Bad Vigaun,47.6703,13.177
5431,Kuchl,Salzburg,Politischer Bezirk Hallein,Kuchl,47.6265,13.1448
5440,Scheffau am Tennengebirge,Salzburg,Politischer Bezirk Hallein,Scheffau am Tennengebirge,47.5883,13.2202
5441,Abtenau,Salzburg,Politischer Bezirk Hallein,Abtenau,47.5637,13.346
5442,Abtenau,Salzburg,Politischer Bezirk Hallein,Abtenau,47.5637,13.346
5450,Werfen,Salzburg,Politischer Bezirk Sankt Johann im Pongau,Werfen,47.4667,13.1833
5451,Werfen,Salzburg,Politischer Bezirk Sankt Johann im Pongau,Werfen,47.4667,13.1833
5452,Werfen,Salzburg,Politischer Bezirk Sankt Johann im Pongau,Werfen,47.4667,13.1833
5453,Werfenweng,Salzburg,Politischer Bezirk Sankt Johann im Pongau,Werfenweng,47.4667,13.25
5500,Pfarrwerfen,Salzburg,Politischer Bezirk Sankt Johann im Pongau,Pfarrwerfen,47.4573,13.2053
5505,Mühlbach am Hochkönig,Salzburg,Politischer Bezirk Sankt Johann im Pongau,Mühlbach am Hochkönig,47.3667,13.1333
5511,Hüttau,Salzburg,Politischer Bezirk Sankt Johann im Pongau,Hüttau,47.4167,13.3
5521,Hüttau,Salzburg,Politischer Bezirk Sankt Johann im Pongau,Hüttau,47.4167,13.3
5522,St.Martin am Tennengebirge,Salzburg,Politischer Bezirk Sankt Johann im Pongau,Sankt Martin am Tennengebirge,47.5145,13.4316
5523,Annaberg-Lungötz,Salzburg,Politischer Bezirk Hallein,Annaberg-Lungötz,47.5028,13.4453
5524,Annaberg-Lungötz,Salzburg,Politischer Bezirk Hallein,Annaberg-Lungötz,47.5028,13.4453
5531,Eben im Pongau,Salzburg,Politischer Bezirk Sankt Johann im Pongau,Eben im Pongau,47.4,13.4
5532,Filzmoos,Salzburg,Politischer Bezirk Sankt Johann im Pongau,Filzmoos,47.4333,13.5167
5541,Flachau,Salzburg,Politischer Bezirk Sankt Johann im Pongau,Flachau,47.292,13.3991
5542,Flachau,Salzburg,Politischer Bezirk Sankt Johann im Pongau,Flachau,47.292,13.3991
5550,Radstadt,Salzburg,Politischer Bezirk Sankt Johann im Pongau,Radstadt,47.3833,13.45
5552,Forstau,Salzburg,Politischer Bezirk Sankt Johann im Pongau,Forstau,47.3296,13.5668
5561,Untertauern,Salzburg,Politischer Bezirk Sankt Johann im Pongau,Untertauern,47.3,13.5
5562,Obertauern,Salzburg,Politischer Bezirk Tamsweg,Tweng,47.2496,13.5577
5563,Tweng,Salzburg,Politischer Bezirk Tamsweg,Tweng,47.1833,13.6
5570,Mauterndorf,Salzburg,Politischer Bezirk Tamsweg,Mauterndorf,47.1359,13.6731
5571,Mariapfarr,Salzburg,Politischer Bezirk Tamsweg,Mariapfarr,47.15,13.75
5572,Sankt Andrä im Lungau,Salzburg,Politischer Bezirk Tamsweg,Sankt Andrä im Lungau,47.15,13.7833
5573,Weißpriach,Salzburg,Politischer Bezirk Tamsweg,Weißpriach,47.2253,13.6527
5574,Göriach,Salzburg,Politischer Bezirk Tamsweg,Göriach,47.1667,13.7667
5580,Lessach,Salzburg,Politischer Bezirk Tamsweg,Lessach,47.1833,13.8167
5581,Sankt Margarethen im Lungau,Salzburg,Politischer Bezirk Tamsweg,Sankt Margarethen im Lungau,47.0833,13.6833
5582,Sankt Margarethen im Lungau,Salzburg,Politischer Bezirk Tamsweg,Sankt Margarethen im Lungau,47.0833,13.6833
5583,Muhr,Salzburg,Politischer Bezirk Tamsweg,Muhr,47.1167,13.5
5584,Zederhaus,Salzburg,Politischer Bezirk Tamsweg,Zederhaus,47.15,13.5
5585,Unternberg,Salzburg,Politischer Bezirk Tamsweg,Unternberg,47.1022,13.7446
5591,Ramingstein,Salzburg,Politischer Bezirk Tamsweg,Ramingstein,47.0667,13.8333
5592,Thomatal,Salzburg,Politischer Bezirk Tamsweg,Thomatal,47.0667,13.75
5600,Sankt Johann im Pongau,Salzburg,Politischer Bezirk Sankt Johann im Pongau,Sankt Johann im Pongau,47.35,13.2
5602,Sankt Johann im Pongau,Salzburg,Politischer Bezirk Sankt Johann im Pongau,Sankt Johann im Pongau,47.35,13.2
5603,Kleinarl,Salzburg,Politischer Bezirk Sankt Johann im Pongau,Kleinarl,47.2772,13.3195
5611,Großarl,Salzburg,Politischer Bezirk Sankt Johann im Pongau,Großarl,47.2333,13.2
5612,Hüttschlag,Salzburg,Politischer Bezirk Sankt Johann im Pongau,Hüttschlag,47.1667,13.2333
5620,Schwarzach im Pongau,Salzburg,Politischer Bezirk Sankt Johann im Pongau,Schwarzach im Pongau,47.3167,13.15
5621,Sankt Veit im Pongau,Salzburg,Politischer Bezirk Sankt Johann im Pongau,Sankt Veit im Pongau,47.3333,13.15
5622,Goldegg,Salzburg,Politischer Bezirk Sankt Johann im Pongau,Goldegg,47.3233,13.0744
5630,Bad Hofgastein,Salzburg,Politischer Bezirk Sankt Johann im Pongau,Bad Hofgastein,47.1667,13.1
5632,Dorfgastein,Salzburg,Politischer Bezirk Sankt Johann im Pongau,Dorfgastein,47.25,13.1
5640,Bad Gastein,Salzburg,Politischer Bezirk Sankt Johann im Pongau,Bad Gastein,47.1155,13.1347
5645,Bad Gastein,Salzburg,Politischer Bezirk Sankt Johann im Pongau,Bad Gastein,47.1155,13.1347
5651,Goldegg,Salzburg,Politischer Bezirk Sankt Johann im Pongau,Goldegg,47.3233,13.0744
5652,Dienten am Hochkönig,Salzburg,Politischer Bezirk Zell am See,Dienten am Hochkönig,47.3667,13
5660,Lend,Salzburg,Politischer Bezirk Zell am See,Lend,47.2986,13.0518
5661,Rauris,Salzburg,Politischer Bezirk Zell am See,Rauris,47.2266,12.9946
5662,Taxenbach,Salzburg,Politischer Bezirk Zell am See,Taxenbach,47.2833,12.9667
5671,Bruck a.d. Großglocknerstr.,Salzburg,Politischer Bezirk Zell am See,Bruck an der Großglocknerstraße,47.2849,12.8602
5672,Fusch a.d. Großglocknerstr.,Salzburg,Politischer Bezirk Zell am See,Fusch an der Großglocknerstraße,47.2333,12.8167
5700,Zell am See,Salzburg,Politischer Bezirk Zell am See,Zell am See,47.3256,12.7944
5710,Kaprun,Salzburg,Politischer Bezirk Zell am See,Kaprun,47.2724,12.7598
5721,Walchen,Salzburg,Politischer Bezirk Zell am See,Piesendorf,47.2833,12.6833
5722,Niedernsill,Salzburg,Politischer Bezirk Zell am See,Niedernsill,47.2833,12.65
5723,Uttendorf,Salzburg,Politischer Bezirk Zell am See,Uttendorf,47.2117,12.6012
5724,Stuhlfelden,Salzburg,Politischer Bezirk Zell am See,Stuhlfelden,47.2833,12.5167
5730,Mittersill,Salzburg,Politischer Bezirk Zell am See,Mittersill,47.2667,12.4833
5731,Mittersill,Salzburg,Politischer Bezirk Zell am See,Mittersill,47.2667,12.4833
5732,Hollersbach im Pinzgau,Salzburg,Politischer Bezirk Zell am See,Hollersbach im Pinzgau,47.2667,12.4167
5733,Bramberg am Wildkogel,Salzburg,Politischer Bezirk Zell am See,Bramberg am Wildkogel,47.2667,12.35
5741,Bramberg am Wildkogel,Salzburg,Politischer Bezirk Zell am See,Bramberg am Wildkogel,47.2667,12.35
5742,Wald im Pinzgau,Salzburg,Politischer Bezirk Zell am See,Wald im Pinzgau,47.25,12.2333
5743,Krimml,Salzburg,Politischer Bezirk Zell am See,Krimml,47.2167,12.1833
5751,Maishofen,Salzburg,Politischer Bezirk Zell am See,Maishofen,47.3667,12.8
5752,Viehhofen,Salzburg,Politischer Bezirk Zell am See,Viehhofen,47.3667,12.7333
5753,Saalbach-Hinterglemm,Salzburg,Politischer Bezirk Zell am See,Saalbach-Hinterglemm,47.3914,12.6364
5754,Saalbach-Hinterglemm,Salzburg,Politischer Bezirk Zell am See,Saalbach-Hinterglemm,47.3768,12.5958
5760,Saalfelden,Salzburg,Politischer Bezirk Zell am See,Saalfelden am Steinernen Meer,47.4268,12.848
5761,Maria Alm a.Steinernen Meer,Salzburg,Politischer Bezirk Zell am See,Maria Alm am Steinernen Meer,47.4126,12.9479
5771,Leogang,Salzburg,Politischer Bezirk Zell am See,Leogang,47.4391,12.7611
6020,Innsbruck,Tirol,Innsbruck Stadt,Innsbruck,47.2627,11.3945
6060,Hall in Tirol,Tirol,Politischer Bezirk Innsbruck,Hall in Tirol,47.2833,11.5167
6063,Rum,Tirol,Politischer Bezirk Innsbruck,Rum,47.2833,11.45
6065,Thaur,Tirol,Politischer Bezirk Innsbruck,Thaur,47.3,11.4667
6067,Hall in Tirol,Tirol,Politischer Bezirk Innsbruck,Hall in Tirol,47.2833,11.5167
6068,Mils,Tirol,Politischer Bezirk Innsbruck,Mils,47.2833,11.5333
6069,Gnadenwald,Tirol,Politischer Bezirk Innsbruck,Gnadenwald,47.3167,11.5667
6070,Ampass,Tirol,Politischer Bezirk Innsbruck,Ampass,47.2667,11.45
6071,Aldrans,Tirol,Politischer Bezirk Innsbruck,Aldrans,47.25,11.45
6072,Lans,Tirol,Politischer Bezirk Innsbruck,Lans,47.2333,11.45
6073,Aldrans,Tirol,Politischer Bezirk Innsbruck,Aldrans,47.25,11.45
6074,Aldrans,Tirol,Politischer Bezirk Innsbruck,Aldrans,47.25,11.45
6075,Tulfes,Tirol,Politischer Bezirk Innsbruck,Tulfes,47.25,11.5333
6080,Innsbruck,Tirol,Innsbruck Stadt,Innsbruck,47.2627,11.3945
6082,Patsch,Tirol,Politischer Bezirk Innsbruck,Patsch,47.2,11.4167
6083,Ellbögen,Tirol,Politischer Bezirk Innsbruck,Ellbögen,47.1667,11.45
6091,Natters,Tirol,Politischer Bezirk Innsbruck,Natters,47.2341,11.3734
6092,Birgitz,Tirol,Politischer Bezirk Innsbruck,Birgitz,47.2354,11.2992
6094,Axams,Tirol,Politischer Bezirk Innsbruck,Axams,47.2311,11.2789
6095,Grinzens,Tirol,Politischer Bezirk Innsbruck,Grinzens,47.2265,11.3131
6100,Leutasch,Tirol,Politischer Bezirk Innsbruck,Leutasch,47.3689,11.144
6103,Reith bei Seefeld,Tirol,Politischer Bezirk Innsbruck,Reith bei Seefeld,47.3,11.2
6105,Leutasch,Tirol,Politischer Bezirk Innsbruck,Leutasch,47.3689,11.144
6108,Scharnitz,Tirol,Politischer Bezirk Innsbruck,Scharnitz,47.389,11.2645
6111,Volders,Tirol,Politischer Bezirk Innsbruck,Volders,47.2833,11.5667
6112,Wattens,Tirol,Politischer Bezirk Innsbruck,Wattens,47.2833,11.6
6113,Wattenberg,Tirol,Politischer Bezirk Innsbruck,Wattenberg,47.2833,11.6
6114,Kolsass,Tirol,Politischer Bezirk Innsbruck,Kolsass,47.2833,11.6333
6115,Kolsassberg,Tirol,Politischer Bezirk Innsbruck,Kolsassberg,47.3,11.6333
6121,Baumkirchen,Tirol,Politischer Bezirk Innsbruck,Baumkirchen,47.3,11.5667
6122,Fritzens,Tirol,Politischer Bezirk Innsbruck,Fritzens,47.3,11.5833
6123,Terfens,Tirol,Politischer Bezirk Schwaz,Terfens,47.3167,11.65
6130,Schwaz,Tirol,Politischer Bezirk Schwaz,Schwaz,47.3517,11.7101
6133,Weerberg,Tirol,Politischer Bezirk Schwaz,Weerberg,47.3431,11.6895
6134,Vomp,Tirol,Politischer Bezirk Schwaz,Vomp,47.3333,11.6833
6135,Stans,Tirol,Politischer Bezirk Schwaz,Stans,47.3667,11.7167
6136,Pill,Tirol,Politischer Bezirk Schwaz,Pill,47.3167,11.6833
6141,Schönberg im Stubaital,Tirol,Politischer Bezirk Innsbruck,Schönberg im Stubaital,47.1833,11.4167
6142,Mieders,Tirol,Politischer Bezirk Innsbruck,Mieders,47.1667,11.3833
6143,Mühlbachl,Tirol,Politischer Bezirk Innsbruck,Mühlbachl,47.1333,11.45
6145,Navis,Tirol,Politischer Bezirk Innsbruck,Navis,47.1167,11.5333
6150,Trins,Tirol,Politischer Bezirk Innsbruck,Trins,47.0833,11.4167
6152,Trins,Tirol,Politischer Bezirk Innsbruck,Trins,47.0833,11.4167
6154,Vals,Tirol,Politischer Bezirk Innsbruck,Vals,47.0833,11.5611
6156,Gries am Brenner,Tirol,Politischer Bezirk Innsbruck,Gries am Brenner,47.05,11.4833
6157,Obernberg am Brenner,Tirol,Politischer Bezirk Innsbruck,Obernberg am Brenner,47.0167,11.4167
6161,Natters,Tirol,Politischer Bezirk Innsbruck,Natters,47.2341,11.3734
6162,Mutters,Tirol,Politischer Bezirk Innsbruck,Mutters,47.2333,11.3833
6165,Telfes im Stubai,Tirol,Politischer Bezirk Innsbruck,Telfes im Stubai,47.1667,11.3667
6166,Fulpmes,Tirol,Politischer Bezirk Innsbruck,Fulpmes,47.1667,11.35
6167,Neustift im Stubaital,Tirol,Politischer Bezirk Innsbruck,Neustift im Stubaital,47.1167,11.3167
6170,Zirl,Tirol,Politischer Bezirk Innsbruck,Zirl,47.2833,11.2333
6173,Oberperfuss,Tirol,Politischer Bezirk Innsbruck,Oberperfuss,47.2333,11.25
6175,Kematen in Tirol,Tirol,Politischer Bezirk Innsbruck,Kematen in Tirol,47.25,11.2667
6176,Völs,Tirol,Politischer Bezirk Innsbruck,Völs,47.25,11.3333
6178,Unterperfuss,Tirol,Politischer Bezirk Innsbruck,Unterperfuss,47.2667,11.25
6179,Ranggen,Tirol,Politischer Bezirk Innsbruck,Ranggen,47.2667,11.2
6181,Sellrain,Tirol,Politischer Bezirk Innsbruck,Sellrain,47.2167,11.2167
6182,Stams,Tirol,Politischer Bezirk Imst,Stams,47.2667,10.9833
6183,Silz,Tirol,Politischer Bezirk Imst,Silz,47.2667,10.9333
6184,St. Sigmund im Sellrain,Tirol,Politischer Bezirk Innsbruck,St. Sigmund im Sellrain,47.2,11.1
6200,Stans,Tirol,Politischer Bezirk Schwaz,Stans,47.3667,11.7167
6210,Wiesing,Tirol,Politischer Bezirk Schwaz,Wiesing,47.4112,11.7922
6212,Eben am Achensee,Tirol,Politischer Bezirk Schwaz,Eben am Achensee,47.4138,11.7614
6213,Eben am Achensee,Tirol,Politischer Bezirk Schwaz,Eben am Achensee,47.4138,11.7614
6215,Steinberg am Rofan,Tirol,Politischer Bezirk Schwaz,Steinberg am Rofan,47.4351,11.6542
6220,Buch in Tirol,Tirol,Politischer Bezirk Schwaz,Buch in Tirol,47.3667,11.75
6222,Gallzein,Tirol,Politischer Bezirk Schwaz,Gallzein,47.3667,11.7667
6230,Brixlegg,Tirol,Politischer Bezirk Kufstein,Brixlegg,47.4294,11.8779
6232,Münster,Tirol,Politischer Bezirk Kufstein,Münster,47.4216,11.8336
6233,Kramsach,Tirol,Politischer Bezirk Kufstein,Kramsach,47.45,11.8667
6234,Brandenberg,Tirol,Politischer Bezirk Kufstein,Brandenberg,47.4905,11.8946
6235,Reith im Alpbachtal,Tirol,Politischer Bezirk Kufstein,Reith im Alpbachtal,47.4169,11.8779
6236,Alpbach,Tirol,Politischer Bezirk Kufstein,Alpbach,47.3988,11.9437
6240,Rattenberg,Tirol,Politischer Bezirk Kufstein,Rattenberg,47.4333,11.9
6241,Radfeld,Tirol,Politischer Bezirk Kufstein,Radfeld,47.45,11.9167
6250,Kundl,Tirol,Politischer Bezirk Kufstein,Kundl,47.4667,11.9833
6252,Breitenbach am Inn,Tirol,Politischer Bezirk Kufstein,Breitenbach am Inn,47.4833,11.9667
6260,Bruck am Ziller,Tirol,Politischer Bezirk Schwaz,Bruck am Ziller,47.39,11.8512
6261,Strass im Zillertal,Tirol,Politischer Bezirk Schwaz,Strass im Zillertal,47.3956,11.8197
6262,Schlitters,Tirol,Politischer Bezirk Schwaz,Schlitters,47.3667,11.8333
6263,Fügenberg,Tirol,Politischer Bezirk Schwaz,Fügenberg,47.35,11.8333
6264,Fügenberg,Tirol,Politischer Bezirk Schwaz,Fügenberg,47.35,11.8333
6265,Hart im Zillertal,Tirol,Politischer Bezirk Schwaz,Hart im Zillertal,47.3523,11.872
6271,Uderns,Tirol,Politischer Bezirk Schwaz,Uderns,47.3167,11.8667
6272,Emberg,Tirol,Politischer Bezirk Schwaz,Kaltenbach,47.2833,11.8833
6274,Aschau im Zillertal,Tirol,Politischer Bezirk Schwaz,Aschau im Zillertal,47.2618,11.8847
6275,Stumm,Tirol,Politischer Bezirk Schwaz,Stumm,47.2833,11.8833
6276,Stummerberg,Tirol,Politischer Bezirk Schwaz,Stummerberg,47.2833,11.9167
6277,Zellberg,Tirol,Politischer Bezirk Schwaz,Zellberg,47.2333,11.85
6278,Hainzenberg,Tirol,Politischer Bezirk Schwaz,Hainzenberg,47.2179,11.9003
6280,Rohrberg,Tirol,Politischer Bezirk Schwaz,Rohrberg,47.225,11.9083
6281,Gerlos,Tirol,Politischer Bezirk Schwaz,Gerlos,47.2167,12
6283,Schwendau,Tirol,Politischer Bezirk Schwaz,Schwendau,47.1975,11.859
6284,Ramsau im Zillertal,Tirol,Politischer Bezirk Schwaz,Ramsau im Zillertal,47.2038,11.8754
6290,Finkenberg,Tirol,Politischer Bezirk Schwaz,Finkenberg,47.15,11.8333
6292,Schwendau,Tirol,Politischer Bezirk Schwaz,Schwendau,47.1975,11.859
6293,Tux,Tirol,Politischer Bezirk Schwaz,Tux,47.15,11.8333
6294,Tux,Tirol,Politischer Bezirk Schwaz,Tux,47.1587,11.8446
6295,Mayrhofen,Tirol,Politischer Bezirk Schwaz,Mayrhofen,47.1667,11.8667
6300,Wörgl,Tirol,Politischer Bezirk Kufstein,Wörgl,47.4833,12.0667
6305,Itter,Tirol,Politischer Bezirk Kitzbühel,Itter,47.4667,12.1333
6306,Söll,Tirol,Politischer Bezirk Kufstein,Söll,47.5038,12.1922
6311,Wildschönau,Tirol,Politischer Bezirk Kufstein,Wildschönau,47.4062,12.0378
6313,Wildschönau,Tirol,Politischer Bezirk Kufstein,Wildschönau,47.4062,12.0378
6314,Hopfgarten im Brixental,Tirol,Politischer Bezirk Kitzbühel,Hopfgarten im Brixental,47.45,12.1667
6320,Angerberg,Tirol,Politischer Bezirk Kufstein,Angerberg,47.5083,12.025
6321,Angath,Tirol,Politischer Bezirk Kufstein,Angath,47.5,12.0667
6322,Oberndorf,Tirol,Politischer Bezirk Kufstein,Kirchbichl,47.5093,12.1042
6323,Bad Häring,Tirol,Politischer Bezirk Kufstein,Bad Häring,47.5,12.1167
6324,Mariastein,Tirol,Politischer Bezirk Kufstein,Mariastein,47.5333,12.05
6330,Kufstein,Tirol,Politischer Bezirk Kufstein,Kufstein,47.5833,12.1667
6334,Schwoich,Tirol,Politischer Bezirk Kufstein,Schwoich,47.546,12.1405
6335,Thiersee,Tirol,Politischer Bezirk Kufstein,Thiersee,47.5833,12.0667
6336,Langkampfen,Tirol,Politischer Bezirk Kufstein,Langkampfen,47.5511,12.0933
6341,Ebbs,Tirol,Politischer Bezirk Kufstein,Ebbs,47.6333,12.2167
6342,Rettenschöss,Tirol,Politischer Bezirk Kufstein,Rettenschöss,47.6572,12.2687
6343,Erl,Tirol,Politischer Bezirk Kufstein,Erl,47.6833,12.1833
6344,Kössen,Tirol,Politischer Bezirk Kitzbühel,Kössen,47.6699,12.4055
6345,Kössen,Tirol,Politischer Bezirk Kitzbühel,Kössen,47.6699,12.4055
6346,Niederndorferberg,Tirol,Politischer Bezirk Kufstein,Niederndorferberg,47.6696,12.235
6351,Scheffau am Wilden Kaiser,Tirol,Politischer Bezirk Kufstein,Scheffau am Wilden Kaiser,47.5294,12.2514
6352,Ellmau,Tirol,Politischer Bezirk Kufstein,Ellmau,47.5138,12.2994
6353,Going am Wilden Kaiser,Tirol,Politischer Bezirk Kitzbühel,Going am Wilden Kaiser,47.5292,12.3423
6361,Hopfgarten im Brixental,Tirol,Politischer Bezirk Kitzbühel,Hopfgarten im Brixental,47.45,12.1667
6363,Westendorf,Tirol,Politischer Bezirk Kitzbühel,Westendorf,47.4333,12.2167
6364,Sonnberg,Tirol,Politischer Bezirk Kitzbühel,Brixen im Thale,47.4462,12.2547
6365,Kirchberg in Tirol,Tirol,Politischer Bezirk Kitzbühel,Kirchberg in Tirol,47.4454,12.316
6370,Kitzbühel,Tirol,Politischer Bezirk Kitzbühel,Kitzbühel,47.4464,12.3921
6371,Aurach bei Kitzbühel,Tirol,Politischer Bezirk Kitzbühel,Aurach bei Kitzbühel,47.4283,12.3855
6372,Oberndorf in Tirol,Tirol,Politischer Bezirk Kitzbühel,Oberndorf in Tirol,47.5,12.3833
6373,Jochberg,Tirol,Politischer Bezirk Kitzbühel,Jochberg,47.3,12.4167
6380,St. Johann in Tirol,Tirol,Politischer Bezirk Kitzbühel,St. Johann in Tirol,47.5213,12.4261
6382,Kirchdorf in Tirol,Tirol,Politischer Bezirk Kitzbühel,Kirchdorf in Tirol,47.5667,12.45
6383,Kirchdorf in Tirol,Tirol,Politischer Bezirk Kitzbühel,Kirchdorf in Tirol,47.5667,12.45
6384,Waidring,Tirol,Politischer Bezirk Kitzbühel,Waidring,47.5833,12.5667
6385,Schwendt,Tirol,Politischer Bezirk Kitzbühel,Schwendt,47.6147,12.3917
6391,Fieberbrunn,Tirol,Politischer Bezirk Kitzbühel,Fieberbrunn,47.4833,12.55
6392,St. Jakob in Haus,Tirol,Politischer Bezirk Kitzbühel,St. Jakob in Haus,47.5,12.55
6393,St. Ulrich am Pillersee,Tirol,Politischer Bezirk Kitzbühel,St. Ulrich am Pillersee,47.5333,12.5667
6395,Hochfilzen,Tirol,Politischer Bezirk Kitzbühel,Hochfilzen,47.4667,12.6167
6401,Inzing,Tirol,Politischer Bezirk Innsbruck,Inzing,47.2502,11.1701
6402,Hatting,Tirol,Politischer Bezirk Innsbruck,Hatting,47.2833,11.1667
6403,Flaurling,Tirol,Politischer Bezirk Innsbruck,Flaurling,47.2833,11.1167
6404,Polling in Tirol,Tirol,Politischer Bezirk Innsbruck,Polling in Tirol,47.2833,11.15
6405,Pfaffenhofen,Tirol,Politischer Bezirk Innsbruck,Pfaffenhofen,47.281,11.0768
6406,Oberhofen im Inntal,Tirol,Politischer Bezirk Innsbruck,Oberhofen im Inntal,47.3,11.0833
6408,Pettnau,Tirol,Politischer Bezirk Innsbruck,Pettnau,47.3,11.1333
6410,Telfs,Tirol,Politischer Bezirk Innsbruck,Telfs,47.3,11.0667
6414,Mieming,Tirol,Politischer Bezirk Imst,Mieming,47.3,10.9833
6416,Obsteig,Tirol,Politischer Bezirk Imst,Obsteig,47.3,10.9333
6421,Rietz,Tirol,Politischer Bezirk Imst,Rietz,47.2833,11.05
6422,Stams,Tirol,Politischer Bezirk Imst,Stams,47.2667,10.9833
6423,Mötz,Tirol,Politischer Bezirk Imst,Mötz,47.2833,10.95
6424,Silz,Tirol,Politischer Bezirk Imst,Silz,47.2667,10.9333
6425,Haiming,Tirol,Politischer Bezirk Imst,Haiming,47.25,10.8833
6426,Roppen,Tirol,Politischer Bezirk Imst,Roppen,47.2167,10.8167
6430,Haiming,Tirol,Politischer Bezirk Imst,Haiming,47.25,10.8833
6432,Sautens,Tirol,Politischer Bezirk Imst,Sautens,47.2,10.8667
6433,Haiming,Tirol,Politischer Bezirk Imst,Haiming,47.25,10.8833
6441,Umhausen,Tirol,Politischer Bezirk Imst,Umhausen,47.1333,10.9333
6444,Längenfeld,Tirol,Politischer Bezirk Imst,Längenfeld,47.05,10.9667
6450,Sölden,Tirol,Politischer Bezirk Imst,Sölden,46.9667,11
6452,Sölden,Tirol,Politischer Bezirk Imst,Sölden,46.9667,11
6456,Sölden,Tirol,Politischer Bezirk Imst,Sölden,46.9667,11
6458,Sölden,Tirol,Politischer Bezirk Imst,Sölden,46.9667,11
6460,Imst,Tirol,Politischer Bezirk Imst,Imst,47.245,10.7397
6462,Karres,Tirol,Politischer Bezirk Imst,Karres,47.2167,10.7833
6464,Tarrenz,Tirol,Politischer Bezirk Imst,Tarrenz,47.2667,10.7667
6465,Nassereith,Tirol,Politischer Bezirk Imst,Nassereith,47.3167,10.8333
6471,Arzl im Pitztal,Tirol,Politischer Bezirk Imst,Arzl im Pitztal,47.2,10.7667
6473,Jerzens,Tirol,Politischer Bezirk Imst,Jerzens,47.15,10.7333
6474,Jerzens,Tirol,Politischer Bezirk Imst,Jerzens,47.15,10.7333
6481,St. Leonhard im Pitztal,Tirol,Politischer Bezirk Imst,St. Leonhard im Pitztal,47.0667,10.85
6491,Schönwies,Tirol,Politischer Bezirk Landeck,Schönwies,47.1967,10.6574
6492,Imsterberg,Tirol,Politischer Bezirk Imst,Imsterberg,47.2052,10.696
6493,Mils bei Imst,Tirol,Politischer Bezirk Imst,Mils bei Imst,47.2062,10.6748
6500,Stanz bei Landeck,Tirol,Politischer Bezirk Landeck,Stanz bei Landeck,47.1476,10.5534
6511,Zams,Tirol,Politischer Bezirk Landeck,Zams,47.1584,10.5897
6521,Fließ,Tirol,Politischer Bezirk Landeck,Fließ,47.1167,10.6167
6522,Faggen,Tirol,Politischer Bezirk Landeck,Faggen,47.0833,10.675
6524,Kaunertal,Tirol,Politischer Bezirk Landeck,Kaunertal,47.0833,10.6583
6527,Kaunerberg,Tirol,Politischer Bezirk Landeck,Kaunerberg,47.0833,10.6583
6528,Fendels,Tirol,Politischer Bezirk Landeck,Fendels,47.05,10.6667
6531,Ried im Oberinntal,Tirol,Politischer Bezirk Landeck,Ried im Oberinntal,47.05,10.65
6532,Ladis,Tirol,Politischer Bezirk Landeck,Ladis,47.0667,10.6333
6533,Fiss,Tirol,Politischer Bezirk Landeck,Fiss,47.05,10.6167
6534,Serfaus,Tirol,Politischer Bezirk Landeck,Serfaus,47.0333,10.6
6541,Tösens,Tirol,Politischer Bezirk Landeck,Tösens,47.0333,10.6
6542,Pfunds,Tirol,Politischer Bezirk Landeck,Pfunds,46.9667,10.55
6543,Nauders,Tirol,Politischer Bezirk Landeck,Nauders,46.8833,10.5167
6544,Spiss,Tirol,Politischer Bezirk Landeck,Spiss,46.96,10.5567
6551,Pians,Tirol,Politischer Bezirk Landeck,Pians,47.1349,10.5124
6552,Tobadill,Tirol,Politischer Bezirk Landeck,Tobadill,47.1167,10.5167
6553,See,Tirol,Politischer Bezirk Landeck,See,47.075,10.4083
6555,See,Tirol,Politischer Bezirk Landeck,See,47.107,10.4691
6561,Ischgl,Tirol,Politischer Bezirk Landeck,Ischgl,47.0126,10.2918
6562,Ischgl,Tirol,Politischer Bezirk Landeck,Ischgl,47.0126,10.2918
6563,Galtür,Tirol,Politischer Bezirk Landeck,Galtür,46.9667,10.1833
6571,Strengen,Tirol,Politischer Bezirk Landeck,Strengen,47.1333,10.45
6572,Flirsch,Tirol,Politischer Bezirk Landeck,Flirsch,47.15,10.4
6574,Pettneu am Arlberg,Tirol,Politischer Bezirk Landeck,Pettneu am Arlberg,47.15,10.3833
6580,St. Anton am Arlberg,Tirol,Politischer Bezirk Landeck,St. Anton am Arlberg,47.1275,10.2637
6591,Pians,Tirol,Politischer Bezirk Landeck,Pians,47.1349,10.5124
6600,Ehenbichl,Tirol,Politischer Bezirk Reutte,Ehenbichl,47.4667,10.7
6604,Hornberg,Tirol,Politischer Bezirk Reutte,Höfen,47.469,10.6677
6610,Wängle,Tirol,Politischer Bezirk Reutte,Wängle,47.4167,10.8167
6611,Heiterwang,Tirol,Politischer Bezirk Reutte,Heiterwang,47.45,10.75
6621,Berwang,Tirol,Politischer Bezirk Reutte,Berwang,47.4,10.75
6622,Berwang,Tirol,Politischer Bezirk Reutte,Berwang,47.4,10.75
6623,Namlos,Tirol,Politischer Bezirk Reutte,Namlos,47.35,10.6667
6631,Lermoos,Tirol,Politischer Bezirk Reutte,Lermoos,47.4,10.8833
6632,Ehrwald,Tirol,Politischer Bezirk Reutte,Ehrwald,47.4,10.9167
6633,Biberwier,Tirol,Politischer Bezirk Reutte,Biberwier,47.3833,10.9
6642,Stanzach,Tirol,Politischer Bezirk Reutte,Stanzach,47.3833,10.5667
6644,Elmen,Tirol,Politischer Bezirk Reutte,Elmen,47.3333,10.5333
6645,Vorderhornbach,Tirol,Politischer Bezirk Reutte,Vorderhornbach,47.3667,10.5333
6646,Hinterhornbach,Tirol,Politischer Bezirk Reutte,Hinterhornbach,47.3381,10.5548
6647,Pfafflar,Tirol,Politischer Bezirk Reutte,Pfafflar,47.3,10.5917
6650,Gramais,Tirol,Politischer Bezirk Reutte,Gramais,47.2667,10.5333
6651,Häselgehr,Tirol,Politischer Bezirk Reutte,Häselgehr,47.3167,10.5
6652,Elbigenalp,Tirol,Politischer Bezirk Reutte,Elbigenalp,47.3,10.4333
6653,Elbigenalp,Tirol,Politischer Bezirk Reutte,Elbigenalp,47.3,10.4333
6654,Holzgau,Tirol,Politischer Bezirk Reutte,Holzgau,47.2731,10.3268
6655,Kaisers,Tirol,Politischer Bezirk Reutte,Kaisers,47.1929,10.3233
6670,Forchach,Tirol,Politischer Bezirk Reutte,Forchach,47.4167,10.5833
6671,Ehenbichl,Tirol,Politischer Bezirk Reutte,Ehenbichl,47.4667,10.7
6672,Weißenbach am Lech,Tirol,Politischer Bezirk Reutte,Weißenbach am Lech,47.4333,10.65
6673,Grän,Tirol,Politischer Bezirk Reutte,Grän,47.5,10.55
6675,Tannheim,Tirol,Politischer Bezirk Reutte,Tannheim,47.4833,10.5167
6677,Zöblen,Tirol,Politischer Bezirk Reutte,Zöblen,47.5,10.4833
6682,Vils,Tirol,Politischer Bezirk Reutte,Vils,47.55,10.6333
6691,Jungholz,Tirol,Politischer Bezirk Reutte,Jungholz,47.574,10.4554
6700,Bludenz,Vorarlberg,Politischer Bezirk Bludenz,Bludenz,47.1497,9.8167
6706,Bürs,Vorarlberg,Politischer Bezirk Bludenz,Bürs,47.1497,9.8
6707,Bürserberg,Vorarlberg,Politischer Bezirk Bludenz,Bürserberg,47.1464,9.7774
6708,Brand,Vorarlberg,Politischer Bezirk Bludenz,Brand,47.1099,9.7433
6710,Nenzing,Vorarlberg,Politischer Bezirk Bludenz,Nenzing,47.1844,9.7054
6712,Thüringen,Vorarlberg,Politischer Bezirk Bludenz,Thüringen,47.2,9.7667
6713,Ludesch,Vorarlberg,Politischer Bezirk Bludenz,Ludesch,47.2,9.7831
6714,Nüziders,Vorarlberg,Politischer Bezirk Bludenz,Nüziders,47.1667,9.8
6719,Bludesch,Vorarlberg,Politischer Bezirk Bludenz,Bludesch,47.2,9.7331
6721,Thüringerberg,Vorarlberg,Politischer Bezirk Bludenz,Thüringerberg,47.2167,9.7831
6722,St. Gerold,Vorarlberg,Politischer Bezirk Bludenz,St. Gerold,47.2388,9.8098
6723,Blons,Vorarlberg,Politischer Bezirk Bludenz,Blons,47.2408,9.8463
6731,Sonntag,Vorarlberg,Politischer Bezirk Bludenz,Sonntag,47.2417,9.925
6733,Fontanella,Vorarlberg,Politischer Bezirk Bludenz,Fontanella,47.2667,9.9167
6741,Raggal,Vorarlberg,Politischer Bezirk Bludenz,Raggal,47.2167,9.8331
6751,Bludenz,Vorarlberg,Politischer Bezirk Bludenz,Bludenz,47.1497,9.8167
6752,Dalaas,Vorarlberg,Politischer Bezirk Bludenz,Dalaas,47.1245,9.991
6754,Klösterle,Vorarlberg,Politischer Bezirk Bludenz,Klösterle,47.1224,10.1282
6762,Klösterle,Vorarlberg,Politischer Bezirk Bludenz,Klösterle,47.1224,10.1282
6763,Lech,Vorarlberg,Politischer Bezirk Bludenz,Lech,47.208,10.1418
6764,Lech,Vorarlberg,Politischer Bezirk Bludenz,Lech,47.208,10.1418
6767,Steeg,Tirol,Politischer Bezirk Reutte,Steeg,47.2376,10.2498
6771,St. Anton im Montafon,Vorarlberg,Politischer Bezirk Bludenz,St. Anton im Montafon,47.1167,9.8667
6773,Vandans,Vorarlberg,Politischer Bezirk Bludenz,Vandans,47.1,9.8833
6774,Tschagguns,Vorarlberg,Politischer Bezirk Bludenz,Tschagguns,47.0833,9.9
6780,Schruns,Vorarlberg,Politischer Bezirk Bludenz,Schruns,47.0667,9.9167
6781,Bartholomäberg,Vorarlberg,Politischer Bezirk Bludenz,Bartholomäberg,47.0833,9.9
6787,St. Gallenkirch,Vorarlberg,Politischer Bezirk Bludenz,St. Gallenkirch,47.0167,9.9667
6791,St. Gallenkirch,Vorarlberg,Politischer Bezirk Bludenz,St. Gallenkirch,47.0167,9.9667
6793,Gaschurn,Vorarlberg,Politischer Bezirk Bludenz,Gaschurn,46.9833,10.0333
6794,Gaschurn,Vorarlberg,Politischer Bezirk Bludenz,Gaschurn,46.9833,10.0333
6800,Feldkirch,Vorarlberg,Politischer Bezirk Feldkirch,Feldkirch,47.2331,9.6
6811,Göfis,Vorarlberg,Politischer Bezirk Feldkirch,Göfis,47.2336,9.6346
6812,Meiningen,Vorarlberg,Politischer Bezirk Feldkirch,Meiningen,47.2989,9.5786
6820,Nenzing,Vorarlberg,Politischer Bezirk Bludenz,Nenzing,47.1844,9.7054
6822,Dünserberg,Vorarlberg,Politischer Bezirk Feldkirch,Dünserberg,47.2167,9.7041
6824,Röns,Vorarlberg,Politischer Bezirk Feldkirch,Röns,47.2167,9.7
6830,Laterns,Vorarlberg,Politischer Bezirk Feldkirch,Laterns,47.2667,9.7
6832,Röthis,Vorarlberg,Politischer Bezirk Feldkirch,Röthis,47.2933,9.6548
6833,Klaus,Vorarlberg,Politischer Bezirk Feldkirch,Klaus,47.2997,9.65
6834,Satteins,Vorarlberg,Politischer Bezirk Feldkirch,Satteins,47.2167,9.6667
6835,Zwischenwasser,Vorarlberg,Politischer Bezirk Feldkirch,Zwischenwasser,47.286,9.6682
6836,Viktorsberg,Vorarlberg,Politischer Bezirk Feldkirch,Viktorsberg,47.2997,9.6667
6840,Götzis,Vorarlberg,Politischer Bezirk Feldkirch,Götzis,47.3331,9.6331
6841,Mäder,Vorarlberg,Politischer Bezirk Feldkirch,Mäder,47.35,9.6167
6842,Koblach,Vorarlberg,Politischer Bezirk Feldkirch,Koblach,47.3331,9.6
6844,Altach,Vorarlberg,Politischer Bezirk Feldkirch,Altach,47.35,9.65
6845,Hohenems,Vorarlberg,Politischer Bezirk Dornbirn,Hohenems,47.3667,9.6831
6850,Schwarzenberg,Vorarlberg,Politischer Bezirk Bregenz,Schwarzenberg,47.3833,9.7415
6858,Schwarzach,Vorarlberg,Politischer Bezirk Bregenz,Schwarzach,47.3833,9.7415
6861,Alberschwende,Vorarlberg,Politischer Bezirk Bregenz,Alberschwende,47.45,9.8167
6863,Egg,Vorarlberg,Politischer Bezirk Bregenz,Egg,47.4079,9.9885
6866,Andelsbuch,Vorarlberg,Politischer Bezirk Bregenz,Andelsbuch,47.4037,9.9029
6867,Schwarzenberg,Vorarlberg,Politischer Bezirk Bregenz,Schwarzenberg,47.4167,9.85
6870,Bezau,Vorarlberg,Politischer Bezirk Bregenz,Bezau,47.385,9.9017
6874,Bezau,Vorarlberg,Politischer Bezirk Bregenz,Bezau,47.385,9.9017
6881,Mellau,Vorarlberg,Politischer Bezirk Bregenz,Mellau,47.2933,9.9998
6882,Schnepfau,Vorarlberg,Politischer Bezirk Bregenz,Schnepfau,47.2933,9.9998
6883,Au,Vorarlberg,Politischer Bezirk Bregenz,Au,47.3222,9.9975
6884,Damüls,Vorarlberg,Politischer Bezirk Bregenz,Damüls,47.2803,9.8916
6886,Schoppernau,Vorarlberg,Politischer Bezirk Bregenz,Schoppernau,47.3133,10.0175
6888,Schröcken,Vorarlberg,Politischer Bezirk Bregenz,Schröcken,47.2574,10.0927
6890,Lustenau,Vorarlberg,Politischer Bezirk Dornbirn,Lustenau,47.4264,9.6585
6900,Lochau,Vorarlberg,Politischer Bezirk Bregenz,Lochau,47.5333,9.75
6911,Lochau,Vorarlberg,Politischer Bezirk Bregenz,Lochau,47.5333,9.75
6912,Möggers,Vorarlberg,Politischer Bezirk Bregenz,Möggers,47.5667,9.8167
6914,Hohenweiler,Vorarlberg,Politischer Bezirk Bregenz,Hohenweiler,47.5833,9.7833
6921,Kennelbach,Vorarlberg,Politischer Bezirk Bregenz,Kennelbach,47.4831,9.7667
6922,Wolfurt,Vorarlberg,Politischer Bezirk Bregenz,Wolfurt,47.4667,9.75
6923,Lauterach,Vorarlberg,Politischer Bezirk Bregenz,Lauterach,47.4831,9.7331
6932,Langen bei Bregenz,Vorarlberg,Politischer Bezirk Bregenz,Langen bei Bregenz,47.5165,9.8355
6933,Doren,Vorarlberg,Politischer Bezirk Bregenz,Doren,47.4928,9.8797
6934,Sulzberg,Vorarlberg,Politischer Bezirk Bregenz,Sulzberg,47.5241,9.9143
6941,Langenegg,Vorarlberg,Politischer Bezirk Bregenz,Langenegg,47.4583,9.8917
6942,Hittisau,Vorarlberg,Politischer Bezirk Bregenz,Hittisau,47.4722,9.9167
6943,Riefensberg,Vorarlberg,Politischer Bezirk Bregenz,Riefensberg,47.5,9.9667
6951,Lingenau,Vorarlberg,Politischer Bezirk Bregenz,Lingenau,47.4267,10.0381
6952,Sibratsgfäll,Vorarlberg,Politischer Bezirk Bregenz,Sibratsgfäll,47.4267,10.0381
6960,Buch,Vorarlberg,Politischer Bezirk Bregenz,Buch,47.4831,9.8167
6971,Hard,Vorarlberg,Politischer Bezirk Bregenz,Hard,47.4831,9.6831
6972,Fußach,Vorarlberg,Politischer Bezirk Bregenz,Fußach,47.4793,9.6628
6973,Fußach,Vorarlberg,Politischer Bezirk Bregenz,Fußach,47.4793,9.6628
6974,Gaißau,Vorarlberg,Politischer Bezirk Bregenz,Gaißau,47.4667,9.6
6991,Mittelberg,Vorarlberg,Politischer Bezirk Bregenz,Mittelberg,47.3297,10.1547
6992,Mittelberg,Vorarlberg,Politischer Bezirk Bregenz,Mittelberg,47.3297,10.1547
6993,Mittelberg,Vorarlberg,Politischer Bezirk Bregenz,Mittelberg,47.3297,10.1547
7000,Eisenstadt,Burgenland,Eisenstadt Stadt,Eisenstadt,47.85,16.5167
7011,Zagersdorf,Burgenland,Politischer Bezirk Eisenstadt,Zagersdorf,47.7667,16.5167
7013,Klingenbach,Burgenland,Politischer Bezirk Eisenstadt,Klingenbach,47.75,16.55
7021,Baumgarten,Burgenland,Politischer Bezirk Mattersburg,Baumgarten,47.7325,16.5071
7022,Schattendorf,Burgenland,Politischer Bezirk Mattersburg,Schattendorf,47.7167,16.5
7023,Stöttera,Burgenland,Politischer Bezirk Mattersburg,Zemendorf-Stöttera,47.7667,16.4667
7024,Hirm,Burgenland,Politischer Bezirk Mattersburg,Hirm,47.7904,16.4514
7031,Krensdorf,Burgenland,Politischer Bezirk Mattersburg,Krensdorf,47.7833,16.4167
7032,Sigleß,Burgenland,Politischer Bezirk Mattersburg,Sigleß,47.7753,16.395
7033,Zillingtal,Burgenland,Politischer Bezirk Eisenstadt,Zillingtal,47.8167,16.4
7034,Zillingtal,Burgenland,Politischer Bezirk Eisenstadt,Zillingtal,47.8167,16.4
7035,Steinbrunn,Burgenland,Politischer Bezirk Eisenstadt,Steinbrunn,47.8333,16.4167
7041,Wulkaprodersdorf,Burgenland,Politischer Bezirk Eisenstadt,Wulkaprodersdorf,47.8,16.5
7051,Großhöflein,Burgenland,Politischer Bezirk Eisenstadt,Großhöflein,47.8333,16.4833
7052,Müllendorf,Burgenland,Politischer Bezirk Eisenstadt,Müllendorf,47.8333,16.45
7053,Hornstein,Burgenland,Politischer Bezirk Eisenstadt,Hornstein,47.8667,16.4333
7061,Trausdorf an der Wulka,Burgenland,Politischer Bezirk Eisenstadt,Trausdorf an der Wulka,47.8135,16.5576
7062,St.Margarethen i.Burgenland,Burgenland,Politischer Bezirk Eisenstadt,Sankt Margarethen im Burgenland,47.8034,16.6088
7063,Oggau am Neusiedler See,Burgenland,Politischer Bezirk Eisenstadt,Oggau am Neusiedler See,47.8187,16.6014
7064,Oslip,Burgenland,Politischer Bezirk Eisenstadt,Oslip,47.8291,16.6196
7071,Rust,Burgenland,Rust Stadt,Rust,47.8012,16.6716
7072,Mörbisch am See,Burgenland,Politischer Bezirk Eisenstadt,Mörbisch am See,47.75,16.6667
7081,Schützen am Gebirge,Burgenland,Politischer Bezirk Eisenstadt,Schützen am Gebirge,47.85,16.6167
7082,Donnerskirchen,Burgenland,Politischer Bezirk Eisenstadt,Donnerskirchen,47.8942,16.6463
7083,Purbach am Neusiedler See,Burgenland,Politischer Bezirk Eisenstadt,Purbach am Neusiedler See,47.8721,16.6315
7091,Breitenbrunn,Burgenland,Politischer Bezirk Eisenstadt,Breitenbrunn am Neusiedler See,47.9365,16.7362
7092,Winden am See,Burgenland,Politischer Bezirk Neusiedl am See,Winden am See,47.95,16.75
7093,Jois,Burgenland,Politischer Bezirk Neusiedl am See,Jois,47.9617,16.796
7100,Neusiedl am See,Burgenland,Politischer Bezirk Neusiedl am See,Neusiedl am See,47.949,16.8417
7111,Parndorf,Burgenland,Politischer Bezirk Neusiedl am See,Parndorf,47.9996,16.8605
7121,Weiden am See,Burgenland,Politischer Bezirk Neusiedl am See,Weiden am See,47.9253,16.869
7122,Gols,Burgenland,Politischer Bezirk Neusiedl am See,Gols,47.8969,16.9111
7123,Mönchhof,Burgenland,Politischer Bezirk Neusiedl am See,Mönchhof,47.8802,16.9413
7131,Halbturn,Burgenland,Politischer Bezirk Neusiedl am See,Halbturn,47.8702,16.9754
7132,Frauenkirchen,Burgenland,Politischer Bezirk Neusiedl am See,Frauenkirchen,47.8368,16.9258
7141,Podersdorf am See,Burgenland,Politischer Bezirk Neusiedl am See,Podersdorf am See,47.8541,16.8371
7142,Illmitz,Burgenland,Politischer Bezirk Neusiedl am See,Illmitz,47.7615,16.8002
7143,Apetlon,Burgenland,Politischer Bezirk Neusiedl am See,Apetlon,47.7439,16.8302
7151,Wallern im Burgenland,Burgenland,Politischer Bezirk Neusiedl am See,Wallern im Burgenland,47.7285,16.9371
7152,Pamhagen,Burgenland,Politischer Bezirk Neusiedl am See,Pamhagen,47.7009,16.9078
7161,Sankt Andrä am Zicksee,Burgenland,Politischer Bezirk Neusiedl am See,Sankt Andrä am Zicksee,47.7841,16.9419
7162,Tadten,Burgenland,Politischer Bezirk Neusiedl am See,Tadten,47.7667,16.9833
7163,Andau,Burgenland,Politischer Bezirk Neusiedl am See,Andau,47.7744,17.0329
7201,Neudörfl,Burgenland,Politischer Bezirk Mattersburg,Neudörfl,47.7917,16.2967
7202,Pöttsching,Burgenland,Politischer Bezirk Mattersburg,Pöttsching,47.8,16.3833
7203,Wiesen,Burgenland,Politischer Bezirk Mattersburg,Wiesen,47.744,16.3243
7210,Mattersburg,Burgenland,Politischer Bezirk Mattersburg,Mattersburg,47.7333,16.4
7212,Forchtenstein,Burgenland,Politischer Bezirk Mattersburg,Forchtenstein,47.7116,16.3334
7221,Marz,Burgenland,Politischer Bezirk Mattersburg,Marz,47.6833,16.3917
7222,Rohrbach bei Mattersburg,Burgenland,Politischer Bezirk Mattersburg,Rohrbach bei Mattersburg,47.7167,16.4167
7223,Sieggraben,Burgenland,Politischer Bezirk Mattersburg,Sieggraben,47.65,16.3667
7301,Deutschkreutz,Burgenland,Politischer Bezirk Oberpullendorf,Deutschkreutz,47.6,16.6333
7302,Nikitsch,Burgenland,Politischer Bezirk Oberpullendorf,Nikitsch,47.5333,16.6667
7304,Oberpullendorf,Burgenland,Politischer Bezirk Oberpullendorf,Oberpullendorf,47.5035,16.5045
7311,Neckenmarkt,Burgenland,Politischer Bezirk Oberpullendorf,Neckenmarkt,47.6,16.55
7312,Unterpetersdorf,Burgenland,Politischer Bezirk Oberpullendorf,Horitschon,47.5833,16.5833
7321,Lackendorf,Burgenland,Politischer Bezirk Oberpullendorf,Lackendorf,47.5833,16.5
7322,Lackenbach,Burgenland,Politischer Bezirk Oberpullendorf,Lackenbach,47.5833,16.4667
7323,Ritzing,Burgenland,Politischer Bezirk Oberpullendorf,Ritzing,47.6234,16.4857
7331,Kalkgruben,Burgenland,Politischer Bezirk Oberpullendorf,Weppersdorf,47.6167,16.4
7332,Oberpetersdorf,Burgenland,Politischer Bezirk Oberpullendorf,Kobersdorf,47.6167,16.3833
7341,Markt Sankt Martin,Burgenland,Politischer Bezirk Oberpullendorf,Markt Sankt Martin,47.5667,16.4333
7342,Kaisersdorf,Burgenland,Politischer Bezirk Oberpullendorf,Kaisersdorf,47.5333,16.4
7343,Neutal,Burgenland,Politischer Bezirk Oberpullendorf,Neutal,47.5333,16.4333
7344,Stoob,Burgenland,Politischer Bezirk Oberpullendorf,Stoob,47.5167,16.4667
7350,Oberpullendorf,Burgenland,Politischer Bezirk Oberpullendorf,Oberpullendorf,47.5035,16.5045
7361,Lutzmannsburg,Burgenland,Politischer Bezirk Oberpullendorf,Lutzmannsburg,47.4667,16.6333
7371,Draßmarkt,Burgenland,Politischer Bezirk Oberpullendorf,Draßmarkt,47.5167,16.4
7372,Weingraben,Burgenland,Politischer Bezirk Oberpullendorf,Weingraben,47.5167,16.3667
7373,Piringsdorf,Burgenland,Politischer Bezirk Oberpullendorf,Piringsdorf,47.4333,16.4167
7400,Oberschützen,Burgenland,Politischer Bezirk Oberwart,Oberschützen,47.35,16.2
7411,Loipersdorf-Kitzladen,Burgenland,Politischer Bezirk Oberwart,Loipersdorf-Kitzladen,47.3364,16.0718
7412,Wolfau,Burgenland,Politischer Bezirk Oberwart,Wolfau,47.2523,16.1055
7421,Mönichkirchen,Niederösterreich,Politischer Bezirk Neunkirchen,Mönichkirchen,47.5,16.0333
7422,Riedlingsdorf,Burgenland,Politischer Bezirk Oberwart,Riedlingsdorf,47.35,16.1333
7423,Grafenschachen,Burgenland,Politischer Bezirk Oberwart,Grafenschachen,47.3667,16.0667
7431,Oberschützen,Burgenland,Politischer Bezirk Oberwart,Oberschützen,47.35,16.2
7432,Oberschützen,Burgenland,Politischer Bezirk Oberwart,Oberschützen,47.35,16.2
7433,Mariasdorf,Burgenland,Politischer Bezirk Oberwart,Mariasdorf,47.3667,16.2167
7434,Unterkohlstätten,Burgenland,Politischer Bezirk Oberwart,Unterkohlstätten,47.3833,16.3167
7435,Unterkohlstätten,Burgenland,Politischer Bezirk Oberwart,Unterkohlstätten,47.3833,16.3167
7441,Pilgersdorf,Burgenland,Politischer Bezirk Oberpullendorf,Pilgersdorf,47.4333,16.35
7442,Lockenhaus,Burgenland,Politischer Bezirk Oberpullendorf,Lockenhaus,47.4075,16.4162
7443,Liebing,Burgenland,Politischer Bezirk Oberpullendorf,Mannersdorf an der Rabnitz,47.4167,16.5
7444,Klostermarienberg,Burgenland,Politischer Bezirk Oberpullendorf,Mannersdorf an der Rabnitz,47.4167,16.5667
7451,Oberloisdorf,Burgenland,Politischer Bezirk Oberpullendorf,Oberloisdorf,47.45,16.5
7452,Frankenau-Unterpullendorf,Burgenland,Politischer Bezirk Oberpullendorf,Frankenau-Unterpullendorf,47.4611,16.5611
7453,Steinberg-Dörfl,Burgenland,Politischer Bezirk Oberpullendorf,Steinberg-Dörfl,47.4725,16.4682
7461,Weiden bei Rechnitz,Burgenland,Politischer Bezirk Oberwart,Weiden bei Rechnitz,47.3,16.35
7463,Weiden bei Rechnitz,Burgenland,Politischer Bezirk Oberwart,Weiden bei Rechnitz,47.3,16.35
7464,Markt Neuhodis,Burgenland,Politischer Bezirk Oberwart,Markt Neuhodis,47.3,16.4
7471,Rechnitz,Burgenland,Politischer Bezirk Oberwart,Rechnitz,47.3,16.45
7472,Schachendorf,Burgenland,Politischer Bezirk Oberwart,Schachendorf,47.2667,16.4333
7473,Hannersdorf,Burgenland,Politischer Bezirk Oberwart,Hannersdorf,47.2333,16.3833
7474,Hannersdorf,Burgenland,Politischer Bezirk Oberwart,Hannersdorf,47.2333,16.3833
7501,Oberdorf im Burgenland,Burgenland,Politischer Bezirk Oberwart,Oberdorf im Burgenland,47.2167,16.2167
7503,Jabing,Burgenland,Politischer Bezirk Oberwart,Jabing,47.25,16.2833
7511,Mischendorf,Burgenland,Politischer Bezirk Oberwart,Mischendorf,47.1833,16.3167
7512,Güttenbach,Burgenland,Politischer Bezirk Güssing,Güttenbach,47.1667,16.3
7521,Eberau,Burgenland,Politischer Bezirk Güssing,Eberau,47.1,16.4667
7522,Strem,Burgenland,Politischer Bezirk Güssing,Strem,47.05,16.4167
7531,Kemeten,Burgenland,Politischer Bezirk Oberwart,Kemeten,47.2333,16.15
7532,Litzelsdorf,Burgenland,Politischer Bezirk Oberwart,Litzelsdorf,47.2172,16.1627
7533,Ollersdorf im Burgenland,Burgenland,Politischer Bezirk Güssing,Ollersdorf im Burgenland,47.1833,16.1667
7534,Rauchwart,Burgenland,Politischer Bezirk Güssing,Rauchwart,47.1333,16.2333
7535,Neuberg im Burgenland,Burgenland,Politischer Bezirk Güssing,Neuberg im Burgenland,47.1195,16.2821
7540,Inzenhof,Burgenland,Politischer Bezirk Güssing,Inzenhof,47.0135,16.3154
7542,Gerersdorf-Sulz,Burgenland,Politischer Bezirk Güssing,Gerersdorf-Sulz,47.0648,16.2769
7543,Neusiedl,Burgenland,Politischer Bezirk Güssing,Kukmirn,47.0753,16.185
7551,Rohr im Burgenland,Burgenland,Politischer Bezirk Güssing,Rohr im Burgenland,47.1167,16.1667
7552,Stinatz,Burgenland,Politischer Bezirk Güssing,Stinatz,47.2,16.1167
7561,Poppendorf im Burgenland,Burgenland,Politischer Bezirk Jennersdorf,Heiligenkreuz im Lafnitztal,46.9969,16.225
7562,Eltendorf,Burgenland,Politischer Bezirk Jennersdorf,Eltendorf,47,16.2
7563,Königsdorf,Burgenland,Politischer Bezirk Jennersdorf,Königsdorf,47.013,16.1744
7564,Rudersdorf,Burgenland,Politischer Bezirk Jennersdorf,Rudersdorf,47.0404,16.1373
7571,Rudersdorf,Burgenland,Politischer Bezirk Jennersdorf,Rudersdorf,47.0404,16.1373
7572,Deutsch Kaltenbrunn,Burgenland,Politischer Bezirk Jennersdorf,Deutsch Kaltenbrunn,47.0833,16.1
8010,Graz,Steiermark,Graz Stadt,Graz,47.0667,15.45
8020,Graz,Steiermark,Graz Stadt,Graz,47.0667,15.45
8036,Graz,Steiermark,Graz Stadt,Graz,47.0667,15.45
8041,Graz,Steiermark,Graz Stadt,Graz,47.0667,15.45
8042,Graz,Steiermark,Graz Stadt,Graz,47.0667,15.45
8043,Graz,Steiermark,Graz Stadt,Graz,47.0667,15.45
8044,Graz,Steiermark,Graz Stadt,Graz,47.0667,15.45
8045,Graz,Steiermark,Graz Stadt,Graz,47.0667,15.45
8046,Graz,Steiermark,Graz Stadt,Graz,47.0667,15.45
8047,Graz,Steiermark,Graz Stadt,Graz,47.0667,15.45
8051,Graz,Steiermark,Graz Stadt,Graz,47.0667,15.45
8052,Graz,Steiermark,Graz Stadt,Graz,47.0667,15.45
8053,Graz,Steiermark,Graz Stadt,Graz,47.0667,15.45
8054,Graz,Steiermark,Graz Stadt,Graz,47.0667,15.45
8055,Graz,Steiermark,Graz Stadt,Graz,47.0667,15.45
8061,Weinitzen,Steiermark,Politischer Bezirk Graz Umgebung,Weinitzen,47.1167,15.45
8062,Hart-Purgstall,Steiermark,Politischer Bezirk Graz Umgebung,Hart-Purgstall,47.1371,15.5687
8063,Nestelbach bei Graz,Steiermark,Politischer Bezirk Graz Umgebung,Nestelbach bei Graz,47.0667,15.6
8071,Grambach,Steiermark,Politischer Bezirk Graz Umgebung,Grambach,47.0167,15.5
8072,Fernitz,Steiermark,Politischer Bezirk Graz Umgebung,Fernitz,46.9722,15.5161
8073,Graz,Steiermark,Graz Stadt,Graz,47.0667,15.45
8074,Graz,Steiermark,Graz Stadt,Graz,47.0667,15.45
8075,Hart bei Graz,Steiermark,Politischer Bezirk Graz Umgebung,Hart bei Graz,47.0431,15.5153
8081,Frannach,Steiermark,Politischer Bezirk Feldbach,Frannach,46.9131,15.6336
8082,Kirchbach in Steiermark,Steiermark,Politischer Bezirk Feldbach,Kirchbach in Steiermark,46.9317,15.6619
8083,Kirchbach in Steiermark,Steiermark,Politischer Bezirk Feldbach,Kirchbach in Steiermark,46.9317,15.6619
8091,Aug-Radisch,Steiermark,Politischer Bezirk Feldbach,Aug-Radisch,46.9124,15.6398
8092,Mettersdorf am Saßbach,Steiermark,Politischer Bezirk Radkersburg,Mettersdorf am Saßbach,46.8058,15.7111
8093,Mettersdorf am Saßbach,Steiermark,Politischer Bezirk Radkersburg,Mettersdorf am Saßbach,46.8058,15.7111
8101,Gratkorn,Steiermark,Politischer Bezirk Graz Umgebung,Gratkorn,47.1333,15.35
8102,Semriach,Steiermark,Politischer Bezirk Graz Umgebung,Semriach,47.2167,15.4
8103,Eisbach,Steiermark,Politischer Bezirk Graz Umgebung,Eisbach,47.1338,15.2725
8111,St.Oswald bei Plankenwarth,Steiermark,Politischer Bezirk Graz Umgebung,Sankt Oswald bei Plankenwarth,47.0833,15.2667
8112,Gratwein,Steiermark,Politischer Bezirk Graz Umgebung,Gratwein,47.1167,15.3167
8113,Hitzendorf,Steiermark,Politischer Bezirk Graz Umgebung,Hitzendorf,47.0344,15.3044
8114,Großstübing,Steiermark,Politischer Bezirk Graz Umgebung,Großstübing,47.1895,15.2049
8120,Peggau,Steiermark,Politischer Bezirk Graz Umgebung,Peggau,47.2,15.35
8121,Deutschfeistritz,Steiermark,Politischer Bezirk Graz Umgebung,Deutschfeistritz,47.1833,15.3333
8122,Frohnleiten,Steiermark,Politischer Bezirk Graz Umgebung,Frohnleiten,47.2667,15.3167
8124,Großstübing,Steiermark,Politischer Bezirk Graz Umgebung,Großstübing,47.1931,15.2269
8130,Peggau,Steiermark,Politischer Bezirk Graz Umgebung,Peggau,47.2,15.35
8131,Pernegg an der Mur,Steiermark,Politischer Bezirk Bruck an der Mur,Pernegg an der Mur,47.3598,15.3424
8132,Pernegg an der Mur,Steiermark,Politischer Bezirk Bruck an der Mur,Pernegg an der Mur,47.3598,15.3424
8141,Zwaring-Pöls,Steiermark,Politischer Bezirk Graz Umgebung,Zwaring-Pöls,46.9097,15.4118
8142,Zwaring-Pöls,Steiermark,Politischer Bezirk Graz Umgebung,Zwaring-Pöls,46.9097,15.4118
8143,St.Josef (Weststeiermark),Steiermark,Politischer Berzirk Deutschlandsberg,Sankt Josef (Weststeiermark),46.9092,15.3364
8144,Haselsdorf-Tobelbad,Steiermark,Politischer Bezirk Graz Umgebung,Haselsdorf-Tobelbad,47.0744,15.3913
8151,Sankt Bartholomä,Steiermark,Politischer Bezirk Graz Umgebung,Sankt Bartholomä,47.0667,15.25
8152,Hitzendorf,Steiermark,Politischer Bezirk Graz Umgebung,Hitzendorf,47.0344,15.3044
8153,Übelbach,Steiermark,Politischer Bezirk Graz Umgebung,Übelbach,47.2253,15.2361
8160,Kumberg,Steiermark,Politischer Bezirk Graz Umgebung,Kumberg,47.15,15.5333
8162,Tulwitz,Steiermark,Politischer Bezirk Graz Umgebung,Tulwitz,47.2768,15.4453
8163,Tulwitz,Steiermark,Politischer Bezirk Graz Umgebung,Tulwitz,47.3295,15.3713
8171,Sankt Kathrein am Offenegg,Steiermark,Politischer Bezirk Weiz,Sankt Kathrein am Offenegg,47.3,15.5833
8172,Naintsch,Steiermark,Politischer Bezirk Weiz,Naintsch,47.3139,15.6278
8181,Kumberg,Steiermark,Politischer Bezirk Graz Umgebung,Kumberg,47.15,15.5333
8182,Puch bei Weiz,Steiermark,Politischer Bezirk Weiz,Puch bei Weiz,47.2167,15.7167
8183,Floing,Steiermark,Politischer Bezirk Weiz,Floing,47.2667,15.75
8184,Floing,Steiermark,Politischer Bezirk Weiz,Floing,47.2667,15.75
8190,Gschaid bei Birkfeld,Steiermark,Politischer Bezirk Weiz,Gschaid bei Birkfeld,47.3333,15.7333
8191,Koglhof,Steiermark,Politischer Bezirk Weiz,Koglhof,47.3167,15.6833
8192,Strallegg,Steiermark,Politischer Bezirk Weiz,Strallegg,47.4,15.7167
8200,Nestelbach bei Graz,Steiermark,Politischer Bezirk Graz Umgebung,Nestelbach bei Graz,47.0667,15.6
8211,Preßguts,Steiermark,Politischer Bezirk Weiz,Preßguts,47.1706,15.7371
8212,Gersdorf an der Feistritz,Steiermark,Politischer Bezirk Weiz,Gersdorf an der Feistritz,47.1667,15.85
8221,Blaindorf,Steiermark,Politischer Bezirk Hartberg,Blaindorf,47.1667,15.85
8222,Blaindorf,Steiermark,Politischer Bezirk Hartberg,Blaindorf,47.1667,15.85
8223,Stubenberg,Steiermark,Politischer Bezirk Hartberg,Stubenberg,47.2333,15.8
8224,Kaindorf,Steiermark,Politischer Bezirk Hartberg,Kaindorf,47.2197,15.9235
8225,Stambach,Steiermark,Politischer Bezirk Hartberg,Stambach,47.3471,15.9291
8230,Hartberg Umgebung,Steiermark,Politischer Bezirk Hartberg,Hartberg Umgebung,47.2721,15.9322
8232,Stambach,Steiermark,Politischer Bezirk Hartberg,Stambach,47.3471,15.9291
8233,Lafnitz,Steiermark,Politischer Bezirk Hartberg,Lafnitz,47.3667,16.0167
8234,Schlag bei Thalberg,Steiermark,Politischer Bezirk Hartberg,Schlag bei Thalberg,47.4167,15.9833
8240,Pinkafeld,Burgenland,Politischer Bezirk Oberwart,Pinkafeld,47.3667,16.1167
8241,Dechantskirchen,Steiermark,Politischer Bezirk Hartberg,Dechantskirchen,47.4167,16.0167
8242,Sankt Lorenzen am Wechsel,Steiermark,Politischer Bezirk Hartberg,Sankt Lorenzen am Wechsel,47.4333,15.95
8243,Pinggau,Steiermark,Politischer Bezirk Hartberg,Pinggau,47.4333,16.0667
8244,Zöbern,Niederösterreich,Politischer Bezirk Neunkirchen,Zöbern,47.5,16.1167
8250,Sonnhofen,Steiermark,Politischer Bezirk Hartberg,Sonnhofen,47.3509,15.8044
8251,Riegersberg,Steiermark,Politischer Bezirk Hartberg,Riegersberg,47.4333,15.9056
8252,Riegersberg,Steiermark,Politischer Bezirk Hartberg,Riegersberg,47.4333,15.8833
8253,Mönichwald,Steiermark,Politischer Bezirk Hartberg,Mönichwald,47.45,15.8667
8254,Wenigzell,Steiermark,Politischer Bezirk Hartberg,Wenigzell,47.4167,15.7833
8255,Sankt Jakob im Walde,Steiermark,Politischer Bezirk Hartberg,Sankt Jakob im Walde,47.4667,15.7833
8261,Nestelbach im Ilztal,Steiermark,Politischer Bezirk Fürstenfeld,Nestelbach im Ilztal,47.0833,15.8667
8262,Ilz,Steiermark,Politischer Bezirk Fürstenfeld,Ilz,47.0833,15.9167
8263,Großwilfersdorf,Steiermark,Politischer Bezirk Fürstenfeld,Großwilfersdorf,47.0833,15.9833
8264,Hainersdorf,Steiermark,Politischer Bezirk Fürstenfeld,Hainersdorf,47.1167,15.9333
8265,Großsteinbach,Steiermark,Politischer Bezirk Fürstenfeld,Großsteinbach,47.15,15.8833
8271,Großhart,Steiermark,Politischer Bezirk Hartberg,Großhart,47.165,15.9466
8272,Sebersdorf,Steiermark,Politischer Bezirk Hartberg,Sebersdorf,47.2,15.9833
8273,Großhart,Steiermark,Politischer Bezirk Hartberg,Großhart,47.165,15.9466
8274,Sankt Magdalena am Lemberg,Steiermark,Politischer Bezirk Hartberg,Sankt Magdalena am Lemberg,47.2282,16.0285
8280,Altenmarkt bei Fürstenfeld,Steiermark,Politischer Bezirk Fürstenfeld,Altenmarkt bei Fürstenfeld,47.05,16.05
8282,Jennersdorf,Burgenland,Politischer Bezirk Jennersdorf,Jennersdorf,46.9385,16.1416
8283,Bad Blumau,Steiermark,Politischer Bezirk Fürstenfeld,Bad Blumau,47.1167,16.05
8291,Burgauberg-Neudauberg,Burgenland,Politischer Bezirk Güssing,Burgauberg-Neudauberg,47.1568,16.1259
8292,Hackerberg,Burgenland,Politischer Bezirk Güssing,Hackerberg,47.2,16.1167
8293,Wörterberg,Burgenland,Politischer Bezirk Güssing,Wörterberg,47.2167,16.1
8294,Rohr bei Hartberg,Steiermark,Politischer Bezirk Hartberg,Rohr bei Hartberg,47.2489,16.0584
8295,Sankt Johann in der Haide,Steiermark,Politischer Bezirk Hartberg,Sankt Johann in der Haide,47.2667,16.0167
8301,Höf-Präbach,Steiermark,Politischer Bezirk Graz Umgebung,Höf-Präbach,47.0418,15.5961
8302,Krumegg,Steiermark,Politischer Bezirk Graz Umgebung,Krumegg,47.0253,15.638
8311,Edelsbach bei Feldbach,Steiermark,Politischer Bezirk Feldbach,Edelsbach bei Feldbach,46.9894,15.8369
8312,Breitenfeld a.d. Rittschein,Steiermark,Politischer Bezirk Feldbach,Breitenfeld an der Rittschein,47.0397,15.9526
8313,Breitenfeld a.d. Rittschein,Steiermark,Politischer Bezirk Feldbach,Breitenfeld an der Rittschein,47.0397,15.9526
8321,Hofstätten an der Raab,Steiermark,Politischer Bezirk Weiz,Hofstätten an der Raab,47.0667,15.7333
8322,Studenzen,Steiermark,Politischer Bezirk Feldbach,Studenzen,47.0058,15.7542
8323,Oberdorf am Hochegg,Steiermark,Politischer Bezirk Feldbach,Oberdorf am Hochegg,46.9786,15.7217
8324,Sankt Stefan im Rosental,Steiermark,Politischer Bezirk Feldbach,Sankt Stefan im Rosental,46.9039,15.71
8330,Feldbach,Steiermark,Politischer Bezirk Feldbach,Feldbach,46.9531,15.8883
8332,Fladnitz im Raabtal,Steiermark,Politischer Bezirk Feldbach,Fladnitz im Raabtal,46.9917,15.7853
8333,Breitenfeld a.d. Rittschein,Steiermark,Politischer Bezirk Feldbach,Breitenfeld an der Rittschein,47.0397,15.9526
8334,Kornberg bei Riegersburg,Steiermark,Politischer Bezirk Feldbach,Kornberg bei Riegersburg,46.9797,15.9135
8341,Baumgarten bei Gnas,Steiermark,Politischer Bezirk Feldbach,Baumgarten bei Gnas,46.9167,15.7667
8342,Gnas,Steiermark,Politischer Bezirk Feldbach,Gnas,46.8731,15.8253
8343,Trautmannsdorf in OstStmk,Steiermark,Politischer Bezirk Feldbach,Trautmannsdorf in Oststeiermark,46.8779,15.8809
8344,Bad Gleichenberg,Steiermark,Politischer Bezirk Feldbach,Bad Gleichenberg,46.8756,15.9086
8345,Krusdorf,Steiermark,Politischer Bezirk Feldbach,Krusdorf,46.8394,15.8608
8350,Welten,Burgenland,Politischer Bezirk Jennersdorf,Sankt Martin an der Raab,46.9292,16.0825
8352,Unterlamm,Steiermark,Politischer Bezirk Feldbach,Unterlamm,46.9795,16.0668
8353,Kapfenstein,Steiermark,Politischer Bezirk Feldbach,Kapfenstein,46.8861,15.9717
8354,Sankt Anna am Aigen,Steiermark,Politischer Bezirk Feldbach,Sankt Anna am Aigen,46.8311,15.9714
8355,Frutten-Gießelsdorf,Steiermark,Politischer Bezirk Feldbach,Frutten-Gießelsdorf,46.8265,15.9409
8361,Unterlamm,Steiermark,Politischer Bezirk Feldbach,Unterlamm,46.9795,16.0668
8362,Breitenfeld a.d. Rittschein,Steiermark,Politischer Bezirk Feldbach,Breitenfeld an der Rittschein,47.1091,15.9097
8380,Jennersdorf,Burgenland,Politischer Bezirk Jennersdorf,Jennersdorf,46.9385,16.1416
8382,Weichselbaum,Burgenland,Politischer Bezirk Jennersdorf,Weichselbaum,46.9425,16.1875
8383,Gritsch,Burgenland,Politischer Bezirk Jennersdorf,Sankt Martin an der Raab,46.9244,16.1053
8384,Neuhaus am Klausenbach,Burgenland,Politischer Bezirk Jennersdorf,Neuhaus am Klausenbach,46.8706,16.0289
8385,Welten,Burgenland,Politischer Bezirk Jennersdorf,Sankt Martin an der Raab,46.9292,16.0825
8401,Kalsdorf bei Graz,Steiermark,Politischer Bezirk Graz Umgebung,Kalsdorf bei Graz,46.9653,15.4803
8402,Werndorf,Steiermark,Politischer Bezirk Graz Umgebung,Werndorf,46.9242,15.4908
8403,Lebring-Sankt Margarethen,Steiermark,Politischer Bezirk Leibnitz,Lebring-Sankt Margarethen,46.8636,15.5278
8410,Zwaring-Pöls,Steiermark,Politischer Bezirk Graz Umgebung,Zwaring-Pöls,46.9097,15.4118
8411,Zwaring-Pöls,Steiermark,Politischer Bezirk Graz Umgebung,Zwaring-Pöls,46.9097,15.4118
8412,Allerheiligen bei Wildon,Steiermark,Politischer Bezirk Leibnitz,Allerheiligen bei Wildon,46.9142,15.5544
8413,Mitterlabill,Steiermark,Politischer Bezirk Feldbach,Mitterlabill,46.8892,15.6356
8421,Schwarzau im Schwarzautal,Steiermark,Politischer Bezirk Feldbach,Schwarzau im Schwarzautal,46.8667,15.6667
8422,Sankt Nikolai ob Draßling,Steiermark,Politischer Bezirk Leibnitz,Sankt Nikolai ob Draßling,46.8089,15.6508
8423,Sankt Veit am Vogau,Steiermark,Politischer Bezirk Leibnitz,Sankt Veit am Vogau,46.7664,15.6391
8424,Gabersdorf,Steiermark,Politischer Bezirk Leibnitz,Gabersdorf,46.7772,15.5842
8430,Seggauberg,Steiermark,Politischer Bezirk Leibnitz,Seggauberg,46.7667,15.5167
8431,Gralla,Steiermark,Politischer Bezirk Leibnitz,Gralla,46.9216,15.5427
8435,Gabersdorf,Steiermark,Politischer Bezirk Leibnitz,Gabersdorf,46.7772,15.5842
8441,Großklein,Steiermark,Politischer Bezirk Leibnitz,Großklein,46.7361,15.4444
8442,Sankt Andrä-Höch,Steiermark,Politischer Bezirk Leibnitz,Sankt Andrä-Höch,46.793,15.4008
8443,Sulmeck-Greith,Steiermark,Politischer Berzirk Deutschlandsberg,Sulmeck-Greith,46.7363,15.3249
8444,Wettmannstätten,Steiermark,Politischer Berzirk Deutschlandsberg,Wettmannstätten,46.8306,15.3872
8451,Tillmitsch,Steiermark,Politischer Bezirk Leibnitz,Tillmitsch,46.8198,15.5015
8452,Sankt Johann im Saggautal,Steiermark,Politischer Bezirk Leibnitz,Sankt Johann im Saggautal,46.7039,15.4028
8453,Oberhaag,Steiermark,Politischer Bezirk Leibnitz,Oberhaag,46.6794,15.3534
8454,Oberhaag,Steiermark,Politischer Bezirk Leibnitz,Oberhaag,46.7173,15.3043
8455,Großradl,Steiermark,Politischer Berzirk Deutschlandsberg,Großradl,46.6642,15.2644
8461,Gabersdorf,Steiermark,Politischer Bezirk Leibnitz,Gabersdorf,46.7772,15.5842
8462,Glanz an der Weinstraße,Steiermark,Politischer Bezirk Leibnitz,Glanz an der Weinstraße,46.6581,15.5171
8463,Gamlitz,Steiermark,Politischer Bezirk Leibnitz,Gamlitz,46.7203,15.5533
8471,Straß in Steiermark,Steiermark,Politischer Bezirk Leibnitz,Straß in Steiermark,46.7272,15.6244
8472,Obervogau,Steiermark,Politischer Bezirk Leibnitz,Obervogau,46.745,15.5847
8473,Murfeld,Steiermark,Politischer Bezirk Radkersburg,Murfeld,46.7176,15.6963
8480,Eichfeld,Steiermark,Politischer Bezirk Radkersburg,Eichfeld,46.7253,15.7681
8481,Eichfeld,Steiermark,Politischer Bezirk Radkersburg,Eichfeld,46.7253,15.7681
8482,Gosdorf,Steiermark,Politischer Bezirk Radkersburg,Gosdorf,46.7278,15.7925
8483,Deutsch Goritz,Steiermark,Politischer Bezirk Radkersburg,Deutsch Goritz,46.7508,15.8294
8484,Hof bei Straden,Steiermark,Politischer Bezirk Radkersburg,Hof bei Straden,46.8,15.9333
8490,Bad Radkersburg,Steiermark,Politischer Bezirk Radkersburg,Bad Radkersburg,46.6881,15.9881
8492,Halbenrain,Steiermark,Politischer Bezirk Radkersburg,Halbenrain,46.7219,15.9467
8493,Tieschen,Steiermark,Politischer Bezirk Radkersburg,Tieschen,46.7861,15.9422
8501,Lieboch,Steiermark,Politischer Bezirk Graz Umgebung,Lieboch,46.9742,15.3375
8502,Lannach,Steiermark,Politischer Berzirk Deutschlandsberg,Lannach,46.9461,15.3372
8503,Stainztal,Steiermark,Politischer Berzirk Deutschlandsberg,Stainztal,46.9301,15.3799
8504,Stainztal,Steiermark,Politischer Berzirk Deutschlandsberg,Stainztal,46.9024,15.4829
8505,Sankt Andrä-Höch,Steiermark,Politischer Bezirk Leibnitz,Sankt Andrä-Höch,46.8907,15.3239
8510,Stainztal,Steiermark,Politischer Berzirk Deutschlandsberg,Stainztal,46.9703,15.2378
8511,Lannach,Steiermark,Politischer Berzirk Deutschlandsberg,Lannach,46.9461,15.3372
8521,Wettmannstätten,Steiermark,Politischer Berzirk Deutschlandsberg,Wettmannstätten,46.8306,15.3872
8522,Unterbergla,Steiermark,Politischer Berzirk Deutschlandsberg,Unterbergla,46.8,15.3167
8523,Deutschlandsberg,Steiermark,Politischer Berzirk Deutschlandsberg,Deutschlandsberg,46.8153,15.2222
8524,Deutschlandsberg,Steiermark,Politischer Berzirk Deutschlandsberg,Deutschlandsberg,46.8153,15.2222
8530,Frauental an der Laßnitz,Steiermark,Politischer Berzirk Deutschlandsberg,Frauental an der Laßnitz,46.8186,15.2582
8541,Hollenegg,Steiermark,Politischer Berzirk Deutschlandsberg,Hollenegg,46.7915,15.2134
8542,Sankt Peter im Sulmtal,Steiermark,Politischer Berzirk Deutschlandsberg,Sankt Peter im Sulmtal,46.75,15.25
8543,Sulmeck-Greith,Steiermark,Politischer Berzirk Deutschlandsberg,Sulmeck-Greith,46.7363,15.3249
8544,Sankt Martin im Sulmtal,Steiermark,Politischer Berzirk Deutschlandsberg,Sankt Martin im Sulmtal,46.7561,15.2972
8551,Wies,Steiermark,Politischer Berzirk Deutschlandsberg,Wies,46.7194,15.2515
8552,Eibiswald,Steiermark,Politischer Berzirk Deutschlandsberg,Eibiswald,46.6867,15.2472
8553,Soboth,Steiermark,Politischer Berzirk Deutschlandsberg,Soboth,46.6814,15.0783
8554,Soboth,Steiermark,Politischer Berzirk Deutschlandsberg,Soboth,46.6814,15.0783
8561,Hitzendorf,Steiermark,Politischer Bezirk Graz Umgebung,Hitzendorf,47.0344,15.3044
8562,Sankt Stefan ob Stainz,Steiermark,Politischer Berzirk Deutschlandsberg,Sankt Stefan ob Stainz,46.9286,15.2589
8563,Greisdorf,Steiermark,Politischer Berzirk Deutschlandsberg,Greisdorf,46.9167,15.2167
8564,Sankt Johann-Köppling,Steiermark,Politischer Bezirk Voitsberg,Sankt Johann-Köppling,47.0159,15.2076
8565,Sankt Johann-Köppling,Steiermark,Politischer Bezirk Voitsberg,Sankt Johann-Köppling,47.0095,15.2381
8570,Voitsberg,Steiermark,Politischer Bezirk Voitsberg,Voitsberg,47.0333,15.15
8572,Piberegg,Steiermark,Politischer Bezirk Voitsberg,Piberegg,47.0833,15.0833
8573,Kainach bei Voitsberg,Steiermark,Politischer Bezirk Voitsberg,Kainach bei Voitsberg,47.1333,15.0833
8580,Graden,Steiermark,Politischer Bezirk Voitsberg,Graden,47.122,15.0295
8582,Voitsberg,Steiermark,Politischer Bezirk Voitsberg,Voitsberg,47.0333,15.15
8583,Edelschrott,Steiermark,Politischer Bezirk Voitsberg,Edelschrott,47.0167,15.05
8584,Hirschegg,Steiermark,Politischer Bezirk Voitsberg,Hirschegg,47.0167,14.9167
8591,Gößnitz,Steiermark,Politischer Bezirk Voitsberg,Gößnitz,47.0572,14.9845
8592,Kleinlobming,Steiermark,Politischer Bezirk Knittelfeld,Kleinlobming,47.15,14.8333
8593,Graden,Steiermark,Politischer Bezirk Voitsberg,Graden,47.122,15.0295
8600,Bruck an der Mur,Steiermark,Politischer Bezirk Bruck an der Mur,Bruck an der Mur,47.4167,15.2833
8605,Kapfenberg,Steiermark,Politischer Bezirk Bruck an der Mur,Kapfenberg,47.4446,15.2933
8611,St.Katharein an der Laming,Steiermark,Politischer Bezirk Bruck an der Mur,Sankt Katharein an der Laming,47.4707,15.1632
8612,Tragöß,Steiermark,Politischer Bezirk Bruck an der Mur,Tragöß,47.5083,15.0667
8614,Pernegg an der Mur,Steiermark,Politischer Bezirk Bruck an der Mur,Pernegg an der Mur,47.3598,15.3424
8616,Gasen,Steiermark,Politischer Bezirk Weiz,Gasen,47.3833,15.5667
8621,Sankt Ilgen,Steiermark,Politischer Bezirk Bruck an der Mur,Sankt Ilgen,47.55,15.1667
8622,Etmißl,Steiermark,Politischer Bezirk Bruck an der Mur,Etmißl,47.5,15.1667
8623,Aflenz Land,Steiermark,Politischer Bezirk Bruck an der Mur,Aflenz Land,47.5417,15.2417
8624,Aflenz Land,Steiermark,Politischer Bezirk Bruck an der Mur,Aflenz Land,47.5417,15.2833
8625,Sankt Lorenzen im Mürztal,Steiermark,Politischer Bezirk Bruck an der Mur,Sankt Lorenzen im Mürztal,47.4833,15.3667
8630,St. Aegyd am Neuwalde,Niederösterreich,Politischer Bezirk Lilienfeld,St. Aegyd am Neuwalde,47.8538,15.5697
8632,Halltal,Steiermark,Politischer Bezirk Bruck an der Mur,Halltal,47.7702,15.392
8634,Gußwerk,Steiermark,Politischer Bezirk Bruck an der Mur,Gußwerk,47.75,15.3
8635,Gußwerk,Steiermark,Politischer Bezirk Bruck an der Mur,Gußwerk,47.75,15.3
8636,Turnau,Steiermark,Politischer Bezirk Bruck an der Mur,Turnau,47.55,15.3333
8641,Sankt Lorenzen im Mürztal,Steiermark,Politischer Bezirk Bruck an der Mur,Sankt Lorenzen im Mürztal,47.4833,15.3667
8642,Sankt Lorenzen im Mürztal,Steiermark,Politischer Bezirk Bruck an der Mur,Sankt Lorenzen im Mürztal,47.4833,15.3667
8643,Allerheiligen im Mürztal,Steiermark,Politischer Bezirk Mürzzuschlag,Allerheiligen im Mürztal,47.4667,15.4
8644,Sankt Lorenzen im Mürztal,Steiermark,Politischer Bezirk Bruck an der Mur,Sankt Lorenzen im Mürztal,47.4833,15.3667
8650,Kindberg,Steiermark,Politischer Bezirk Mürzzuschlag,Kindberg,47.5,15.45
8652,Sankt Lorenzen im Mürztal,Steiermark,Politischer Bezirk Bruck an der Mur,Sankt Lorenzen im Mürztal,47.4833,15.3667
8653,Stanz im Mürztal,Steiermark,Politischer Bezirk Mürzzuschlag,Stanz im Mürztal,47.4,15.4222
8654,Stanz im Mürztal,Steiermark,Politischer Bezirk Mürzzuschlag,Stanz im Mürztal,47.4417,15.625
8661,Wartberg im Mürztal,Steiermark,Politischer Bezirk Mürzzuschlag,Wartberg im Mürztal,47.5167,15.5
8662,Krieglach,Steiermark,Politischer Bezirk Mürzzuschlag,Krieglach,47.5333,15.55
8663,Veitsch,Steiermark,Politischer Bezirk Mürzzuschlag,Veitsch,47.5781,15.4945
8664,Veitsch,Steiermark,Politischer Bezirk Mürzzuschlag,Veitsch,47.5781,15.4945
8665,Langenwang,Steiermark,Politischer Bezirk Mürzzuschlag,Langenwang,47.5667,15.6167
8670,Langenwang,Steiermark,Politischer Bezirk Mürzzuschlag,Langenwang,47.5667,15.6167
8671,Krieglach,Steiermark,Politischer Bezirk Mürzzuschlag,Krieglach,47.5333,15.55
8672,Ratten,Steiermark,Politischer Bezirk Weiz,Ratten,47.4833,15.7167
8673,Sankt Jakob im Walde,Steiermark,Politischer Bezirk Hartberg,Sankt Jakob im Walde,47.4667,15.7833
8674,Sankt Jakob im Walde,Steiermark,Politischer Bezirk Hartberg,Sankt Jakob im Walde,47.4667,15.7833
8680,Langenwang,Steiermark,Politischer Bezirk Mürzzuschlag,Langenwang,47.5667,15.6167
8682,Mürzzuschlag,Steiermark,Politischer Bezirk Mürzzuschlag,Mürzzuschlag,47.6,15.6833
8684,Spital am Semmering,Steiermark,Politischer Bezirk Mürzzuschlag,Spital am Semmering,47.6,15.75
8685,Spital am Semmering,Steiermark,Politischer Bezirk Mürzzuschlag,Spital am Semmering,47.6,15.75
8691,Kapellen,Steiermark,Politischer Bezirk Mürzzuschlag,Kapellen,47.6333,15.6167
8692,Altenberg an der Rax,Steiermark,Politischer Bezirk Mürzzuschlag,Altenberg an der Rax,47.708,15.6116
8693,Mürzsteg,Steiermark,Politischer Bezirk Mürzzuschlag,Mürzsteg,47.6667,15.4833
8694,St. Aegyd am Neuwalde,Niederösterreich,Politischer Bezirk Lilienfeld,St. Aegyd am Neuwalde,47.8538,15.5697
8700,Leoben,Steiermark,Politischer Bezirk Leoben,Leoben,47.3833,15.1
8712,Proleb,Steiermark,Politischer Bezirk Leoben,Proleb,47.4,15.1333
8713,Sankt Stefan ob Leoben,Steiermark,Politischer Bezirk Leoben,Sankt Stefan ob Leoben,47.3,14.9833
8714,St.Lorenzen bei Knittelfeld,Steiermark,Politischer Bezirk Knittelfeld,Sankt Lorenzen bei Knittelfeld,47.25,14.8833
8715,Feistritz bei Knittelfeld,Steiermark,Politischer Bezirk Knittelfeld,Feistritz bei Knittelfeld,47.2667,14.8833
8720,Rattenberg,Steiermark,Politischer Bezirk Judenburg,Fohnsdorf,47.2277,14.8249
8724,Spielberg,Steiermark,Politischer Bezirk Knittelfeld,Spielberg,47.2167,14.7833
8731,Gaal,Steiermark,Politischer Bezirk Knittelfeld,Gaal,47.2667,14.6667
8732,Kobenz,Steiermark,Politischer Bezirk Knittelfeld,Kobenz,47.25,14.85
8733,Feistritz bei Knittelfeld,Steiermark,Politischer Bezirk Knittelfeld,Feistritz bei Knittelfeld,47.2667,14.8833
8734,Maria Buch-Feistritz,Steiermark,Politischer Bezirk Judenburg,Maria Buch-Feistritz,47.1633,14.7405
8740,Maria Buch-Feistritz,Steiermark,Politischer Bezirk Judenburg,Maria Buch-Feistritz,47.1633,14.7405
8741,Reisstraße,Steiermark,Politischer Bezirk Judenburg,Reisstraße,47.1167,14.8833
8742,Amering,Steiermark,Politischer Bezirk Judenburg,Amering,47.0586,14.7264
8750,Reifling,Steiermark,Politischer Bezirk Judenburg,Reifling,47.1333,14.6667
8753,Rattenberg,Steiermark,Politischer Bezirk Judenburg,Fohnsdorf,47.2183,14.6819
8754,Pöls,Steiermark,Politischer Bezirk Judenburg,Pöls,47.2226,14.5992
8755,Sankt Peter ob Judenburg,Steiermark,Politischer Bezirk Judenburg,Sankt Peter ob Judenburg,47.1842,14.5864
8756,Sankt Georgen ob Judenburg,Steiermark,Politischer Bezirk Judenburg,Sankt Georgen ob Judenburg,47.2,14.5
8761,Oberkurzheim,Steiermark,Politischer Bezirk Judenburg,Oberkurzheim,47.2333,14.5833
8762,Sankt Oswald-Möderbrugg,Steiermark,Politischer Bezirk Judenburg,Sankt Oswald-Möderbrugg,47.2833,14.5
8763,Sankt Oswald-Möderbrugg,Steiermark,Politischer Bezirk Judenburg,Sankt Oswald-Möderbrugg,47.2833,14.5
8764,Pusterwald,Steiermark,Politischer Bezirk Judenburg,Pusterwald,47.3061,14.3756
8765,Sankt Johann am Tauern,Steiermark,Politischer Bezirk Judenburg,Sankt Johann am Tauern,47.35,14.4667
8770,St.Michael i.Obersteiermark,Steiermark,Politischer Bezirk Leoben,Sankt Michael in Obersteiermark,47.3125,15.0588
8772,Madstein,Steiermark,Politischer Bezirk Leoben,Traboch,47.3667,15
8773,Kammern im Liesingtal,Steiermark,Politischer Bezirk Leoben,Kammern im Liesingtal,47.3833,14.9
8774,Mautern in Steiermark,Steiermark,Politischer Bezirk Leoben,Mautern in Steiermark,47.4,14.8333
8775,Kalwang,Steiermark,Politischer Bezirk Leoben,Kalwang,47.4167,14.75
8781,Wald am Schoberpaß,Steiermark,Politischer Bezirk Leoben,Wald am Schoberpaß,47.45,14.6667
8782,Treglwang,Steiermark,Politischer Bezirk Liezen,Treglwang,47.4667,14.5833
8783,Gaishorn am See,Steiermark,Politischer Bezirk Liezen,Gaishorn am See,47.4794,14.5658
8784,Rottenmann,Steiermark,Politischer Bezirk Liezen,Rottenmann,47.5167,14.35
8785,Hohentauern,Steiermark,Politischer Bezirk Judenburg,Hohentauern,47.4333,14.4833
8786,Oppenberg,Steiermark,Politischer Bezirk Liezen,Oppenberg,47.4833,14.2667
8790,Eisenerz,Steiermark,Politischer Bezirk Leoben,Eisenerz,47.5333,14.8833
8792,Leoben,Steiermark,Politischer Bezirk Leoben,Leoben,47.3833,15.1
8793,Trofaiach,Steiermark,Politischer Bezirk Leoben,Trofaiach,47.4167,15
8794,Vordernberg,Steiermark,Politischer Bezirk Leoben,Vordernberg,47.4667,15
8795,Radmer,Steiermark,Politischer Bezirk Leoben,Radmer,47.5167,14.7
8800,Unzmarkt-Frauenburg,Steiermark,Politischer Bezirk Judenburg,Unzmarkt-Frauenburg,47.1968,14.4314
8811,St.Lorenzen bei Scheifling,Steiermark,Politischer Bezirk Murau,Sankt Lorenzen bei Scheifling,47.1456,14.4058
8812,Mariahof,Steiermark,Politischer Bezirk Murau,Mariahof,47.1,14.4
8813,Sankt Blasen,Steiermark,Politischer Bezirk Murau,Sankt Blasen,47.0833,14.3
8820,Hüttenberg,Kaernten,Politischer Bezirk Sankt Veit an der Glan,Hüttenberg,46.9414,14.55
8822,Hüttenberg,Kaernten,Politischer Bezirk Sankt Veit an der Glan,Hüttenberg,46.9414,14.55
8831,Schönberg-Lachtal,Steiermark,Politischer Bezirk Murau,Schönberg-Lachtal,47.2188,14.3586
8832,Winklern bei Oberwölz,Steiermark,Politischer Bezirk Murau,Winklern bei Oberwölz,47.2,14.2333
8833,Frojach-Katsch,Steiermark,Politischer Bezirk Murau,Frojach-Katsch,47.1385,14.3012
8841,Frojach-Katsch,Steiermark,Politischer Bezirk Murau,Frojach-Katsch,47.1308,14.3086
8842,St. Peter am Kammersberg,Steiermark,Politischer Bezirk Murau,St. Peter am Kammersberg,47.1833,14.1833
8843,St. Peter am Kammersberg,Steiermark,Politischer Bezirk Murau,St. Peter am Kammersberg,47.1833,14.1833
8844,Rinegg,Steiermark,Politischer Bezirk Murau,Rinegg,47.15,14.1333
8850,Metnitz,Kaernten,Politischer Bezirk Sankt Veit an der Glan,Metnitz,46.9806,14.2167
8852,Stolzalpe,Steiermark,Politischer Bezirk Murau,Stolzalpe,47.2299,14.3497
8853,Rinegg,Steiermark,Politischer Bezirk Murau,Rinegg,47.15,14.1333
8854,Krakauschatten,Steiermark,Politischer Bezirk Murau,Krakauschatten,47.1833,13.9667
8861,Sankt Georgen ob Murau,Steiermark,Politischer Bezirk Murau,Sankt Georgen ob Murau,47.1,14.1
8862,Stadl an der Mur,Steiermark,Politischer Bezirk Murau,Stadl an der Mur,47.0833,13.9667
8863,Predlitz-Turrach,Steiermark,Politischer Bezirk Murau,Predlitz-Turrach,47.075,13.925
8864,Predlitz-Turrach,Steiermark,Politischer Bezirk Murau,Predlitz-Turrach,46.9608,13.8878
8900,Lassing,Steiermark,Politischer Bezirk Liezen,Lassing,47.5293,14.2534
8903,Lassing,Steiermark,Politischer Bezirk Liezen,Lassing,47.5293,14.2534
8904,Ardning,Steiermark,Politischer Bezirk Liezen,Ardning,47.5833,14.35
8911,Ardning,Steiermark,Politischer Bezirk Liezen,Ardning,47.5833,14.35
8912,Admont,Steiermark,Politischer Bezirk Liezen,Admont,47.5754,14.4608
8913,Weng im Gesäuse,Steiermark,Politischer Bezirk Liezen,Weng im Gesäuse,47.6,14.6333
8920,Hieflau,Steiermark,Politischer Bezirk Leoben,Hieflau,47.6,14.7333
8921,Landl,Steiermark,Politischer Bezirk Liezen,Landl,47.639,14.7606
8922,Gams bei Hieflau,Steiermark,Politischer Bezirk Liezen,Gams bei Hieflau,47.6667,14.7833
8923,Palfau,Steiermark,Politischer Bezirk Liezen,Palfau,47.7,14.8
8924,Gaming,Niederösterreich,Politischer Bezirk Scheibbs,Gaming,47.8569,15.1315
8931,Landl,Steiermark,Politischer Bezirk Liezen,Landl,47.639,14.7606
8932,Weißenbach an der Enns,Steiermark,Politischer Bezirk Liezen,Weißenbach an der Enns,47.7167,14.6333
8933,Weißenbach an der Enns,Steiermark,Politischer Bezirk Liezen,Weißenbach an der Enns,47.7167,14.6333
8934,Weißenbach an der Enns,Steiermark,Politischer Bezirk Liezen,Weißenbach an der Enns,47.7167,14.6333
8940,Weißenbach bei Liezen,Steiermark,Politischer Bezirk Liezen,Weißenbach bei Liezen,47.5667,14.2167
8942,Wörschach,Steiermark,Politischer Bezirk Liezen,Wörschach,47.55,14.15
8943,Aigen im Ennstal,Steiermark,Politischer Bezirk Liezen,Aigen im Ennstal,47.5167,14.1333
8950,Stainach,Steiermark,Politischer Bezirk Liezen,Stainach,47.5334,14.1087
8951,Pürgg-Trautenfels,Steiermark,Politischer Bezirk Liezen,Pürgg-Trautenfels,47.529,14.0666
8952,Irdning,Steiermark,Politischer Bezirk Liezen,Irdning,47.5053,14.1016
8953,Donnersbachwald,Steiermark,Politischer Bezirk Liezen,Donnersbachwald,47.3833,14.1167
8954,Sankt Martin am Grimming,Steiermark,Politischer Bezirk Liezen,Sankt Martin am Grimming,47.4887,13.981
8960,Öblarn,Steiermark,Politischer Bezirk Liezen,Öblarn,47.45,13.9833
8961,Großsölk,Steiermark,Politischer Bezirk Liezen,Großsölk,47.4167,13.9667
8962,Mitterberg,Steiermark,Politischer Bezirk Liezen,Mitterberg,47.4667,13.95
8965,Pruggern,Steiermark,Politischer Bezirk Liezen,Pruggern,47.4167,13.8667
8966,Haus,Steiermark,Politischer Bezirk Liezen,Haus,47.4194,13.7637
8967,Gössenberg,Steiermark,Politischer Bezirk Liezen,Gössenberg,47.4167,13.8167
8970,Pichl-Preunegg,Steiermark,Politischer Bezirk Liezen,Pichl-Preunegg,47.3505,13.6144
8971,Rohrmoos-Untertal,Steiermark,Politischer Bezirk Liezen,Rohrmoos-Untertal,47.3835,13.67
8972,Ramsau am Dachstein,Steiermark,Politischer Bezirk Liezen,Ramsau am Dachstein,47.4167,13.65
8973,Rohrmoos-Untertal,Steiermark,Politischer Bezirk Liezen,Rohrmoos-Untertal,47.3835,13.67
8974,Radstadt,Salzburg,Politischer Bezirk Sankt Johann im Pongau,Radstadt,47.3833,13.45
8982,Tauplitz,Steiermark,Politischer Bezirk Liezen,Tauplitz,47.5601,14.0129
8983,Bad Mitterndorf,Steiermark,Politischer Bezirk Liezen,Bad Mitterndorf,47.5556,13.9319
8984,Pichl-Kainisch,Steiermark,Politischer Bezirk Liezen,Pichl-Kainisch,47.7171,13.8622
8990,Reith,Steiermark,Politischer Bezirk Liezen,Bad Aussee,47.5865,13.782
8992,Altaussee,Steiermark,Politischer Bezirk Liezen,Altaussee,47.6333,13.7667
8993,Grundlsee,Steiermark,Politischer Bezirk Liezen,Grundlsee,47.6167,13.8167
9020,Klagenfurt am Wörthersee,Kaernten,Klagenfurt am Wörthersee,Klagenfurt am Wörthersee,46.6247,14.3053
9061,Klagenfurt am Wörthersee,Kaernten,Klagenfurt am Wörthersee,Klagenfurt am Wörthersee,46.6247,14.3053
9062,Moosburg,Kaernten,Politischer Bezirk Klagenfurt Land,Moosburg,46.6575,14.1747
9063,Klagenfurt am Wörthersee,Kaernten,Klagenfurt am Wörthersee,Klagenfurt am Wörthersee,46.6247,14.3053
9064,Magdalensberg,Kaernten,Politischer Bezirk Klagenfurt Land,Magdalensberg,46.685,14.4204
9065,Klagenfurt am Wörthersee,Kaernten,Klagenfurt am Wörthersee,Klagenfurt am Wörthersee,46.6247,14.3053
9071,Köttmannsdorf,Kaernten,Politischer Bezirk Klagenfurt Land,Köttmannsdorf,46.5614,14.2339
9072,Ludmannsdorf,Kaernten,Politischer Bezirk Klagenfurt Land,Ludmannsdorf,46.5333,14.1333
9073,Klagenfurt am Wörthersee,Kaernten,Klagenfurt am Wörthersee,Klagenfurt am Wörthersee,46.6247,14.3053
9074,Keutschach am See,Kaernten,Politischer Bezirk Klagenfurt Land,Keutschach am See,46.5931,14.1889
9081,Maria Wörth,Kaernten,Politischer Bezirk Klagenfurt Land,Maria Wörth,46.6164,14.1631
9082,Maria Wörth,Kaernten,Politischer Bezirk Klagenfurt Land,Maria Wörth,46.6164,14.1631
9100,St. Peter am Wallersberg,Kaernten,Politischer Bezirk Völkermarkt,Völkermarkt,46.65,14.6833
9102,Brückl,Kaernten,Politischer Bezirk Sankt Veit an der Glan,Brückl,46.7517,14.5367
9103,Diex,Kaernten,Politischer Bezirk Völkermarkt,Diex,46.75,14.6
9104,Griffen,Kaernten,Politischer Bezirk Völkermarkt,Griffen,46.7044,14.7328
9111,Ruden,Kaernten,Politischer Bezirk Völkermarkt,Ruden,46.6583,14.7764
9112,Ruden,Kaernten,Politischer Bezirk Völkermarkt,Ruden,46.6583,14.7764
9113,Griffen,Kaernten,Politischer Bezirk Völkermarkt,Griffen,46.7044,14.7328
9121,Völkermarkt,Kaernten,Politischer Bezirk Völkermarkt,Völkermarkt,46.6622,14.6344
9122,St.Kanzian am Klopeiner See,Kaernten,Politischer Bezirk Völkermarkt,St. Kanzian am Klopeiner See,46.6167,14.5667
9123,St.Kanzian am Klopeiner See,Kaernten,Politischer Bezirk Völkermarkt,St. Kanzian am Klopeiner See,46.7543,14.491
9125,St.Kanzian am Klopeiner See,Kaernten,Politischer Bezirk Völkermarkt,St. Kanzian am Klopeiner See,46.7772,14.6675
9130,Pubersdorf,Kaernten,Politischer Bezirk Klagenfurt Land,Poggersdorf,46.6511,14.4292
9131,Ebenthal in Kärnten,Kaernten,Politischer Bezirk Klagenfurt Land,Ebenthal in Kärnten,46.695,14.4646
9132,Gallizien,Kaernten,Politischer Bezirk Völkermarkt,Gallizien,46.55,14.5167
9133,Gallizien,Kaernten,Politischer Bezirk Völkermarkt,Gallizien,46.55,14.5167
9135,Eisenkappel-Vellach,Kaernten,Politischer Bezirk Völkermarkt,Eisenkappel-Vellach,46.4861,14.5325
9141,Eberndorf,Kaernten,Politischer Bezirk Völkermarkt,Eberndorf,46.5914,14.6436
9142,Globasnitz,Kaernten,Politischer Bezirk Völkermarkt,Globasnitz,46.5569,14.7028
9143,Feistritz ob Bleiburg,Kaernten,Politischer Bezirk Völkermarkt,Feistritz ob Bleiburg,46.55,14.7667
9150,Bleiburg,Kaernten,Politischer Bezirk Völkermarkt,Bleiburg,46.59,14.7989
9155,Neuhaus,Kaernten,Politischer Bezirk Völkermarkt,Neuhaus,46.6353,14.8903
9161,Maria Rain,Kaernten,Politischer Bezirk Klagenfurt Land,Maria Rain,46.5539,14.2956
9162,Ferlach,Kaernten,Politischer Bezirk Klagenfurt Land,Ferlach,46.5269,14.3019
9163,Ferlach,Kaernten,Politischer Bezirk Klagenfurt Land,Ferlach,46.5269,14.3019
9170,Ferlach,Kaernten,Politischer Bezirk Klagenfurt Land,Ferlach,46.5269,14.3019
9173,Zell,Kaernten,Politischer Bezirk Klagenfurt Land,Zell,46.4722,14.3889
9181,Feistritz im Rosental,Kaernten,Politischer Bezirk Klagenfurt Land,Feistritz im Rosental,46.5167,14.1667
9182,St. Jakob im Rosental,Kaernten,Politischer Bezirk Villach Land,St. Jakob im Rosental,46.5478,14.0572
9183,St. Jakob im Rosental,Kaernten,Politischer Bezirk Villach Land,St. Jakob im Rosental,46.5478,14.0572
9184,St. Jakob im Rosental,Kaernten,Politischer Bezirk Villach Land,St. Jakob im Rosental,46.5478,14.0572
9201,Klagenfurt am Wörthersee,Kaernten,Klagenfurt am Wörthersee,Klagenfurt am Wörthersee,46.6247,14.3053
9210,Krumpendorf am Wörther See,Kaernten,Politischer Bezirk Klagenfurt Land,Krumpendorf am Wörther See,46.6392,14.1811
9212,Techelsberg am Wörther See,Kaernten,Politischer Bezirk Klagenfurt Land,Techelsberg am Wörther See,46.6481,14.0911
9220,Techelsberg am Wörther See,Kaernten,Politischer Bezirk Klagenfurt Land,Techelsberg am Wörther See,46.7807,14.0958
9231,Velden am Wörther See,Kaernten,Politischer Bezirk Villach Land,Velden am Wörther See,46.7429,14.0571
9232,Rosegg,Kaernten,Politischer Bezirk Villach Land,Rosegg,46.5833,14.0333
9241,Wernberg,Kaernten,Politischer Bezirk Villach Land,Wernberg,46.6167,13.9333
9300,Sand,Kaernten,Politischer Bezirk Sankt Veit an der Glan,Frauenstein,46.805,14.3074
9311,Frauenstein,Kaernten,Politischer Bezirk Sankt Veit an der Glan,Frauenstein,46.805,14.3074
9312,Mölbling,Kaernten,Politischer Bezirk Sankt Veit an der Glan,Mölbling,46.8622,14.4481
9313,St. Peter,Kaernten,Politischer Bezirk Sankt Veit an der Glan,St. Georgen am Längsee,46.811,14.4842
9314,Kappel am Krappfeld,Kaernten,Politischer Bezirk Sankt Veit an der Glan,Kappel am Krappfeld,46.8386,14.4864
9321,St. Georgen am Längsee,Kaernten,Politischer Bezirk Sankt Veit an der Glan,St. Georgen am Längsee,46.7806,14.4303
9322,Micheldorf,Kaernten,Politischer Bezirk Sankt Veit an der Glan,Micheldorf,46.9222,14.4405
9323,Dürnstein in der Steiermark,Steiermark,Politischer Bezirk Murau,Dürnstein in der Steiermark,46.9883,14.3917
9330,Mölbling,Kaernten,Politischer Bezirk Sankt Veit an der Glan,Mölbling,46.8622,14.4481
9334,Kappel am Krappfeld,Kaernten,Politischer Bezirk Sankt Veit an der Glan,Kappel am Krappfeld,46.8386,14.4864
9335,Hüttenberg,Kaernten,Politischer Bezirk Sankt Veit an der Glan,Hüttenberg,46.9414,14.55
9341,Mölbling,Kaernten,Politischer Bezirk Sankt Veit an der Glan,Mölbling,46.8622,14.4481
9342,Gurk,Kaernten,Politischer Bezirk Sankt Veit an der Glan,Gurk,46.8739,14.2917
9343,Weitensfeld im Gurktal,Kaernten,Politischer Bezirk Sankt Veit an der Glan,Weitensfeld im Gurktal,46.8961,14.1582
9344,Gurk,Kaernten,Politischer Bezirk Sankt Veit an der Glan,Gurk,46.8739,14.2917
9345,Weitensfeld im Gurktal,Kaernten,Politischer Bezirk Sankt Veit an der Glan,Weitensfeld im Gurktal,46.8623,14.1879
9346,Glödnitz,Kaernten,Politischer Bezirk Sankt Veit an der Glan,Glödnitz,46.8667,14.1167
9360,Friesach,Kaernten,Politischer Bezirk Sankt Veit an der Glan,Friesach,46.9553,14.4058
9361,Friesach,Kaernten,Politischer Bezirk Sankt Veit an der Glan,Friesach,46.9553,14.4058
9362,Metnitz,Kaernten,Politischer Bezirk Sankt Veit an der Glan,Metnitz,46.9806,14.2167
9363,Metnitz,Kaernten,Politischer Bezirk Sankt Veit an der Glan,Metnitz,46.9806,14.2167
9371,Eberstein,Kaernten,Politischer Bezirk Sankt Veit an der Glan,Eberstein,46.7942,14.5947
9372,Klein St. Paul,Kaernten,Politischer Bezirk Sankt Veit an der Glan,Klein St. Paul,46.8361,14.5414
9373,Kappel am Krappfeld,Kaernten,Politischer Bezirk Sankt Veit an der Glan,Kappel am Krappfeld,46.8386,14.4864
9374,Guttaring,Kaernten,Politischer Bezirk Sankt Veit an der Glan,Guttaring,46.8833,14.5
9375,Hüttenberg,Kaernten,Politischer Bezirk Sankt Veit an der Glan,Hüttenberg,46.9414,14.55
9376,Hüttenberg,Kaernten,Politischer Bezirk Sankt Veit an der Glan,Hüttenberg,46.9414,14.55
9400,Frantschach-St. Gertraud,Kaernten,Politischer Bezirk Wolfsberg,Frantschach-St. Gertraud,46.8587,14.9352
9411,Wolfsberg,Kaernten,Politischer Bezirk Wolfsberg,Wolfsberg,46.8406,14.8442
9412,Wolfsberg,Kaernten,Politischer Bezirk Wolfsberg,Wolfsberg,46.8406,14.8442
9413,Frantschach-St. Gertraud,Kaernten,Politischer Bezirk Wolfsberg,Frantschach-St. Gertraud,46.8587,14.9352
9421,Wolfsberg,Kaernten,Politischer Bezirk Wolfsberg,Wolfsberg,46.8406,14.8442
9422,St. Andrä,Kaernten,Politischer Bezirk Wolfsberg,St. Andrä,46.7647,14.8244
9423,St. Georgen im Lavanttal,Kaernten,Politischer Bezirk Wolfsberg,St. Georgen im Lavanttal,46.7399,14.961
9431,Paildorf,Kaernten,Politischer Bezirk Wolfsberg,Wolfsberg,46.8167,14.8667
9433,Wolfsberg,Kaernten,Politischer Bezirk Wolfsberg,Wolfsberg,46.8406,14.8442
9441,Wolfsberg,Kaernten,Politischer Bezirk Wolfsberg,Wolfsberg,46.8406,14.8442
9451,Preitenegg,Kaernten,Politischer Bezirk Wolfsberg,Preitenegg,46.94,14.9258
9461,Bad St.Leonhard i.Lavanttal,Kaernten,Politischer Bezirk Wolfsberg,Bad St. Leonhard im Lavanttal,46.8851,14.811
9462,Wolfsberg,Kaernten,Politischer Bezirk Wolfsberg,Wolfsberg,46.8406,14.8442
9463,Reichenfels,Kaernten,Politischer Bezirk Wolfsberg,Reichenfels,47,14.75
9470,St. Paul im Lavanttal,Kaernten,Politischer Bezirk Wolfsberg,St. Paul im Lavanttal,46.7006,14.8756
9472,Lavamünd,Kaernten,Politischer Bezirk Wolfsberg,Lavamünd,46.65,14.9333
9473,St. Paul im Lavanttal,Kaernten,Politischer Bezirk Wolfsberg,St. Paul im Lavanttal,46.7006,14.8756
9500,Villach,Kaernten,Villach Stadt,Villach,46.6103,13.8558
9504,Villach,Kaernten,Villach Stadt,Villach,46.6103,13.8558
9520,Treffen am Ossiacher See,Kaernten,Politischer Bezirk Villach Land,Treffen am Ossiacher See,46.6618,13.9017
9521,Treffen am Ossiacher See,Kaernten,Politischer Bezirk Villach Land,Treffen am Ossiacher See,46.6846,13.8558
9523,Villach,Kaernten,Villach Stadt,Villach,46.6103,13.8558
9524,Villach,Kaernten,Villach Stadt,Villach,46.6103,13.8558
9530,Bad Bleiberg,Kaernten,Politischer Bezirk Villach Land,Bad Bleiberg,46.6264,13.6897
9531,Nötsch im Gailtal,Kaernten,Politischer Bezirk Villach Land,Nötsch im Gailtal,46.6152,13.6285
9535,Albersdorf,Kaernten,Politischer Bezirk Klagenfurt Land,Schiefling am See,46.5915,14.0992
9536,Ottosch,Kaernten,Politischer Bezirk Klagenfurt Land,Schiefling am See,46.6058,14.0707
9541,Treffen am Ossiacher See,Kaernten,Politischer Bezirk Villach Land,Treffen am Ossiacher See,46.8026,13.9092
9542,Treffen am Ossiacher See,Kaernten,Politischer Bezirk Villach Land,Treffen am Ossiacher See,46.6846,13.8558
9543,Arriach,Kaernten,Politischer Bezirk Villach Land,Arriach,46.7319,13.8519
9544,Wiesen,Kaernten,Politischer Bezirk Villach Land,Feld am See,46.7716,13.7531
9545,Radenthein,Kaernten,Politischer Bezirk Spittal an der Drau,Radenthein,46.8006,13.7117
9546,Bad Kleinkirchheim,Kaernten,Politischer Bezirk Spittal an der Drau,Bad Kleinkirchheim,46.8228,13.7922
9551,Treffen am Ossiacher See,Kaernten,Politischer Bezirk Villach Land,Treffen am Ossiacher See,46.6846,13.8558
9552,Steindorf am Ossiacher See,Kaernten,Feldkirchen,Steindorf am Ossiacher See,46.6983,14.0092
9554,St. Urban,Kaernten,Feldkirchen,St. Urban,46.7167,14.2857
9555,Liebenfels,Kaernten,Politischer Bezirk Sankt Veit an der Glan,Liebenfels,46.7378,14.2867
9556,Liebenfels,Kaernten,Politischer Bezirk Sankt Veit an der Glan,Liebenfels,46.7378,14.2867
9560,Moosburg,Kaernten,Politischer Bezirk Klagenfurt Land,Moosburg,46.6575,14.1747
9562,Himmelberg,Kaernten,Feldkirchen,Himmelberg,46.7567,14.0306
9563,Gnesau,Kaernten,Feldkirchen,Gnesau,46.7778,13.9656
9564,Reichenau,Kaernten,Feldkirchen,Reichenau,46.85,13.9
9565,Reichenau,Kaernten,Feldkirchen,Reichenau,46.85,13.9
9570,Ossiach,Kaernten,Feldkirchen,Ossiach,46.6667,13.9833
9571,Deutsch-Griffen,Kaernten,Politischer Bezirk Sankt Veit an der Glan,Deutsch-Griffen,46.85,14.0667
9572,Deutsch-Griffen,Kaernten,Politischer Bezirk Sankt Veit an der Glan,Deutsch-Griffen,46.85,14.0667
9580,Villach,Kaernten,Villach Stadt,Villach,46.6103,13.8558
9581,Rosegg,Kaernten,Politischer Bezirk Villach Land,Rosegg,46.5833,14.0333
9582,Oberaichwald,Kaernten,Politischer Bezirk Villach Land,Finkenstein am Faaker See,46.56,13.9258
9583,Finkenstein am Faaker See,Kaernten,Politischer Bezirk Villach Land,Finkenstein am Faaker See,46.5656,13.8653
9584,Finkenstein am Faaker See,Kaernten,Politischer Bezirk Villach Land,Finkenstein am Faaker See,46.5656,13.8653
9585,Villach,Kaernten,Villach Stadt,Villach,46.6103,13.8558
9586,Villach,Kaernten,Villach Stadt,Villach,46.6103,13.8558
9587,Villach,Kaernten,Villach Stadt,Villach,46.6103,13.8558
9601,Hohenthurn,Kaernten,Politischer Bezirk Villach Land,Hohenthurn,46.5583,13.6678
9602,Arnoldstein,Kaernten,Politischer Bezirk Villach Land,Arnoldstein,46.5461,13.71
9611,Nötsch im Gailtal,Kaernten,Politischer Bezirk Villach Land,Nötsch im Gailtal,46.6014,13.6382
9612,Nötsch im Gailtal,Kaernten,Politischer Bezirk Villach Land,Nötsch im Gailtal,46.6227,13.6227
9613,Feistritz an der Gail,Kaernten,Politischer Bezirk Villach Land,Feistritz an der Gail,46.5775,13.6067
9614,St. Stefan im Gailtal,Kaernten,Politischer Bezirk Hermagor,St. Stefan im Gailtal,46.6167,13.5167
9615,Hermagor-Pressegger See,Kaernten,Politischer Bezirk Hermagor,Hermagor-Pressegger See,46.6088,13.3446
9620,Hermagor-Pressegger See,Kaernten,Politischer Bezirk Hermagor,Hermagor-Pressegger See,46.6088,13.3446
9622,Gitschtal,Kaernten,Politischer Bezirk Hermagor,Gitschtal,46.677,13.2741
9623,St. Stefan im Gailtal,Kaernten,Politischer Bezirk Hermagor,St. Stefan im Gailtal,46.6167,13.5167
9624,Hermagor-Pressegger See,Kaernten,Politischer Bezirk Hermagor,Hermagor-Pressegger See,46.6088,13.3446
9631,Hermagor-Pressegger See,Kaernten,Politischer Bezirk Hermagor,Hermagor-Pressegger See,46.6088,13.3446
9632,Kirchbach,Kaernten,Politischer Bezirk Hermagor,Kirchbach,46.6384,13.1659
9633,Kirchbach,Kaernten,Politischer Bezirk Hermagor,Kirchbach,46.6384,13.1659
9634,Kirchbach,Kaernten,Politischer Bezirk Hermagor,Kirchbach,46.6384,13.1659
9635,Dellach,Kaernten,Politischer Bezirk Hermagor,Dellach,46.7375,13.0783
9640,Dellach,Kaernten,Politischer Bezirk Hermagor,Dellach,46.7375,13.0783
9651,Kötschach-Mauthen,Kaernten,Politischer Bezirk Hermagor,Kötschach-Mauthen,46.6938,12.9444
9652,Kötschach-Mauthen,Kaernten,Politischer Bezirk Hermagor,Kötschach-Mauthen,46.7931,12.9536
9653,Lesachtal,Kaernten,Politischer Bezirk Hermagor,Lesachtal,46.6852,12.8046
9654,Lesachtal,Kaernten,Politischer Bezirk Hermagor,Lesachtal,46.6852,12.8046
9655,Lesachtal,Kaernten,Politischer Bezirk Hermagor,Lesachtal,46.6852,12.8046
9701,Spittal an der Drau,Kaernten,Politischer Bezirk Spittal an der Drau,Spittal an der Drau,46.8,13.5
9702,Spittal an der Drau,Kaernten,Politischer Bezirk Spittal an der Drau,Spittal an der Drau,46.8,13.5
9710,Neu-Feffernitz,Kaernten,Politischer Bezirk Villach Land,Paternion,46.6754,13.5968
9711,Stockenboi,Kaernten,Politischer Bezirk Villach Land,Stockenboi,46.7261,13.5231
9712,Fresach,Kaernten,Politischer Bezirk Villach Land,Fresach,46.7156,13.6908
9713,Stockenboi,Kaernten,Politischer Bezirk Villach Land,Stockenboi,46.7261,13.5231
9714,Stockenboi,Kaernten,Politischer Bezirk Villach Land,Stockenboi,46.7261,13.5231
9721,Lansach,Kaernten,Politischer Bezirk Villach Land,Weißenstein,46.6783,13.6972
9722,Weißenstein,Kaernten,Politischer Bezirk Villach Land,Weißenstein,46.6858,13.7303
9751,Sachsenburg,Kaernten,Politischer Bezirk Spittal an der Drau,Sachsenburg,46.8292,13.355
9753,Kleblach-Lind,Kaernten,Politischer Bezirk Spittal an der Drau,Kleblach-Lind,46.7742,13.3612
9754,Steinfeld,Kaernten,Politischer Bezirk Spittal an der Drau,Steinfeld,46.7698,13.2761
9761,Berg im Drautal,Kaernten,Politischer Bezirk Spittal an der Drau,Berg im Drautal,46.7492,13.1354
9762,Weißensee,Kaernten,Politischer Bezirk Spittal an der Drau,Weißensee,46.7251,13.5415
9771,Berg im Drautal,Kaernten,Politischer Bezirk Spittal an der Drau,Berg im Drautal,46.7492,13.1354
9772,Dellach im Drautal,Kaernten,Politischer Bezirk Spittal an der Drau,Dellach im Drautal,46.7375,13.0783
9773,Irschen,Kaernten,Politischer Bezirk Spittal an der Drau,Irschen,46.7569,13.0253
9781,Irschen,Kaernten,Politischer Bezirk Spittal an der Drau,Irschen,46.7569,13.0253
9782,Nikolsdorf,Tirol,Politischer Bezirk Lienz,Nikolsdorf,46.7858,12.9133
9800,Lendorf,Kaernten,Politischer Bezirk Spittal an der Drau,Lendorf,46.8581,13.4305
9805,Baldramsdorf,Kaernten,Politischer Bezirk Spittal an der Drau,Baldramsdorf,46.8011,13.4533
9811,Lurnfeld,Kaernten,Politischer Bezirk Spittal an der Drau,Lurnfeld,46.861,13.3844
9812,Lurnfeld,Kaernten,Politischer Bezirk Spittal an der Drau,Lurnfeld,46.861,13.3844
9813,Lurnfeld,Kaernten,Politischer Bezirk Spittal an der Drau,Lurnfeld,46.861,13.3844
9814,Mühldorf,Kaernten,Politischer Bezirk Spittal an der Drau,Mühldorf,46.8747,13.3455
9815,Reißeck,Kaernten,Politischer Bezirk Spittal an der Drau,Reißeck,46.8877,13.2546
9816,Reißeck,Kaernten,Politischer Bezirk Spittal an der Drau,Reißeck,46.8877,13.2546
9821,Obervellach,Kaernten,Politischer Bezirk Spittal an der Drau,Obervellach,46.9331,13.1974
9822,Mallnitz,Kaernten,Politischer Bezirk Spittal an der Drau,Mallnitz,46.9917,13.1678
9831,Flattach,Kaernten,Politischer Bezirk Spittal an der Drau,Flattach,46.9386,13.1344
9832,Stall,Kaernten,Politischer Bezirk Spittal an der Drau,Stall,46.8906,13.0369
9833,Winklern,Kaernten,Politischer Bezirk Spittal an der Drau,Winklern,46.8815,12.8662
9841,Winklern,Kaernten,Politischer Bezirk Spittal an der Drau,Winklern,46.8815,12.8662
9842,Mörtschach,Kaernten,Politischer Bezirk Spittal an der Drau,Mörtschach,46.9239,12.9178
9843,Großkirchheim,Kaernten,Politischer Bezirk Spittal an der Drau,Großkirchheim,46.9735,12.9048
9844,Heiligenblut,Kaernten,Politischer Bezirk Spittal an der Drau,Heiligenblut,47.0333,12.8333
9851,Seeboden,Kaernten,Politischer Bezirk Spittal an der Drau,Seeboden,46.8219,13.495
9852,Trebesing,Kaernten,Politischer Bezirk Spittal an der Drau,Trebesing,46.8864,13.5103
9853,Malta,Kaernten,Politischer Bezirk Spittal an der Drau,Malta,46.95,13.5
9854,Malta,Kaernten,Politischer Bezirk Spittal an der Drau,Malta,46.95,13.5
9861,Heitzelsberg,Kaernten,Politischer Bezirk Spittal an der Drau,Krems in Kärnten,46.9333,13.5667
9862,Rennweg am Katschberg,Kaernten,Politischer Bezirk Spittal an der Drau,Rennweg am Katschberg,47.0315,13.5672
9863,Rennweg am Katschberg,Kaernten,Politischer Bezirk Spittal an der Drau,Rennweg am Katschberg,47.0315,13.5672
9871,Seeboden,Kaernten,Politischer Bezirk Spittal an der Drau,Seeboden,46.8219,13.495
9872,Millstatt,Kaernten,Politischer Bezirk Spittal an der Drau,Millstatt,46.8042,13.5806
9873,Radenthein,Kaernten,Politischer Bezirk Spittal an der Drau,Radenthein,46.8006,13.7117
9900,Amlach,Tirol,Politischer Bezirk Lienz,Amlach,46.78,12.7655
9904,Thurn,Tirol,Politischer Bezirk Lienz,Thurn,46.85,12.7667
9905,Gaimberg,Tirol,Politischer Bezirk Lienz,Gaimberg,46.85,12.7833
9906,Lavant,Tirol,Politischer Bezirk Lienz,Lavant,46.7989,12.8381
9907,Tristach,Tirol,Politischer Bezirk Lienz,Tristach,46.8161,12.7897
9909,Leisach,Tirol,Politischer Bezirk Lienz,Leisach,46.8125,12.7486
9911,Assling,Tirol,Politischer Bezirk Lienz,Assling,46.7833,12.6333
9912,Anras,Tirol,Politischer Bezirk Lienz,Anras,46.7739,12.5608
9913,Abfaltersbach,Tirol,Politischer Bezirk Lienz,Abfaltersbach,46.7603,12.5419
9918,Strassen,Tirol,Politischer Bezirk Lienz,Strassen,46.7539,12.4842
9919,Heinfels,Tirol,Politischer Bezirk Lienz,Heinfels,46.75,12.45
9920,Sillian,Tirol,Politischer Bezirk Lienz,Sillian,46.7528,12.4211
9931,Außervillgraten,Tirol,Politischer Bezirk Lienz,Außervillgraten,46.7875,12.4314
9932,Innervillgraten,Tirol,Politischer Bezirk Lienz,Innervillgraten,46.8119,12.3747
9941,Kartitsch,Tirol,Politischer Bezirk Lienz,Kartitsch,46.7289,12.5008
9942,Obertilliach,Tirol,Politischer Bezirk Lienz,Obertilliach,46.7106,12.6144
9943,Untertilliach,Tirol,Politischer Bezirk Lienz,Untertilliach,46.7042,12.7086
9951,Ainet,Tirol,Politischer Bezirk Lienz,Ainet,46.8661,12.7014
9952,St. Johann im Walde,Tirol,Politischer Bezirk Lienz,St. Johann im Walde,46.8942,12.6303
9954,Schlaiten,Tirol,Politischer Bezirk Lienz,Schlaiten,46.8794,12.6542
9961,Hopfgarten in Defereggen,Tirol,Politischer Bezirk Lienz,Hopfgarten in Defereggen,46.9192,12.5364
9962,St. Veit in Defereggen,Tirol,Politischer Bezirk Lienz,St. Veit in Defereggen,46.9272,12.4297
9963,St. Jakob in Defereggen,Tirol,Politischer Bezirk Lienz,St. Jakob in Defereggen,46.9197,12.3314
9971,Matrei in Osttirol,Tirol,Politischer Bezirk Lienz,Matrei in Osttirol,47,12.5333
9972,Virgen,Tirol,Politischer Bezirk Lienz,Virgen,47,12.45
9974,Prägraten am Großvenediger,Tirol,Politischer Bezirk Lienz,Prägraten am Großvenediger,47.0342,12.3111
9981,Kals am Großglockner,Tirol,Politischer Bezirk Lienz,Kals am Großglockner,47.0023,12.6455
9990,Nußdorf-Debant,Tirol,Politischer Bezirk Lienz,Nußdorf-Debant,46.9052,12.7721
9991,Dölsach,Tirol,Politischer Bezirk Lienz,Dölsach,46.8283,12.8453
9992,Iselsberg-Stronach,Tirol,Politischer Bezirk Lienz,Iselsberg-Stronach,46.8357,12.8497
