Postal Code,Place Name,State,State Abbreviation,City,Latitude,Longitude
1000,Bruxelles,Bruxelles-Capitale,BRU,Bruxelles,50.8466,4.3528
1005,Conseil Region Bruxelles-Capitale,Bruxelles-Capitale,BRU,Bruxelles,50.8466,4.3528
1006,Raad Vlaamse Gemeenschapscommissie,Bruxelles-Capitale,BRU,Bruxelles,50.8466,4.3528
1007,Ass. Commiss. Communau. française,Bruxelles-Capitale,BRU,Bruxelles,50.8466,4.3528
1008,Chambre des Représentants,Bruxelles-Capitale,BRU,Bruxelles,50.8466,4.3528
1009,Senat de Belgique,Bruxelles-Capitale,BRU,Bruxelles,50.8466,4.3528
1010,Cité Administrative de l'Etat,Bruxelles-Capitale,BRU,Bruxelles,50.8476,4.3428
1011,Vlaamse Raad - Vlaams Parlement,Bruxelles-Capitale,BRU,Bruxelles,50.8476,4.3428
1012,Parlement de la Communauté française,Bruxelles-Capitale,BRU,Bruxelles,50.8476,4.3428
1020,Bruxelles Laeken,Bruxelles-Capitale,BRU,Bruxelles,50.8466,4.3528
1030,Bruxelles,Bruxelles-Capitale,BRU,Bruxelles,50.8466,4.3528
1031,Organisations Sociales Chrétiennes,Bruxelles-Capitale,BRU,Bruxelles,50.8483,4.3681
1040,Bruxelles Etterbeek,Bruxelles-Capitale,BRU,Bruxelles,50.8358,4.388
1041,International Press Center,Bruxelles-Capitale,BRU,Bruxelles,50.8412,4.3704
1043,VRT,Bruxelles-Capitale,BRU,Bruxelles,50.8412,4.3704
1044,RTBF,Bruxelles-Capitale,BRU,Bruxelles,50.8412,4.3704
1045,D.I.V.,Bruxelles-Capitale,BRU,Bruxelles,50.8412,4.3704
1047,Parlement Européen,Bruxelles-Capitale,BRU,Bruxelles,50.8412,4.3704
1048,U.E.-Conseil,Bruxelles-Capitale,BRU,Bruxelles,50.8412,4.3704
1049,U.E.-Commission,Bruxelles-Capitale,BRU,Bruxelles,50.8412,4.3704
1050,Bruxelles,Bruxelles-Capitale,BRU,Bruxelles,50.8466,4.3528
1060,Bruxelles Saint-Gilles,Bruxelles-Capitale,BRU,Bruxelles,50.8167,4.3333
1070,Bruxelles Anderlecht,Bruxelles-Capitale,BRU,Bruxelles,50.8333,4.3
1080,Bruxelles Molenbeek-Saint-Jean,Bruxelles-Capitale,BRU,Bruxelles,50.85,4.3167
1081,Bruxelles Koekelberg,Bruxelles-Capitale,BRU,Bruxelles,50.8667,4.3333
1082,Bruxelles Berchem-Sainte-Agathe,Bruxelles-Capitale,BRU,Bruxelles,50.8667,4.2833
1083,Bruxelles Ganshoren,Bruxelles-Capitale,BRU,Bruxelles,50.8667,4.3
1090,Bruxelles,Bruxelles-Capitale,BRU,Bruxelles,50.8466,4.3528
1110,OTAN - NATO,Bruxelles-Capitale,BRU,Bruxelles,50.8765,4.422
1120,Bruxelles Nederover-Heembeek,Bruxelles-Capitale,BRU,Bruxelles,50.8466,4.3528
1130,Bruxelles,Bruxelles-Capitale,BRU,Bruxelles,50.8466,4.3528
1140,Bruxelles Evere,Bruxelles-Capitale,BRU,Bruxelles,50.8667,4.4
1150,Bruxelles Woluwe-Saint-Pierre,Bruxelles-Capitale,BRU,Bruxelles,50.8333,4.4167
1160,Bruxelles,Bruxelles-Capitale,BRU,Bruxelles,50.8466,4.3528
1170,Bruxelles,Bruxelles-Capitale,BRU,Bruxelles,50.8466,4.3528
1180,Bruxelles Uccle,Bruxelles-Capitale,BRU,Bruxelles,50.8,4.3167
1190,Bruxelles Forest,Bruxelles-Capitale,BRU,Bruxelles,50.8,4.3167
1200,Bruxelles Woluwé-Saint-Lambert,Bruxelles-Capitale,BRU,Bruxelles,50.85,4.4
1201,R.T.L. - T.V.I.,Bruxelles-Capitale,BRU,Bruxelles,50.8425,4.426
1210,Bruxelles Saint-Josseten-Noode,Bruxelles-Capitale,BRU,Bruxelles,50.8466,4.3528
1212,SPF Mobilité,Bruxelles-Capitale,BRU,Bruxelles,50.8573,4.3593
1500,Halle,Vlaanderen,VLG,Vlaams Brabant,50.741,4.2325
1501,Halle,Vlaanderen,VLG,Vlaams Brabant,50.741,4.2325
1502,Halle Lembeek,Vlaanderen,VLG,Vlaams Brabant,50.741,4.2325
1540,Herne Herfelingen,Vlaanderen,VLG,Vlaams Brabant,50.75,4.1
1541,Herne Sint-Pieters-Kapelle,Vlaanderen,VLG,Vlaams Brabant,50.7167,4.0333
1547,Bever,Vlaanderen,VLG,Vlaams Brabant,50.9167,4.3167
1560,Hoeilaart,Vlaanderen,VLG,Vlaams Brabant,50.7667,4.4667
1570,Galmaarden,Vlaanderen,VLG,Vlaams Brabant,50.75,3.9667
1600,Sint-Pieters-Leeuw,Vlaanderen,VLG,Vlaams Brabant,50.7833,4.2333
1601,Sint-Pieters-Leeuw Ruisbroek,Vlaanderen,VLG,Vlaams Brabant,50.7875,4.2167
1602,Sint-Pieters-Leeuw Vlezenbeek,Vlaanderen,VLG,Vlaams Brabant,50.8,4.2333
1620,Drogenbos,Vlaanderen,VLG,Vlaams Brabant,50.7833,4.3167
1630,Linkebeek,Vlaanderen,VLG,Vlaams Brabant,50.7667,4.3333
1640,Sint-Genesius-Rode,Vlaanderen,VLG,Vlaams Brabant,50.75,4.35
1650,Beersel,Vlaanderen,VLG,Vlaams Brabant,50.7667,4.3
1651,Beersel,Vlaanderen,VLG,Vlaams Brabant,50.7667,4.3
1652,Beersel,Vlaanderen,VLG,Vlaams Brabant,50.7667,4.3
1653,Beersel Dworp,Vlaanderen,VLG,Vlaams Brabant,50.7333,4.3
1654,Beersel Huizingen,Vlaanderen,VLG,Vlaams Brabant,50.75,4.2833
1670,Pepingen Heikruis,Vlaanderen,VLG,Vlaams Brabant,50.7333,4.1167
1671,Pepingen Elingen,Vlaanderen,VLG,Vlaams Brabant,50.7833,4.1667
1673,Pepingen Beert,Vlaanderen,VLG,Vlaams Brabant,50.7333,4.1833
1674,Pepingen Bellingen,Vlaanderen,VLG,Vlaams Brabant,50.75,4.15
1700,Dilbeek,Vlaanderen,VLG,Vlaams Brabant,50.85,4.2667
1701,Dilbeek,Vlaanderen,VLG,Vlaams Brabant,50.85,4.2667
1702,Dilbeek Groot-Bijgaarden,Vlaanderen,VLG,Vlaams Brabant,50.8667,4.25
1703,Dilbeek Schepdaal,Vlaanderen,VLG,Vlaams Brabant,50.8333,4.1833
1730,Asse Mollem,Vlaanderen,VLG,Vlaams Brabant,50.9333,4.2333
1731,Asse Relegem,Vlaanderen,VLG,Vlaams Brabant,50.9,4.2833
1740,Ternat,Vlaanderen,VLG,Vlaams Brabant,50.8667,4.1833
1741,Ternat Wambeek,Vlaanderen,VLG,Vlaams Brabant,50.85,4.1667
1742,Ternat Sint-Katherina-Lombeek,Vlaanderen,VLG,Vlaams Brabant,50.8667,4.15
1745,Opwijk Mazenzele,Vlaanderen,VLG,Vlaams Brabant,50.95,4.1667
1750,Lennik,Vlaanderen,VLG,Vlaams Brabant,50.8063,4.1684
1755,Gooik Oetingen,Vlaanderen,VLG,Vlaams Brabant,50.7667,4.0667
1760,Roosdaal Pamel,Vlaanderen,VLG,Vlaams Brabant,50.8461,4.0691
1761,Roosdaal,Vlaanderen,VLG,Vlaams Brabant,50.849,4.1372
1770,Liedekerke,Vlaanderen,VLG,Vlaams Brabant,50.8667,4.0833
1780,Wemmel,Vlaanderen,VLG,Vlaams Brabant,50.9167,4.3
1785,Merchtem Hamme,Vlaanderen,VLG,Vlaams Brabant,50.95,4.25
1790,Affligem Essene,Vlaanderen,VLG,Vlaams Brabant,50.9,4.1333
1800,Vilvoorde Peutie,Vlaanderen,VLG,Vlaams Brabant,50.9333,4.45
1804,Cargovil,Vlaanderen,VLG,Vlaams Brabant Halle-Vilvoorde,50.9473,4.4273
1818,VTM,Vlaanderen,VLG,Vlaams Brabant Halle-Vilvoorde,50.9142,4.399
1820,Steenokkerzeel Perk,Vlaanderen,VLG,Vlaams Brabant,50.9333,4.5
1830,Machelen,Vlaanderen,VLG,Vlaams Brabant,50.9167,4.4333
1831,Machelen,Vlaanderen,VLG,Vlaams Brabant,50.9167,4.4333
1840,Londerzeel,Vlaanderen,VLG,Vlaams Brabant,51,4.3
1850,Grimbergen,Vlaanderen,VLG,Vlaams Brabant,50.9333,4.3833
1851,Grimbergen Humbeek,Vlaanderen,VLG,Vlaams Brabant,50.9667,4.3833
1852,Grimbergen,Vlaanderen,VLG,Vlaams Brabant,50.9333,4.3833
1853,Grimbergen Strombeek-Bever,Vlaanderen,VLG,Vlaams Brabant,50.9,4.35
1860,Meise,Vlaanderen,VLG,Vlaams Brabant,50.9333,4.3333
1861,Meise Wolvertem,Vlaanderen,VLG,Vlaams Brabant,50.95,4.3
1880,Kapelleopden-Bos Ramsdonk,Vlaanderen,VLG,Vlaams Brabant,50.9412,4.386
1910,Kampenhout Buken,Vlaanderen,VLG,Vlaams Brabant,50.9333,4.6167
1930,Zaventem,Vlaanderen,VLG,Vlaams Brabant,50.8833,4.4667
1931,Brucargo,Vlaanderen,VLG,Vlaams Brabant Halle-Vilvoorde,50.9033,4.4522
1932,Zaventem,Vlaanderen,VLG,Vlaams Brabant,50.8833,4.4667
1933,Zaventem Sterrebeek,Vlaanderen,VLG,Vlaams Brabant,50.8667,4.5167
1934,Bruxelles X-Aeroport Remailing,Vlaanderen,VLG,Vlaams Brabant Halle-Vilvoorde,50.8923,4.4878
1950,Kraainem,Vlaanderen,VLG,Vlaams Brabant,50.8667,4.4667
1970,Wezembeek-Oppem,Vlaanderen,VLG,Vlaams Brabant,50.85,4.4833
1980,Zemst,Vlaanderen,VLG,Vlaams Brabant,50.9833,4.4667
1981,Zemst Hofstade,Vlaanderen,VLG,Vlaams Brabant,50.9833,4.4667
1982,Zemst Weerde,Vlaanderen,VLG,Vlaams Brabant,50.9667,4.4833
2000,Antwerpen,Vlaanderen,VLG,Antwerpen,51.2167,4.4167
2018,Antwerpen,Vlaanderen,VLG,Antwerpen,51.2167,4.4167
2020,Antwerpen,Vlaanderen,VLG,Antwerpen,51.2167,4.4167
2030,Antwerpen,Vlaanderen,VLG,Antwerpen,51.2167,4.4167
2040,"Antwerpen Berendrecht-Zandvliet-Lillo, Lillo",Vlaanderen,VLG,Antwerpen,51.2167,4.4167
2050,Antwerpen,Vlaanderen,VLG,Antwerpen,51.2167,4.4167
2060,Antwerpen,Vlaanderen,VLG,Antwerpen,51.2167,4.4167
2070,Zwijndrecht,Vlaanderen,VLG,Antwerpen,51.2167,4.3333
2100,Antwerpen Deurne,Vlaanderen,VLG,Antwerpen,51.2167,4.4167
2110,Wijnegem,Vlaanderen,VLG,Antwerpen,51.2333,4.5333
2140,Antwerpen,Vlaanderen,VLG,Antwerpen,51.2167,4.4167
2150,Borsbeek,Vlaanderen,VLG,Antwerpen,51.2,4.4833
2160,Wommelgem,Vlaanderen,VLG,Antwerpen,51.2,4.5167
2170,Antwerpen,Vlaanderen,VLG,Antwerpen,51.2167,4.4167
2180,Antwerpen,Vlaanderen,VLG,Antwerpen,51.2167,4.4167
2200,Herentals Morkhoven,Vlaanderen,VLG,Antwerpen,51.1167,4.8
2220,Heistopden-Berg,Vlaanderen,VLG,Antwerpen,51.1605,4.7784
2221,Heistopden-Berg Booischot,Vlaanderen,VLG,Antwerpen,51.1605,4.7784
2222,Heistopden-Berg Wiekevorst,Vlaanderen,VLG,Antwerpen,51.1605,4.7784
2223,Heistopden-Berg Schriek,Vlaanderen,VLG,Antwerpen,51.1605,4.7784
2230,Herselt,Vlaanderen,VLG,Antwerpen,51.05,4.8833
2235,Hulshout,Vlaanderen,VLG,Antwerpen,51.0833,4.7833
2240,Zandhoven Viersel,Vlaanderen,VLG,Antwerpen,51.1833,4.6333
2242,Zandhoven,Vlaanderen,VLG,Antwerpen,51.2167,4.65
2243,Zandhoven Pulle,Vlaanderen,VLG,Antwerpen,51.2,4.7
2250,Olen,Vlaanderen,VLG,Antwerpen,51.15,4.85
2260,Westerlo Zoerle-Parwijs,Vlaanderen,VLG,Antwerpen,51.0833,4.8667
2270,Herenthout,Vlaanderen,VLG,Antwerpen,51.15,4.7667
2275,Lille Wechelderzande,Vlaanderen,VLG,Antwerpen,51.2667,4.7667
2280,Grobbendonk,Vlaanderen,VLG,Antwerpen,51.2,4.7167
2288,Grobbendonk,Vlaanderen,VLG,Antwerpen,51.2,4.7167
2290,Vorselaar,Vlaanderen,VLG,Antwerpen,51.2,4.7667
2300,Turnhout,Vlaanderen,VLG,Antwerpen,51.3167,4.95
2310,Rijkevorsel,Vlaanderen,VLG,Antwerpen,51.35,4.7667
2320,Hoogstraten,Vlaanderen,VLG,Antwerpen,51.4,4.7667
2321,Hoogstraten Meer,Vlaanderen,VLG,Antwerpen,51.45,4.7333
2322,Hoogstraten,Vlaanderen,VLG,Antwerpen,51.4,4.7667
2323,Hoogstraten Wortel,Vlaanderen,VLG,Antwerpen,51.4,4.8
2328,Hoogstraten,Vlaanderen,VLG,Antwerpen,51.4,4.7667
2330,Merksplas,Vlaanderen,VLG,Antwerpen,51.3667,4.8667
2340,Beerse,Vlaanderen,VLG,Antwerpen,51.3167,4.8667
2350,Vosselaar,Vlaanderen,VLG,Antwerpen,51.3167,4.8833
2360,Oud-Turnhout,Vlaanderen,VLG,Antwerpen,51.3167,4.9833
2370,Arendonk,Vlaanderen,VLG,Antwerpen,51.3167,5.0833
2380,Ravels,Vlaanderen,VLG,Antwerpen,51.3667,5
2381,Ravels,Vlaanderen,VLG,Antwerpen,51.3667,5
2382,Ravels,Vlaanderen,VLG,Antwerpen,51.3667,5
2387,Baarle-Hertog,Vlaanderen,VLG,Antwerpen,51.45,4.9333
2390,Malle,Vlaanderen,VLG,Antwerpen,51.3,4.7083
2400,Mol,Vlaanderen,VLG,Antwerpen,51.1833,5.1
2430,Laakdal Vorst,Vlaanderen,VLG,Antwerpen,51.1,5
2431,Herselt Varendonk,Vlaanderen,VLG,Antwerpen,51.0583,4.9417
2440,Geel,Vlaanderen,VLG,Antwerpen,51.1667,5
2450,Meerhout,Vlaanderen,VLG,Antwerpen,51.35,4.75
2460,Kasterlee Tielen,Vlaanderen,VLG,Antwerpen,51.2333,4.8833
2470,Retie,Vlaanderen,VLG,Antwerpen,51.2667,5.0667
2480,Dessel,Vlaanderen,VLG,Antwerpen,51.2333,5.1167
2490,Balen,Vlaanderen,VLG,Antwerpen,51.1667,5.15
2491,Balen Olmen,Vlaanderen,VLG,Antwerpen,51.15,5.1667
2500,Lier,Vlaanderen,VLG,Antwerpen,51.1,4.6
2520,Ranst Emblem,Vlaanderen,VLG,Antwerpen,51.1667,4.6
2530,Boechout,Vlaanderen,VLG,Antwerpen,51.1667,4.5
2531,Boechout Vremde,Vlaanderen,VLG,Antwerpen,51.1833,4.5167
2540,Hove,Vlaanderen,VLG,Antwerpen,51.15,4.4667
2547,Lint,Vlaanderen,VLG,Antwerpen,51.1333,4.5
2550,Kontich,Vlaanderen,VLG,Antwerpen,51.1333,4.45
2560,Nijlen Bevel,Vlaanderen,VLG,Antwerpen,51.1333,4.6833
2570,Duffel,Vlaanderen,VLG,Antwerpen,51.1,4.5167
2580,Putte Beerzel,Vlaanderen,VLG,Antwerpen,51.0667,4.6667
2590,Berlaar Gestel,Vlaanderen,VLG,Antwerpen,51.1333,4.65
2600,Antwerpen,Vlaanderen,VLG,Antwerpen,51.2167,4.4167
2610,Antwerpen,Vlaanderen,VLG,Antwerpen,51.2167,4.4167
2620,Hemiksem,Vlaanderen,VLG,Antwerpen,51.15,4.35
2627,Schelle,Vlaanderen,VLG,Antwerpen,51.1333,4.3333
2630,Aartselaar,Vlaanderen,VLG,Antwerpen,51.1333,4.3833
2640,Mortsel,Vlaanderen,VLG,Antwerpen,51.1667,4.4667
2650,Edegem,Vlaanderen,VLG,Antwerpen,51.15,4.45
2660,Antwerpen Hoboken,Vlaanderen,VLG,Antwerpen,51.1667,4.35
2800,Mechelen,Vlaanderen,VLG,Antwerpen,51.0333,4.4667
2801,Mechelen Heffen,Vlaanderen,VLG,Antwerpen,51.05,4.4167
2811,Mechelen Hombeek,Vlaanderen,VLG,Antwerpen,51.0167,4.45
2812,Mechelen Muizen,Vlaanderen,VLG,Antwerpen,51.0333,4.4667
2820,Bonheiden,Vlaanderen,VLG,Antwerpen,51.0226,4.5471
2830,Willebroek Tisselt,Vlaanderen,VLG,Antwerpen,51.0333,4.3667
2840,Rumst Terhagen,Vlaanderen,VLG,Antwerpen,51.0833,4.4
2845,Niel,Vlaanderen,VLG,Antwerpen,51.1167,4.3333
2850,Boom,Vlaanderen,VLG,Antwerpen,51.0833,4.3667
2860,Sint-Katelijne-Waver,Vlaanderen,VLG,Antwerpen,51.0667,4.5333
2861,Sint-Katelijne-Waver Onze-Lieve-Vrouw-Waver,Vlaanderen,VLG,Antwerpen,51.0667,4.5667
2870,Puurs Ruisbroek,Vlaanderen,VLG,Antwerpen,51.0667,4.3
2880,Bornem Hingene,Vlaanderen,VLG,Antwerpen,51.1,4.2667
2890,Sint-Amands Lippelo,Vlaanderen,VLG,Antwerpen,51.05,4.2667
2900,Schoten,Vlaanderen,VLG,Antwerpen,51.25,4.5
2910,Essen,Vlaanderen,VLG,Antwerpen,51.4667,4.4667
2920,Kalmthout,Vlaanderen,VLG,Antwerpen,51.3833,4.4667
2930,Brasschaat,Vlaanderen,VLG,Antwerpen,51.2833,4.45
2940,Stabroek Hoevenen,Vlaanderen,VLG,Antwerpen,51.3,4.3833
2950,Kapellen,Vlaanderen,VLG,Antwerpen,51.3167,4.4333
2960,Brecht Sint-Jobin't-Goor,Vlaanderen,VLG,Antwerpen,51.35,4.6583
2970,Schilde 's Gravenwezel,Vlaanderen,VLG,Antwerpen,51.2333,4.5667
2980,Zoersel Halle,Vlaanderen,VLG,Antwerpen,51.2667,4.7
2990,Wuustwezel,Vlaanderen,VLG,Antwerpen,51.3833,4.6
3000,Leuven,Vlaanderen,VLG,Vlaams Brabant,50.8796,4.7009
3001,Leuven,Vlaanderen,VLG,Vlaams Brabant,50.8796,4.7009
3010,Leuven,Vlaanderen,VLG,Vlaams Brabant,50.8796,4.7009
3012,Leuven Wilsele,Vlaanderen,VLG,Vlaams Brabant,50.8796,4.7009
3018,Leuven Wijgmaal,Vlaanderen,VLG,Vlaams Brabant,50.8796,4.7009
3020,Herent Winksele,Vlaanderen,VLG,Vlaams Brabant,50.9,4.65
3040,Huldenberg Neerijse,Vlaanderen,VLG,Vlaams Brabant,50.8167,4.6167
3050,Oud-Heverlee,Vlaanderen,VLG,Vlaams Brabant,50.8333,4.6667
3051,Oud-Heverlee Sint-Joris-Weert,Vlaanderen,VLG,Vlaams Brabant,50.8,4.65
3052,Oud-Heverlee Blanden,Vlaanderen,VLG,Vlaams Brabant,50.8333,4.7167
3053,Oud-Heverlee Haasrode,Vlaanderen,VLG,Vlaams Brabant,50.8333,4.7333
3054,Oud-Heverlee,Vlaanderen,VLG,Vlaams Brabant,50.8333,4.6667
3060,Bertem,Vlaanderen,VLG,Vlaams Brabant,50.8667,4.6333
3061,Bertem Leefdaal,Vlaanderen,VLG,Vlaams Brabant,50.85,4.5833
3070,Kortenberg,Vlaanderen,VLG,Vlaams Brabant,50.8833,4.5333
3071,Kortenberg Erps-Kwerps,Vlaanderen,VLG,Vlaams Brabant,50.9,4.5667
3078,Kortenberg Everberg,Vlaanderen,VLG,Vlaams Brabant,50.8833,4.5667
3080,Tervuren Vossem,Vlaanderen,VLG,Vlaams Brabant,50.8333,4.55
3090,Overijse Terlanen,Vlaanderen,VLG,Vlaams Brabant,50.7667,4.5333
3110,Rotselaar,Vlaanderen,VLG,Vlaams Brabant,50.95,4.7167
3111,Rotselaar Wezemaal,Vlaanderen,VLG,Vlaams Brabant,50.95,4.7667
3118,Rotselaar Werchter,Vlaanderen,VLG,Vlaams Brabant,50.9667,4.7
3120,Tremelo,Vlaanderen,VLG,Vlaams Brabant,50.9833,4.7
3128,Tremelo,Vlaanderen,VLG,Vlaams Brabant,50.9833,4.7
3130,Begijnendijk,Vlaanderen,VLG,Vlaams Brabant,51.019,4.7825
3140,Keerbergen,Vlaanderen,VLG,Vlaams Brabant,51,4.6167
3150,Haacht Wakkerzeel,Vlaanderen,VLG,Vlaams Brabant,50.9611,4.6333
3190,Boortmeerbeek,Vlaanderen,VLG,Vlaams Brabant,50.9833,4.5667
3191,Boortmeerbeek Hever,Vlaanderen,VLG,Vlaams Brabant,51,4.55
3200,Aarschot,Vlaanderen,VLG,Vlaams Brabant,50.9833,4.8333
3201,Aarschot,Vlaanderen,VLG,Vlaams Brabant,50.9833,4.8333
3202,Aarschot Rillaar,Vlaanderen,VLG,Vlaams Brabant,50.9667,4.9
3210,Lubbeek,Vlaanderen,VLG,Vlaams Brabant,50.8833,4.8333
3211,Lubbeek,Vlaanderen,VLG,Vlaams Brabant,50.8833,4.8333
3212,Lubbeek,Vlaanderen,VLG,Vlaams Brabant,50.8833,4.8333
3220,Holsbeek,Vlaanderen,VLG,Vlaams Brabant,50.9167,4.75
3221,Holsbeek Nieuwrode,Vlaanderen,VLG,Vlaams Brabant,50.95,4.8333
3270,Scherpenheuvel-Zichem Scherpenheuvel,Vlaanderen,VLG,Vlaams Brabant,51,4.9833
3271,Scherpenheuvel-Zichem,Vlaanderen,VLG,Vlaams Brabant,51,4.9833
3272,Scherpenheuvel-Zichem Testelt,Vlaanderen,VLG,Vlaams Brabant,51,4.9833
3290,Diest Webbekom,Vlaanderen,VLG,Vlaams Brabant,50.9667,5.0667
3293,Diest,Vlaanderen,VLG,Vlaams Brabant,50.9834,5.0501
3294,Diest Molenstede,Vlaanderen,VLG,Vlaams Brabant,51,5.0167
3300,Tienen Hakendover,Vlaanderen,VLG,Vlaams Brabant,50.8,4.9833
3320,Hoegaarden,Vlaanderen,VLG,Vlaams Brabant,50.7833,4.9
3321,Hoegaarden Outgaarden,Vlaanderen,VLG,Vlaams Brabant,50.7667,4.9167
3350,Linter,Vlaanderen,VLG,Vlaams Brabant,50.8167,5.0452
3360,Bierbeek Lovenjoel,Vlaanderen,VLG,Vlaams Brabant,50.85,4.7833
3370,Boutersem Roosbeek,Vlaanderen,VLG,Vlaams Brabant,50.8333,4.8667
3380,Glabbeek,Vlaanderen,VLG,Vlaams Brabant,50.8667,4.95
3381,Glabbeek,Vlaanderen,VLG,Vlaams Brabant,50.8667,4.95
3384,Glabbeek,Vlaanderen,VLG,Vlaams Brabant,50.8667,4.95
3390,Tielt-Winge Sint-Joris-Winge,Vlaanderen,VLG,Vlaams Brabant,50.9167,4.8667
3391,Tielt-Winge Meensel-Kiezegem,Vlaanderen,VLG,Vlaams Brabant,50.9167,4.8667
3400,Landen Rumsdorp,Vlaanderen,VLG,Vlaams Brabant,50.7667,5.0833
3401,Landen Walshoutem,Vlaanderen,VLG,Vlaams Brabant,50.7375,5.0833
3404,Landen Neerlanden,Vlaanderen,VLG,Vlaams Brabant,50.7833,5.0833
3440,Zoutleeuw,Vlaanderen,VLG,Vlaams Brabant,50.8333,5.1
3450,Geetbets,Vlaanderen,VLG,Vlaams Brabant,50.8833,5.1167
3454,Geetbets,Vlaanderen,VLG,Vlaams Brabant,50.8833,5.1167
3460,Bekkevoort Assent,Vlaanderen,VLG,Vlaams Brabant,50.95,5.0167
3461,Bekkevoort Molenbeek-Wersbeek,Vlaanderen,VLG,Vlaams Brabant,50.9167,4.95
3470,Kortenaken,Vlaanderen,VLG,Vlaams Brabant,50.9167,5.0667
3471,Kortenaken,Vlaanderen,VLG,Vlaams Brabant,50.9167,5.0667
3472,Kortenaken Kersbeek-Miskom,Vlaanderen,VLG,Vlaams Brabant,50.8833,5
3473,Kortenaken Waanrode,Vlaanderen,VLG,Vlaams Brabant,50.9167,5
3500,Hasselt Sint-Lambrechts-Herk,Vlaanderen,VLG,Limburg,50.9,5.3
3501,Hasselt Wimmertingen,Vlaanderen,VLG,Limburg,50.8833,5.3333
3510,"Hasselt Kermt, Spalbeek",Vlaanderen,VLG,Limburg,50.9333,5.3333
3511,"Hasselt, Stokrooie",Vlaanderen,VLG,Limburg,50.9417,5.3167
3512,Hasselt,Vlaanderen,VLG,Limburg,50.9333,5.3333
3520,Zonhoven,Vlaanderen,VLG,Limburg,50.9833,5.35
3530,Houthalen-Helchteren Helchteren,Vlaanderen,VLG,Limburg,51.05,5.3667
3540,Herkde-Stad,Vlaanderen,VLG,Limburg,50.9556,5.0778
3545,Halen Loksbergen,Vlaanderen,VLG,Limburg,50.9333,5.05
3550,Heusden-Zolder Zolder,Vlaanderen,VLG,Limburg,51.0167,5.3
3560,Lummen Linkhout,Vlaanderen,VLG,Limburg,50.9667,5.1167
3570,Alken,Vlaanderen,VLG,Limburg,50.8667,5.3
3580,Beringen,Vlaanderen,VLG,Limburg,51.05,5.2167
3581,Beringen Beverlo,Vlaanderen,VLG,Limburg,51.0833,5.2
3582,Beringen Koersel,Vlaanderen,VLG,Limburg,51.0667,5.2667
3583,Beringen Paal,Vlaanderen,VLG,Limburg,51.0333,5.1833
3590,Diepenbeek,Vlaanderen,VLG,Limburg,50.9,5.4
3600,Diepenbeek Genk,Vlaanderen,VLG,Limburg,51.002,5.6836
3620,Lanaken Gellik,Vlaanderen,VLG,Limburg,50.8833,5.6
3621,Lanaken,Vlaanderen,VLG,Limburg,50.8833,5.65
3630,Maasmechelen Opgrimbie,Vlaanderen,VLG,Limburg,50.9333,5.6833
3631,Maasmechelen Uikhoven,Vlaanderen,VLG,Limburg,50.9167,5.7333
3640,Kinrooi Geistingen,Vlaanderen,VLG,Limburg,51.1447,5.773
3650,Dilsen-Stokkem Elen,Vlaanderen,VLG,Limburg,51.0167,5.75
3660,Opglabbeek,Vlaanderen,VLG,Limburg,51.05,5.5833
3665,As,Vlaanderen,VLG,Limburg,51.0167,5.5833
3668,As Nielbij-As,Vlaanderen,VLG,Limburg,51.0167,5.5833
3670,Meeuwen-Gruitrode Wijshagen,Vlaanderen,VLG,Limburg,51.0833,5.5833
3680,Maaseik Neeroeteren,Vlaanderen,VLG,Limburg,51.0833,5.7
3690,Zutendaal,Vlaanderen,VLG,Limburg,50.9333,5.5667
3700,Tongeren 's Herenelderen,Vlaanderen,VLG,Limburg,50.7708,5.4681
3717,Herstappe,Vlaanderen,VLG,Limburg,50.7333,5.4167
3720,Kortessem,Vlaanderen,VLG,Limburg,50.8667,5.3667
3721,Kortessem,Vlaanderen,VLG,Limburg,50.8667,5.3667
3722,Kortessem,Vlaanderen,VLG,Limburg,50.8667,5.3667
3723,Kortessem,Vlaanderen,VLG,Limburg,50.8667,5.3667
3724,Kortessem,Vlaanderen,VLG,Limburg,50.8667,5.3667
3730,Hoeselt Romershoven,Vlaanderen,VLG,Limburg,50.85,5.4667
3732,Hoeselt Schalkhoven,Vlaanderen,VLG,Limburg,50.8333,5.4333
3740,"Bilzen Mopertingen, Rosmeer",Vlaanderen,VLG,Limburg,50.8646,5.5375
3742,Bilzen Martenslinde,Vlaanderen,VLG,Limburg,50.85,5.5333
3746,Bilzen Hoelbeek,Vlaanderen,VLG,Limburg,50.8667,5.55
3770,"Riemst, Heukelom",Vlaanderen,VLG,Limburg,50.805,5.5867
3790,Voeren,Vlaanderen,VLG,Limburg,50.75,5.7667
3791,Voeren,Vlaanderen,VLG,Limburg,50.7333,5.8833
3792,Voeren Sint-Pieters-Voeren,Vlaanderen,VLG,Limburg,50.7333,5.8167
3793,Voeren,Vlaanderen,VLG,Limburg,50.75,5.8667
3798,Voeren 's Gravenvoeren,Vlaanderen,VLG,Limburg,50.7667,5.7667
3800,Sint-Truiden Kerkombij-Sint-Truiden,Vlaanderen,VLG,Limburg,50.7938,5.2188
3803,Sint-Truiden Duras,Vlaanderen,VLG,Limburg,50.8333,5.1333
3806,Sint-Truiden Velm,Vlaanderen,VLG,Limburg,50.7833,5.1167
3830,Wellen,Vlaanderen,VLG,Limburg,50.85,5.3167
3831,Wellen Herten,Vlaanderen,VLG,Limburg,50.8333,5.3167
3832,Wellen Ulbeek,Vlaanderen,VLG,Limburg,50.8333,5.3
3840,Borgloon Kolmont,Vlaanderen,VLG,Limburg,50.803,5.3182
3850,Nieuwerkerken,Vlaanderen,VLG,Limburg,50.8667,5.1833
3870,Heers Klein-Gelmen,Vlaanderen,VLG,Limburg,50.7667,5.2667
3890,Gingelom Nielbij-Sint-Truiden,Vlaanderen,VLG,Limburg,50.725,5.1611
3891,Gingelom Muizen,Vlaanderen,VLG,Limburg,50.75,5.15
3900,Overpelt,Vlaanderen,VLG,Limburg,51.2167,5.4167
3910,Neerpelt Grote Heide,Vlaanderen,VLG,Limburg,51.225,5.45
3920,Lommel,Vlaanderen,VLG,Limburg,51.2333,5.3
3930,Hamont-Achel,Vlaanderen,VLG,Limburg,51.25,5.4833
3940,Hechtel-Eksel,Vlaanderen,VLG,Limburg,51.15,5.3833
3941,Hechtel-Eksel,Vlaanderen,VLG,Limburg,51.15,5.3833
3945,Ham Kwaadmechelen,Vlaanderen,VLG,Limburg,51.15,5.3833
3950,Bocholt Kaulille,Vlaanderen,VLG,Limburg,51.1833,5.5167
3960,"Bree Opitter, Tongerlo",Vlaanderen,VLG,Limburg,51.1375,5.6083
3970,Leopoldsburg,Vlaanderen,VLG,Limburg,51.1167,5.25
3971,Leopoldsburg Heppen,Vlaanderen,VLG,Limburg,51.1167,5.2167
3980,Tessenderlo,Vlaanderen,VLG,Limburg,51.0667,5.0833
3990,Peer Kleine-Brogel,Vlaanderen,VLG,Limburg,51.1667,5.4333
8000,Brugge,Vlaanderen,VLG,West-Vlaanderen,51.2098,3.225
8020,Oostkamp,Vlaanderen,VLG,West-Vlaanderen,51.15,3.2333
8200,Brugge Sint-Michiels,Vlaanderen,VLG,West-Vlaanderen,51.2098,3.225
8210,Zedelgem,Vlaanderen,VLG,West-Vlaanderen,51.15,3.1333
8211,Zedelgem,Vlaanderen,VLG,West-Vlaanderen,51.15,3.1333
8300,Knokke-Heist Knokke,Vlaanderen,VLG,West-Vlaanderen,51.35,3.2667
8301,Knokke-Heist Ramskapelle,Vlaanderen,VLG,West-Vlaanderen,51.35,3.2667
8310,Brugge Sint-Kruis,Vlaanderen,VLG,West-Vlaanderen,51.2098,3.225
8340,Damme Moerkerke,Vlaanderen,VLG,West-Vlaanderen,51.25,3.3333
8370,Blankenberge Uitkerke,Vlaanderen,VLG,West-Vlaanderen,51.3,3.1333
8377,Zuienkerke Meetkerke,Vlaanderen,VLG,West-Vlaanderen,51.2333,3.15
8380,Brugge,Vlaanderen,VLG,West-Vlaanderen,51.2098,3.225
8400,Oostende Zandvoorde,Vlaanderen,VLG,West-Vlaanderen,51.2083,2.9167
8420,De Haan De Haan,Vlaanderen,VLG,West-Vlaanderen,51.2722,3.0444
8421,De Haan,Vlaanderen,VLG,West-Vlaanderen,51.2667,3.0333
8430,Middelkerke,Vlaanderen,VLG,West-Vlaanderen,51.1833,2.8167
8431,Middelkerke Wilskerke,Vlaanderen,VLG,West-Vlaanderen,51.1833,2.8333
8432,Middelkerke Leffinge,Vlaanderen,VLG,West-Vlaanderen,51.1667,2.8833
8433,Middelkerke Sint-Pieters-Kapelle,Vlaanderen,VLG,West-Vlaanderen,51.1458,2.8292
8434,Middelkerke Lombardsijde,Vlaanderen,VLG,West-Vlaanderen,51.15,2.75
8450,Bredene,Vlaanderen,VLG,West-Vlaanderen,51.2333,2.9667
8460,Oudenburg Westkerke,Vlaanderen,VLG,West-Vlaanderen,51.1667,3
8470,Gistel Moere,Vlaanderen,VLG,West-Vlaanderen,51.1167,2.95
8480,Ichtegem Eernegem,Vlaanderen,VLG,West-Vlaanderen,51.1333,3.0167
8490,Jabbeke Varsenare,Vlaanderen,VLG,West-Vlaanderen,51.1833,3.15
8500,Kortrijk,Vlaanderen,VLG,West-Vlaanderen,50.828,3.2649
8501,Kortrijk Heule,Vlaanderen,VLG,West-Vlaanderen,50.8375,3.2382
8510,Kortrijk Marke,Vlaanderen,VLG,West-Vlaanderen,50.828,3.2649
8511,Kortrijk,Vlaanderen,VLG,West-Vlaanderen,50.828,3.2649
8520,Kuurne,Vlaanderen,VLG,West-Vlaanderen,50.85,3.2833
8530,Harelbeke,Vlaanderen,VLG,West-Vlaanderen,50.85,3.3
8531,Harelbeke,Vlaanderen,VLG,West-Vlaanderen,50.85,3.3
8540,Deerlijk,Vlaanderen,VLG,West-Vlaanderen,50.85,3.35
8550,Zwevegem,Vlaanderen,VLG,West-Vlaanderen,50.8,3.3333
8551,Zwevegem Heestert,Vlaanderen,VLG,West-Vlaanderen,50.7833,3.4
8552,Zwevegem,Vlaanderen,VLG,West-Vlaanderen,50.8,3.3333
8553,Zwevegem Otegem,Vlaanderen,VLG,West-Vlaanderen,50.8,3.4167
8554,Zwevegem,Vlaanderen,VLG,West-Vlaanderen,50.8,3.3333
8560,Wevelgem Moorsele,Vlaanderen,VLG,West-Vlaanderen,50.8333,3.15
8570,Anzegem,Vlaanderen,VLG,West-Vlaanderen,50.8333,3.4667
8572,Anzegem,Vlaanderen,VLG,West-Vlaanderen,50.8333,3.4667
8573,Anzegem Tiegem,Vlaanderen,VLG,West-Vlaanderen,50.8,3.4667
8580,Avelgem,Vlaanderen,VLG,West-Vlaanderen,50.7667,3.4333
8581,Avelgem,Vlaanderen,VLG,West-Vlaanderen,50.7667,3.4333
8582,Avelgem Outrijve,Vlaanderen,VLG,West-Vlaanderen,50.75,3.4167
8583,Avelgem Bossuit,Vlaanderen,VLG,West-Vlaanderen,50.75,3.4
8587,Spiere-Helkijn Spiere,Vlaanderen,VLG,West-Vlaanderen,50.7333,3.3833
8600,Diksmuide Kaaskerke,Vlaanderen,VLG,West-Vlaanderen,51.0333,2.8333
8610,Kortemark Zarren,Vlaanderen,VLG,West-Vlaanderen,51.0167,2.95
8620,Nieuwpoort Sint-Joris,Vlaanderen,VLG,West-Vlaanderen,51.1333,2.75
8630,Veurne Houtem,Vlaanderen,VLG,West-Vlaanderen,51.05,2.6815
8640,Vleteren Oostvleteren,Vlaanderen,VLG,West-Vlaanderen,50.9333,2.7333
8647,Lo-Reninge Reninge,Vlaanderen,VLG,West-Vlaanderen,50.9583,2.775
8650,Houthulst Klerken,Vlaanderen,VLG,West-Vlaanderen,51,2.9
8660,De Panne De Panne,Vlaanderen,VLG,West-Vlaanderen,51.0833,2.5917
8670,Koksijde Sint-Idesbald,Vlaanderen,VLG,West-Vlaanderen,51.1056,2.6778
8680,Koekelare Zande,Vlaanderen,VLG,West-Vlaanderen,51.1167,2.9167
8690,Alveringem Hoogstade,Vlaanderen,VLG,West-Vlaanderen,50.9667,2.6833
8691,Alveringem Beverenaanden-Ijzer,Vlaanderen,VLG,West-Vlaanderen,50.98,2.6633
8700,Tielt Kanegem,Vlaanderen,VLG,West-Vlaanderen,51.0167,3.4
8710,Wielsbeke Ooigem,Vlaanderen,VLG,West-Vlaanderen,50.8833,3.3333
8720,Dentergem Wakken,Vlaanderen,VLG,West-Vlaanderen,50.9333,3.4
8730,Beernem,Vlaanderen,VLG,West-Vlaanderen,51.15,3.3333
8740,Pittem Egem,Vlaanderen,VLG,West-Vlaanderen,51.0167,3.2667
8750,Wingene,Vlaanderen,VLG,West-Vlaanderen,51.0667,3.2667
8755,Ruiselede,Vlaanderen,VLG,West-Vlaanderen,51.05,3.4
8760,Meulebeke,Vlaanderen,VLG,West-Vlaanderen,50.95,3.2833
8770,Ingelmunster,Vlaanderen,VLG,West-Vlaanderen,50.9167,3.25
8780,Oostrozebeke,Vlaanderen,VLG,West-Vlaanderen,50.9167,3.3333
8790,Waregem,Vlaanderen,VLG,West-Vlaanderen,50.8833,3.4167
8791,Waregem Beveren,Vlaanderen,VLG,West-Vlaanderen,50.8833,3.4167
8792,Waregem,Vlaanderen,VLG,West-Vlaanderen,50.8833,3.4167
8793,Waregem Sint-Eloois-Vijve,Vlaanderen,VLG,West-Vlaanderen,50.9,3.4
8800,Roeselare Beveren,Vlaanderen,VLG,West-Vlaanderen,50.9322,3.152
8810,Lichtervelde,Vlaanderen,VLG,West-Vlaanderen,51.0333,3.15
8820,Torhout,Vlaanderen,VLG,West-Vlaanderen,51.0667,3.1
8830,Hooglede,Vlaanderen,VLG,West-Vlaanderen,50.9833,3.0833
8840,Staden Westrozebeke,Vlaanderen,VLG,West-Vlaanderen,50.9333,3.0167
8850,Ardooie,Vlaanderen,VLG,West-Vlaanderen,50.9833,3.2
8851,Ardooie Koolskamp,Vlaanderen,VLG,West-Vlaanderen,51,3.2
8860,Lendelede,Vlaanderen,VLG,West-Vlaanderen,50.8833,3.2333
8870,Izegem,Vlaanderen,VLG,West-Vlaanderen,50.9167,3.2
8880,Ledegem Rollegem-Kapelle,Vlaanderen,VLG,West-Vlaanderen,50.8667,3.1333
8890,Moorslede Dadizele,Vlaanderen,VLG,West-Vlaanderen,50.85,3.0833
8900,Ieper,Vlaanderen,VLG,West-Vlaanderen,50.85,2.8833
8902,Ieper Zillebeke,Vlaanderen,VLG,West-Vlaanderen,50.8333,2.9167
8904,Ieper,Vlaanderen,VLG,West-Vlaanderen,50.85,2.8833
8906,Ieper Elverdinge,Vlaanderen,VLG,West-Vlaanderen,50.8833,2.8167
8908,Ieper Vlamertinge,Vlaanderen,VLG,West-Vlaanderen,50.85,2.8167
8920,Langemark-Poelkapelle Poelkapelle,Vlaanderen,VLG,West-Vlaanderen,50.9333,2.8667
8930,Menen,Vlaanderen,VLG,West-Vlaanderen,50.8,3.1167
8940,Wervik Geluwe,Vlaanderen,VLG,West-Vlaanderen,50.8,3.0667
8950,Heuvelland Nieuwkerke,Vlaanderen,VLG,West-Vlaanderen,50.75,2.8167
8951,Heuvelland,Vlaanderen,VLG,West-Vlaanderen,50.776,2.8223
8952,Heuvelland Wulvergem,Vlaanderen,VLG,West-Vlaanderen,50.75,2.85
8953,Heuvelland Wijtschate,Vlaanderen,VLG,West-Vlaanderen,50.7833,2.8667
8954,Heuvelland,Vlaanderen,VLG,West-Vlaanderen,50.776,2.8223
8956,Heuvelland Kemmel,Vlaanderen,VLG,West-Vlaanderen,50.7833,2.8167
8957,Mesen,Vlaanderen,VLG,West-Vlaanderen,50.7667,2.9
8958,Heuvelland Loker,Vlaanderen,VLG,West-Vlaanderen,50.776,2.8223
8970,Poperinge,Vlaanderen,VLG,West-Vlaanderen,50.85,2.7167
8972,Poperinge Krombeke,Vlaanderen,VLG,West-Vlaanderen,50.9167,2.6833
8978,Poperinge,Vlaanderen,VLG,West-Vlaanderen,50.85,2.7167
8980,Zonnebeke Beselare,Vlaanderen,VLG,West-Vlaanderen,50.8481,3.0245
9000,Gent,Vlaanderen,VLG,Oost-Vlaanderen,51.05,3.7167
9030,Gent Mariakerke,Vlaanderen,VLG,Oost-Vlaanderen,51.05,3.7167
9031,Gent,Vlaanderen,VLG,Oost-Vlaanderen,51.05,3.7167
9032,Gent Wondelgem,Vlaanderen,VLG,Oost-Vlaanderen,51.05,3.7167
9040,Gent,Vlaanderen,VLG,Oost-Vlaanderen,51.05,3.7167
9041,Gent,Vlaanderen,VLG,Oost-Vlaanderen,51.05,3.7167
9042,Gent Mendonk,Vlaanderen,VLG,Oost-Vlaanderen,51.05,3.7167
9050,Gent Gentbrugge,Vlaanderen,VLG,Oost-Vlaanderen,51.05,3.7167
9051,Gent Sint-Denijs-Westrem,Vlaanderen,VLG,Oost-Vlaanderen,51.05,3.7167
9052,Gent,Vlaanderen,VLG,Oost-Vlaanderen,51.05,3.7167
9060,Zelzate,Vlaanderen,VLG,Oost-Vlaanderen,51.2,3.8167
9070,Destelbergen Heusden,Vlaanderen,VLG,Oost-Vlaanderen,51.05,3.8
9080,Lochristi Zeveneken,Vlaanderen,VLG,Oost-Vlaanderen,51.1,3.9
9090,Melle Gontrode,Vlaanderen,VLG,Oost-Vlaanderen,50.9833,3.8
9100,Sint-Niklaas Nieuwkerken-Waas,Vlaanderen,VLG,Oost-Vlaanderen,51.2,4.1833
9111,Sint-Niklaas Belsele,Vlaanderen,VLG,Oost-Vlaanderen,51.1667,4.1333
9112,Sint-Niklaas,Vlaanderen,VLG,Oost-Vlaanderen,51.1667,4.1333
9120,Beveren Kallo,Vlaanderen,VLG,Oost-Vlaanderen,51.2083,4.2458
9130,Beveren,Vlaanderen,VLG,Oost-Vlaanderen,51.2167,4.25
9140,Temse Tielrode,Vlaanderen,VLG,Oost-Vlaanderen,51.1167,4.1833
9150,Kruibeke Bazel,Vlaanderen,VLG,Oost-Vlaanderen,51.15,4.3
9160,Lokeren Eksaarde,Vlaanderen,VLG,Oost-Vlaanderen,51.15,3.9667
9170,Sint-Gillis-Waas,Vlaanderen,VLG,Oost-Vlaanderen,51.2167,4.1333
9180,Moerbeke-Waas,Vlaanderen,VLG,Oost-Vlaanderen,51.1667,3.9333
9185,Wachtebeke,Vlaanderen,VLG,Oost-Vlaanderen,51.1667,3.8667
9190,Stekene,Vlaanderen,VLG,Oost-Vlaanderen,51.2,4.0333
9200,Dendermonde Mespelare,Vlaanderen,VLG,Oost-Vlaanderen,51,4.0667
9220,Hamme,Vlaanderen,VLG,Oost-Vlaanderen,51.1,4.1333
9230,Wetteren Massemen,Vlaanderen,VLG,Oost-Vlaanderen,50.9833,3.8667
9240,Zele,Vlaanderen,VLG,Oost-Vlaanderen,51.0667,4.0333
9250,Waasmunster,Vlaanderen,VLG,Oost-Vlaanderen,51.1,4.0833
9255,Buggenhout Opstal,Vlaanderen,VLG,Oost-Vlaanderen,51.025,4.2083
9260,Wichelen Schellebelle,Vlaanderen,VLG,Oost-Vlaanderen,51.0167,3.9333
9270,Laarne,Vlaanderen,VLG,Oost-Vlaanderen,51.0333,3.85
9280,Lebbeke Denderbelle,Vlaanderen,VLG,Oost-Vlaanderen,51,4.0833
9290,Berlare Overmere,Vlaanderen,VLG,Oost-Vlaanderen,51.05,3.95
9300,Aalst,Vlaanderen,VLG,Oost-Vlaanderen,50.9333,4.0333
9308,Aalst,Vlaanderen,VLG,Oost-Vlaanderen,50.9333,4.0333
9310,Aalst Moorsel,Vlaanderen,VLG,Oost-Vlaanderen,50.9333,4.0333
9320,Aalst Nieuwerkerken,Vlaanderen,VLG,Oost-Vlaanderen,50.9333,4.0333
9340,Lede Wanzele,Vlaanderen,VLG,Oost-Vlaanderen,50.9667,3.95
9400,Ninove Nederhasselt,Vlaanderen,VLG,Oost-Vlaanderen,50.85,3.9667
9401,Ninove,Vlaanderen,VLG,Oost-Vlaanderen,50.8333,4.0167
9402,Ninove Meerbeke,Vlaanderen,VLG,Oost-Vlaanderen,50.8333,4.0333
9403,Ninove,Vlaanderen,VLG,Oost-Vlaanderen,50.8333,4.0167
9404,Ninove Aspelare,Vlaanderen,VLG,Oost-Vlaanderen,50.8333,3.95
9406,Ninove Outer,Vlaanderen,VLG,Oost-Vlaanderen,50.8333,3.9833
9420,Erpe-Mere Burst,Vlaanderen,VLG,Oost-Vlaanderen,50.9167,3.9667
9450,Haaltert Denderhoutem,Vlaanderen,VLG,Oost-Vlaanderen,50.8667,4.0167
9451,Haaltert,Vlaanderen,VLG,Oost-Vlaanderen,50.9,4
9470,Denderleeuw,Vlaanderen,VLG,Oost-Vlaanderen,50.8833,4.0667
9472,Denderleeuw,Vlaanderen,VLG,Oost-Vlaanderen,50.8833,4.0667
9473,Denderleeuw Welle,Vlaanderen,VLG,Oost-Vlaanderen,50.9,4.0333
9500,Geraardsbergen Ophasselt,Vlaanderen,VLG,Oost-Vlaanderen,50.8167,3.8833
9506,Geraardsbergen Waarbeke,Vlaanderen,VLG,Oost-Vlaanderen,50.7667,3.9667
9520,Sint-Lievens-Houtem Bavegem,Vlaanderen,VLG,Oost-Vlaanderen,50.95,3.8667
9521,Sint-Lievens-Houtem Letterhoutem,Vlaanderen,VLG,Oost-Vlaanderen,50.9333,3.8833
9550,Herzele Woubrechtegem,Vlaanderen,VLG,Oost-Vlaanderen,50.8667,3.9
9551,Herzele,Vlaanderen,VLG,Oost-Vlaanderen,50.8833,3.8833
9552,Herzele,Vlaanderen,VLG,Oost-Vlaanderen,50.8833,3.8833
9570,Lierde Deftinge,Vlaanderen,VLG,Oost-Vlaanderen,50.7833,3.8333
9571,Lierde,Vlaanderen,VLG,Oost-Vlaanderen,50.8,3.85
9572,Lierde,Vlaanderen,VLG,Oost-Vlaanderen,50.8,3.8167
9600,Ronse,Vlaanderen,VLG,Oost-Vlaanderen,50.75,3.6
9620,Zottegem Strijpen,Vlaanderen,VLG,Oost-Vlaanderen,50.8667,3.7833
9630,Zwalm Meilegem,Vlaanderen,VLG,Oost-Vlaanderen,50.9,3.7
9636,Zwalm Hermelgem,Vlaanderen,VLG,Oost-Vlaanderen,50.8833,3.6833
9660,Brakel Michelbeke,Vlaanderen,VLG,Oost-Vlaanderen,50.8333,3.7667
9661,Brakel Parike,Vlaanderen,VLG,Oost-Vlaanderen,50.7833,3.8
9667,Horebeke Sint-Maria-Horebeke,Vlaanderen,VLG,Oost-Vlaanderen,50.8388,3.6875
9680,Maarkedal Etikhove,Vlaanderen,VLG,Oost-Vlaanderen,50.8167,3.6167
9681,Maarkedal Nukerke,Vlaanderen,VLG,Oost-Vlaanderen,50.8,3.5833
9688,Maarkedal Schorisse,Vlaanderen,VLG,Oost-Vlaanderen,50.8,3.6667
9690,Kluisbergen,Vlaanderen,VLG,Oost-Vlaanderen,50.8478,3.7321
9700,Oudenaarde Melden,Vlaanderen,VLG,Oost-Vlaanderen,50.8167,3.5667
9750,Zingem,Vlaanderen,VLG,Oost-Vlaanderen,50.9,3.65
9770,Kruishoutem,Vlaanderen,VLG,Oost-Vlaanderen,50.9,3.5167
9771,Kruishoutem Nokere,Vlaanderen,VLG,Oost-Vlaanderen,50.8833,3.5
9772,Kruishoutem Wannegem-Lede,Vlaanderen,VLG,Oost-Vlaanderen,50.8833,3.55
9790,Wortegem-Petegem,Vlaanderen,VLG,Oost-Vlaanderen,50.8698,3.5921
9800,Deinze Bachte-Maria-Leerne,Vlaanderen,VLG,Oost-Vlaanderen,51.0167,3.5833
9810,Nazareth,Vlaanderen,VLG,Oost-Vlaanderen,51,3.65
9820,Merelbeke,Vlaanderen,VLG,Oost-Vlaanderen,51,3.75
9830,Sint-Martens-Latem,Vlaanderen,VLG,Oost-Vlaanderen,51.0167,3.6333
9831,Sint-Martens-Latem Deurle,Vlaanderen,VLG,Oost-Vlaanderen,51,3.6
9840,De Pinte Zevergem,Vlaanderen,VLG,Oost-Vlaanderen,50.9833,3.7
9850,Nevele Hansbeke,Vlaanderen,VLG,Oost-Vlaanderen,51.0833,3.5333
9860,Oosterzele Scheldewindeke,Vlaanderen,VLG,Oost-Vlaanderen,50.9333,3.7833
9870,Zulte Olsene,Vlaanderen,VLG,Oost-Vlaanderen,50.9333,3.4667
9880,Aalter,Vlaanderen,VLG,Oost-Vlaanderen,51.0833,3.45
9881,Aalter Bellem,Vlaanderen,VLG,Oost-Vlaanderen,51.0833,3.5
9890,Gavere Semmerzake,Vlaanderen,VLG,Oost-Vlaanderen,50.95,3.6667
9900,Eeklo,Vlaanderen,VLG,Oost-Vlaanderen,51.1833,3.5667
9910,Knesselare,Vlaanderen,VLG,Oost-Vlaanderen,51.1333,3.4167
9920,Lovendegem,Vlaanderen,VLG,Oost-Vlaanderen,51.1,3.6
9921,Lovendegem Vinderhoute,Vlaanderen,VLG,Oost-Vlaanderen,51.0833,3.6333
9930,Zomergem,Vlaanderen,VLG,Oost-Vlaanderen,51.1167,3.55
9931,Zomergem Oostwinkel,Vlaanderen,VLG,Oost-Vlaanderen,51.15,3.5167
9932,Zomergem Ronsele,Vlaanderen,VLG,Oost-Vlaanderen,51.1333,3.55
9940,Evergem Sleidinge,Vlaanderen,VLG,Oost-Vlaanderen,51.1333,3.6833
9950,Waarschoot,Vlaanderen,VLG,Oost-Vlaanderen,51.15,3.6
9960,Assenede,Vlaanderen,VLG,Oost-Vlaanderen,51.2333,3.75
9961,Assenede Boekhoute,Vlaanderen,VLG,Oost-Vlaanderen,51.25,3.7167
9968,Assenede Oosteeklo,Vlaanderen,VLG,Oost-Vlaanderen,51.2,3.6833
9970,Kaprijke,Vlaanderen,VLG,Oost-Vlaanderen,51.2167,3.6
9971,Kaprijke,Vlaanderen,VLG,Oost-Vlaanderen,51.2167,3.6
9980,Sint-Laureins,Vlaanderen,VLG,Oost-Vlaanderen,51.25,3.5167
9981,Tienen Sint-Margriete-Houtem,Vlaanderen,VLG,Vlaams Brabant,51.2661,3.5316
9982,Sint-Laureins Sint-Janin-Eremo,Vlaanderen,VLG,Oost-Vlaanderen,51.25,3.5167
9988,Sint-Laureins Watervliet,Vlaanderen,VLG,Oost-Vlaanderen,51.2833,3.6333
9990,Maldegem,Vlaanderen,VLG,Oost-Vlaanderen,51.2167,3.45
9991,Maldegem Adegem,Vlaanderen,VLG,Oost-Vlaanderen,51.2,3.4833
9992,Maldegem Middelburg,Vlaanderen,VLG,Oost-Vlaanderen,51.25,3.4167
1300,Wavre Limal,Wallonie,WAL,Brabant Wallon,50.7,4.5833
1301,Wavre Bierges,Wallonie,WAL,Brabant Wallon,50.7167,4.6
1310,La Hulpe,Wallonie,WAL,Brabant Wallon,50.7333,4.4833
1315,Incourt Piètrebais,Wallonie,WAL,Brabant Wallon,50.7333,4.75
1320,Beauvechain Nodebais,Wallonie,WAL,Brabant Wallon,50.7667,4.7333
1325,Chaumont-Gistoux Bonlez,Wallonie,WAL,Brabant Wallon,50.7,4.7
1330,Rixensart,Wallonie,WAL,Brabant Wallon,50.7167,4.5333
1331,Rixensart Rosières,Wallonie,WAL,Brabant Wallon,50.7333,4.55
1332,Rixensart Genval,Wallonie,WAL,Brabant Wallon,50.7167,4.4833
1340,Ottignies-Louvainla-Neuve,Wallonie,WAL,Brabant Wallon,50.7057,4.7484
1341,Ottignies-Louvainla-Neuve Céroux-Mousty,Wallonie,WAL,Brabant Wallon,50.7057,4.7484
1342,Ottignies-Louvainla-Neuve Limelette,Wallonie,WAL,Brabant Wallon,50.7057,4.7484
1348,Ottignies-Louvainla-Neuve Louvainla-Neuve,Wallonie,WAL,Brabant Wallon,50.7057,4.7484
1350,Nivelles Noduwez,Wallonie,WAL,Brabant Wallon,50.7333,4.9667
1357,Florennes Linsmeau,Wallonie,WAL,Namur,50.7042,4.9583
1360,Perwez Orbais,Wallonie,WAL,Brabant Wallon,50.6333,4.7667
1367,Ramillies Gérompont,Wallonie,WAL,Brabant Wallon,50.65,4.8833
1370,Jodoigne Mélin,Wallonie,WAL,Brabant Wallon,50.7333,4.8333
1380,Lasne Lasne-Chapelle-Saint-Lambert,Wallonie,WAL,Brabant Wallon,50.6833,4.4833
1390,Grez-Doiceau Biez,Wallonie,WAL,Brabant Wallon,50.7333,4.7
1400,Nivelles,Wallonie,WAL,Brabant Wallon,50.6,4.3333
1401,Nivelles Baulers,Wallonie,WAL,Brabant Wallon,50.6167,4.35
1402,Nivelles Thines,Wallonie,WAL,Brabant Wallon,50.6,4.3667
1404,Nivelles Bornival,Wallonie,WAL,Brabant Wallon,50.6,4.2667
1410,Waterloo,Wallonie,WAL,Brabant Wallon,50.7167,4.3833
1414,Promo-Control,Wallonie,WAL,Brabant Wallon Nivelles,50.7183,4.3858
1420,Brainel'Alleud Brainel'Alleud,Wallonie,WAL,Brabant Wallon,50.6339,4.4021
1421,Brainel'Alleud Ophain-Bois-Seigneur-Isaac,Wallonie,WAL,Brabant Wallon,50.6339,4.4021
1428,Brainel'Alleud,Wallonie,WAL,Brabant Wallon,50.6339,4.4021
1430,Rebecq Quenast,Wallonie,WAL,Brabant Wallon,50.6667,4.15
1435,Mont-Saint-Guibert,Wallonie,WAL,Brabant Wallon,50.6333,4.6167
1440,Brainele-Château Wauthier-Braine,Wallonie,WAL,Brabant Wallon,50.6339,4.4021
1450,Chastre Gentinnes,Wallonie,WAL,Brabant Wallon,50.5833,4.6
1457,Walhain Nil-Saint-Vincent-Saint-Martin,Wallonie,WAL,Brabant Wallon,50.65,4.6833
1460,Ittre Virginal-Samme,Wallonie,WAL,Brabant Wallon,50.6333,4.2
1461,Ittre Haut-Ittre,Wallonie,WAL,Brabant Wallon,50.65,4.3
1470,Genappe Baisy-Thy,Wallonie,WAL,Brabant Wallon,50.6,4.4667
1471,Genappe Loupoigne,Wallonie,WAL,Brabant Wallon,50.6,4.4333
1472,Genappe Vieux-Genappe,Wallonie,WAL,Brabant Wallon,50.6,4.4333
1473,Genappe Glabais,Wallonie,WAL,Brabant Wallon,50.6333,4.45
1474,Genappe Ways,Wallonie,WAL,Brabant Wallon,50.6167,4.45
1476,Genappe Houtainle-Val,Wallonie,WAL,Brabant Wallon,50.6095,4.4548
1480,Tubize,Wallonie,WAL,Brabant Wallon,50.6833,4.2
1490,Court-Saint-Etienne,Wallonie,WAL,Brabant Wallon,50.65,4.5667
1495,Villersla-Ville Marbais,Wallonie,WAL,Brabant Wallon,50.65,4.5667
4000,Liège,Wallonie,WAL,Liège,50.6412,5.5718
4020,Liège Wandre,Wallonie,WAL,Liège,50.6412,5.5718
4030,Liège Grivegnée,Wallonie,WAL,Liège,50.6412,5.5718
4031,Liège Angleur,Wallonie,WAL,Liège,50.6412,5.5718
4032,Liège Chênée,Wallonie,WAL,Liège,50.6412,5.5718
4040,Herstal,Wallonie,WAL,Liège,50.6667,5.6333
4041,Herstal Milmort,Wallonie,WAL,Liège,50.7,5.6
4042,Herstal,Wallonie,WAL,Liège,50.6667,5.6333
4050,Chaudfontaine,Wallonie,WAL,Liège,50.5833,5.6333
4051,Chaudfontaine Vauxsous-Chèvremont,Wallonie,WAL,Liège,50.5833,5.6333
4052,Chaudfontaine,Wallonie,WAL,Liège,50.5833,5.6333
4053,Chaudfontaine,Wallonie,WAL,Liège,50.5833,5.6333
4100,Seraing Boncelles,Wallonie,WAL,Liège,50.5667,5.5333
4101,Seraing Jemeppesur-Meuse,Wallonie,WAL,Liège,50.6,5.4833
4102,Seraing Ougrée,Wallonie,WAL,Liège,50.6,5.5333
4120,Neupré Ehein,Wallonie,WAL,Liège,50.4952,5.5673
4121,Neupré Neuvilleen-Condroz,Wallonie,WAL,Liège,50.4952,5.5673
4122,Neupré Plainevaux,Wallonie,WAL,Liège,50.4952,5.5673
4130,Esneux Tilff,Wallonie,WAL,Liège,50.5667,5.5833
4140,Sprimont Gomze-Andoumont,Wallonie,WAL,Liège,50.55,5.6833
4141,Sprimont Louveigné,Wallonie,WAL,Liège,50.5333,5.7
4151,Anthisnes,Wallonie,WAL,Liège,50.4833,5.5167
4160,Anthisnes,Wallonie,WAL,Liège,50.4833,5.5167
4161,Anthisnes Villersaux-Tours,Wallonie,WAL,Liège,50.4867,5.5033
4162,Anthisnes,Wallonie,WAL,Liège,50.4833,5.5167
4163,Anthisnes Tavier,Wallonie,WAL,Liège,50.5,5.4667
4170,Comblainau-Pont,Wallonie,WAL,Liège,50.4952,5.5673
4171,Comblainau-Pont Poulseur,Wallonie,WAL,Liège,50.4952,5.5673
4180,Hamoir Comblain-Fairon,Wallonie,WAL,Liège,50.45,5.55
4181,Hamoir,Wallonie,WAL,Liège,50.4333,5.5333
4190,Ferrières Xhoris,Wallonie,WAL,Liège,50.45,5.6
4210,Burdinne Lamontzée,Wallonie,WAL,Liège,50.5833,5.0833
4217,Héron Waretl'Evêque,Wallonie,WAL,Liège,50.55,5.0917
4218,Héron Couthuin,Wallonie,WAL,Liège,50.5333,5.1333
4219,Wasseiges,Wallonie,WAL,Liège,50.6167,5
4250,Geer Hollognesur-Geer,Wallonie,WAL,Liège,50.6722,5.1611
4252,Geer Omal,Wallonie,WAL,Liège,50.65,5.2
4253,Geer,Wallonie,WAL,Liège,50.6667,5.1667
4254,Geer Ligney,Wallonie,WAL,Liège,50.6667,5.1833
4257,Berloz,Wallonie,WAL,Liège,50.7,5.2167
4260,Braives Fallais,Wallonie,WAL,Liège,50.6167,5.1667
4261,Braives Latinne,Wallonie,WAL,Liège,50.6167,5.1667
4263,Braives Tourinne,Wallonie,WAL,Liège,50.6333,5.15
4280,Hannut,Wallonie,WAL,Liège,50.6667,5.0833
4287,Lincent Pellaines,Wallonie,WAL,Liège,50.7167,5.0167
4300,Waremme Oleye,Wallonie,WAL,Liège,50.7167,5.2833
4317,Faimes Celles,Wallonie,WAL,Liège,50.64,5.2533
4340,Awans Othée,Wallonie,WAL,Liège,50.7167,5.45
4342,Awans Hognoul,Wallonie,WAL,Liège,50.6833,5.4333
4347,Fexhele-Haut-Clocher Voroux-Goreux,Wallonie,WAL,Liège,50.6833,5.45
4350,Remicourt Momalle,Wallonie,WAL,Liège,50.6833,5.3833
4351,Remicourt Hodeige,Wallonie,WAL,Liège,50.7,5.35
4357,Donceel Haneffe,Wallonie,WAL,Liège,50.6333,5.3167
4360,Oreye,Wallonie,WAL,Liège,50.7333,5.3667
4367,Crisnée,Wallonie,WAL,Liège,50.7167,5.4
4400,Flémalle Monslez-Liège,Wallonie,WAL,Liège,50.6033,5.4367
4420,Saint-Nicolas Tilleur,Wallonie,WAL,Liège,50.6167,5.5333
4430,Ans,Wallonie,WAL,Liège,50.65,5.5333
4431,Ans,Wallonie,WAL,Liège,50.65,5.5333
4432,Ans Alleur,Wallonie,WAL,Liège,50.6833,5.5
4450,Juprelle Slins,Wallonie,WAL,Liège,50.7,5.525
4451,Juprelle,Wallonie,WAL,Liège,50.7167,5.5333
4452,Juprelle Paifve,Wallonie,WAL,Liège,50.7333,5.5167
4453,Juprelle,Wallonie,WAL,Liège,50.7167,5.5333
4458,Juprelle Fexhe-Slins,Wallonie,WAL,Liège,50.7167,5.5667
4460,Grâce-Hollogne Horion-Hozémont,Wallonie,WAL,Liège,50.6275,5.3913
4470,Saint-Georgessur-Meuse,Wallonie,WAL,Liège,50.6624,5.4941
4480,Engis Hermallesous-Huy,Wallonie,WAL,Liège,50.5833,5.4167
4500,Huy Ben-Ahin,Wallonie,WAL,Liège,50.5167,5.1833
4520,Wanze Bas-Oha,Wallonie,WAL,Liège,50.5167,5.1833
4530,Villersle-Bouillet Vieux-Waleffe,Wallonie,WAL,Liège,50.6083,5.2917
4537,Verlaine,Wallonie,WAL,Liège,50.6,5.3167
4540,Amay,Wallonie,WAL,Liège,50.55,5.3167
4550,Nandrin Villersle-Temple,Wallonie,WAL,Liège,50.5222,5.4056
4557,Tinlot Ramelot,Wallonie,WAL,Liège,50.4667,5.3333
4560,Clavier Terwagne,Wallonie,WAL,Liège,50.45,5.3333
4570,Marchin,Wallonie,WAL,Liège,50.4667,5.2333
4577,Modave Vierset-Barse,Wallonie,WAL,Liège,50.4833,5.2667
4590,Ouffet Warzée,Wallonie,WAL,Liège,50.45,5.4333
4600,Visé Lixhe,Wallonie,WAL,Liège,50.75,5.6667
4601,Visé Argenteau,Wallonie,WAL,Liège,50.7,5.7
4602,Visé,Wallonie,WAL,Liège,50.7333,5.7
4606,Dalhem,Wallonie,WAL,Liège,50.7167,5.7167
4607,Dalhem Bombaye,Wallonie,WAL,Liège,50.7333,5.75
4608,Dalhem,Wallonie,WAL,Liège,50.7167,5.7167
4610,Beyne-Heusay,Wallonie,WAL,Liège,50.6167,5.65
4620,Fléron,Wallonie,WAL,Liège,50.6167,5.6833
4621,Fléron Retinne,Wallonie,WAL,Liège,50.6333,5.7
4623,Fléron Magnée,Wallonie,WAL,Liège,50.6,5.6667
4624,Fléron,Wallonie,WAL,Liège,50.6167,5.6833
4630,Soumagne,Wallonie,WAL,Liège,50.6167,5.75
4631,Soumagne Evegnée,Wallonie,WAL,Liège,50.65,5.7
4632,Soumagne,Wallonie,WAL,Liège,50.6167,5.75
4633,Soumagne,Wallonie,WAL,Liège,50.6167,5.75
4650,Herve,Wallonie,WAL,Liège,50.6333,5.8
4651,Herve,Wallonie,WAL,Liège,50.6333,5.8
4652,Herve Xhendelesse,Wallonie,WAL,Liège,50.6,5.7667
4653,Herve,Wallonie,WAL,Liège,50.6333,5.8
4654,Herve,Wallonie,WAL,Liège,50.6333,5.8
4670,Blégny,Wallonie,WAL,Liège,50.6667,5.7333
4671,Blégny Housse,Wallonie,WAL,Liège,50.6833,5.7
4672,Blégny Saint-Remy,Wallonie,WAL,Liège,50.7,5.7
4680,Oupeye Hermée,Wallonie,WAL,Liège,50.7167,5.6167
4681,Oupeye Hermallesous-Argenteau,Wallonie,WAL,Liège,50.7,5.65
4682,Oupeye Heurele-Romain,Wallonie,WAL,Liège,50.7167,5.6333
4683,Oupeye Vivegnis,Wallonie,WAL,Liège,50.7,5.65
4684,Oupeye Haccourt,Wallonie,WAL,Liège,50.7333,5.6667
4690,Bassenge Boirs,Wallonie,WAL,Liège,50.75,5.6
4700,Eupen,Wallonie,WAL,Liège,50.6333,6.0333
4701,Eupen,Wallonie,WAL,Liège,50.6333,6.0333
4710,Lontzen,Wallonie,WAL,Liège,50.6833,6
4711,Lontzen,Wallonie,WAL,Liège,50.6833,6
4720,Kelmis,Wallonie,WAL,Liège,50.4406,6.1303
4721,Kelmis,Wallonie,WAL,Liège,50.4406,6.1303
4728,Kelmis Hergenrath,Wallonie,WAL,Liège,50.4406,6.1303
4730,Raeren,Wallonie,WAL,Liège,50.6833,6.1167
4731,Raeren,Wallonie,WAL,Liège,50.6833,6.1167
4750,Bütgenbach Elsenborn,Wallonie,WAL,Liège,50.4406,6.1303
4760,Büllingen Manderfeld,Wallonie,WAL,Liège,50.3333,6.3333
4761,Büllingen Rocherath,Wallonie,WAL,Liège,50.4346,6.2975
4770,Amel Meyrode,Wallonie,WAL,Liège,50.3292,6.1892
4771,Amel,Wallonie,WAL,Liège,50.3626,6.2183
4780,Sankt Vith Sankt Vith,Wallonie,WAL,Liège,50.3097,6.0886
4782,Sankt Vith Schönberg,Wallonie,WAL,Liège,50.2892,6.265
4783,Sankt Vith Lommersweiler,Wallonie,WAL,Liège,50.24,6.165
4784,Sankt Vith,Wallonie,WAL,Liège,50.2833,6.1333
4790,Burg-Reuland,Wallonie,WAL,Liège,50.1969,6.1336
4791,Burg-Reuland Thommen,Wallonie,WAL,Liège,50.2192,6.0742
4800,Verviers Lambermont,Wallonie,WAL,Liège,50.5833,5.8333
4801,Verviers Stembert,Wallonie,WAL,Liège,50.5833,5.9
4802,Verviers Heusy,Wallonie,WAL,Liège,50.5833,5.85
4820,Dison,Wallonie,WAL,Liège,50.6167,5.85
4821,Dison Andrimont,Wallonie,WAL,Liège,50.6167,5.8833
4830,Limbourg,Wallonie,WAL,Liège,50.6167,5.9333
4831,Limbourg,Wallonie,WAL,Liège,50.6167,5.9333
4834,Limbourg,Wallonie,WAL,Liège,50.6167,5.9333
4837,Baelen Membach,Wallonie,WAL,Liège,50.6333,5.9667
4840,Welkenraedt,Wallonie,WAL,Liège,50.65,5.9667
4841,Welkenraedt Henri-Chapelle,Wallonie,WAL,Liège,50.6667,5.9333
4845,Jalhay,Wallonie,WAL,Liège,50.5667,5.9667
4850,Plombières,Wallonie,WAL,Liège,50.7333,5.95
4851,Plombières Sippenaeken,Wallonie,WAL,Liège,50.75,5.9333
4852,Plombières,Wallonie,WAL,Liège,50.7333,5.95
4860,Pepinster,Wallonie,WAL,Liège,50.5667,5.8167
4861,Pepinster,Wallonie,WAL,Liège,50.5667,5.8167
4870,Trooz Nessonvaux,Wallonie,WAL,Liège,50.5833,5.7333
4877,Olne,Wallonie,WAL,Liège,50.5833,5.75
4880,Aubel,Wallonie,WAL,Liège,50.7,5.85
4890,Thimister-Clermont,Wallonie,WAL,Liège,50.6244,5.8764
4900,Spa,Wallonie,WAL,Liège,50.5,5.8667
4910,Theux,Wallonie,WAL,Liège,50.5333,5.8167
4920,Aywaille,Wallonie,WAL,Liège,50.4667,5.6667
4950,Waimes Sourbrodt,Wallonie,WAL,Liège,50.4727,6.1186
4960,Malmedy Bellevaux-Ligneuville,Wallonie,WAL,Liège,50.4,6
4970,Stavelot Coo,Wallonie,WAL,Liège,50.4167,5.9417
4980,Trois-Ponts,Wallonie,WAL,Liège,50.355,5.9208
4983,Trois-Ponts,Wallonie,WAL,Liège,50.3589,5.8261
4987,Stoumont Cheneux,Wallonie,WAL,Liège,50.4033,5.78
4990,Lierneux Bra,Wallonie,WAL,Liège,50.3167,5.7333
5000,Namur Beez,Wallonie,WAL,Namur,50.4667,4.9167
5001,Namur,Wallonie,WAL,Namur,50.4667,4.8667
5002,Namur Saint-Servais,Wallonie,WAL,Namur,50.4667,4.8333
5003,Namur,Wallonie,WAL,Namur,50.4667,4.8667
5004,Namur,Wallonie,WAL,Namur,50.4667,4.8667
5020,Namur,Wallonie,WAL,Namur,50.4667,4.8667
5021,Namur,Wallonie,WAL,Namur,50.4667,4.8667
5022,Namur Cognelée,Wallonie,WAL,Namur,50.5167,4.9
5024,Namur Gelbressée,Wallonie,WAL,Namur,50.5167,4.95
5030,Gembloux Grand-Manil,Wallonie,WAL,Namur,50.55,4.6667
5031,Gembloux,Wallonie,WAL,Namur,50.5667,4.6833
5032,Gembloux,Wallonie,WAL,Namur,50.5667,4.6833
5060,Sambreville Falisolle,Wallonie,WAL,Namur,50.4167,4.6167
5070,Fossesla-Ville,Wallonie,WAL,Namur,50.4886,4.7695
5080,La Bruyère Rhisnes,Wallonie,WAL,Namur,50.5,4.8
5081,La Bruyère Saint-Denis-Bovesse,Wallonie,WAL,Namur,50.45,4.7167
5100,Namur Naninne,Wallonie,WAL,Namur,50.4189,4.9263
5101,Namur Livessur-Meuse,Wallonie,WAL,Namur,50.4583,4.8833
5140,Sombreffe,Wallonie,WAL,Namur,50.5167,4.6
5150,Floreffe,Wallonie,WAL,Namur,50.4333,4.7833
5170,Profondeville Arbre,Wallonie,WAL,Namur,50.3728,4.8514
5190,Jemeppesur-Sambre Spy,Wallonie,WAL,Namur,50.439,4.7972
5300,Andenne Sclayn,Wallonie,WAL,Namur,50.4833,5.0333
5310,Eghezée Branchon,Wallonie,WAL,Namur,50.6333,4.9667
5330,Assesse Sart-Bernard,Wallonie,WAL,Namur,50.4044,4.9491
5332,Assesse Crupet,Wallonie,WAL,Namur,50.3483,4.9606
5333,Assesse Sorinnela-Longue,Wallonie,WAL,Namur,50.3714,5.0232
5334,Assesse,Wallonie,WAL,Namur,50.3714,5.0232
5336,Assesse,Wallonie,WAL,Namur,50.3714,5.0232
5340,Gesves Haltinne,Wallonie,WAL,Namur,50.45,5.0833
5350,Ohey,Wallonie,WAL,Namur,50.4333,5.1333
5351,Ohey Haillot,Wallonie,WAL,Namur,50.4333,5.15
5352,Ohey Perwez,Wallonie,WAL,Namur,50.4333,5.1333
5353,Ohey,Wallonie,WAL,Namur,50.4333,5.1333
5354,Ohey,Wallonie,WAL,Namur,50.4333,5.1333
5360,Hamois,Wallonie,WAL,Namur,50.3419,5.157
5361,Hamois Mohiville,Wallonie,WAL,Namur,50.3167,5.1833
5362,Hamois,Wallonie,WAL,Namur,50.3419,5.157
5363,Hamois,Wallonie,WAL,Namur,50.3419,5.157
5364,Hamois Schaltin,Wallonie,WAL,Namur,50.35,5.1167
5370,Havelange Porcheresse,Wallonie,WAL,Namur,50.3658,5.2405
5372,Havelange,Wallonie,WAL,Namur,50.3833,5.2333
5374,Havelange,Wallonie,WAL,Namur,50.3833,5.2333
5376,Havelange Miécret,Wallonie,WAL,Namur,50.3667,5.25
5377,Somme-Leuze Waillet,Wallonie,WAL,Namur,50.2667,5.3
5380,Fernelmont Bierwart,Wallonie,WAL,Namur,50.5667,5.0167
5500,Dinant,Wallonie,WAL,Namur,50.2667,4.9167
5501,Dinant,Wallonie,WAL,Namur,50.2667,4.9167
5502,Dinant Thynes,Wallonie,WAL,Namur,50.2794,4.9851
5503,Dinant,Wallonie,WAL,Namur,50.2667,4.9167
5504,Dinant,Wallonie,WAL,Namur,50.2667,4.9167
5520,Onhaye Anthée,Wallonie,WAL,Namur,50.25,4.75
5521,Onhaye,Wallonie,WAL,Namur,50.25,4.8333
5522,Onhaye,Wallonie,WAL,Namur,50.25,4.8333
5523,Onhaye Weillen,Wallonie,WAL,Namur,50.2667,4.8333
5524,Onhaye,Wallonie,WAL,Namur,50.25,4.8333
5530,Yvoir Dorinne,Wallonie,WAL,Namur,50.3161,4.9725
5537,Anhée Hautle-Wastia,Wallonie,WAL,Namur,50.3212,4.813
5540,Hastière Hastière-Lavaux,Wallonie,WAL,Namur,50.2167,4.8333
5541,Hastière,Wallonie,WAL,Namur,50.2167,4.8333
5542,Hastière Blaimont,Wallonie,WAL,Namur,50.2,4.8333
5543,Hastière Heer,Wallonie,WAL,Namur,50.1667,4.8333
5544,Hastière Agimont,Wallonie,WAL,Namur,50.1667,4.8
5550,Vressesur-Semois Mouzaive,Wallonie,WAL,Namur,49.9095,5.0262
5555,Bièvre Cornimont,Wallonie,WAL,Namur,49.8667,5
5560,Houyet Ciergnon,Wallonie,WAL,Namur,50.1667,5.0833
5561,Houyet Celles,Wallonie,WAL,Namur,50.1833,5.0167
5562,Houyet,Wallonie,WAL,Namur,50.1833,5.0167
5563,Houyet Hour,Wallonie,WAL,Namur,50.1667,5.0333
5564,Houyet Wanlin,Wallonie,WAL,Namur,50.1667,5.0667
5570,Beauraing Dion,Wallonie,WAL,Namur,50.1167,4.8833
5571,Beauraing,Wallonie,WAL,Namur,50.1167,4.9667
5572,Beauraing,Wallonie,WAL,Namur,50.1167,4.9667
5573,Beauraing Martouzin-Neuville,Wallonie,WAL,Namur,50.1167,5
5574,Beauraing Pondrôme,Wallonie,WAL,Namur,50.1,5.0167
5575,Gedinne Sart-Custinne,Wallonie,WAL,Namur,50,4.9167
5576,Beauraing Froidfontaine,Wallonie,WAL,Namur,50.1167,4.9667
5580,Rochefort Eprave,Wallonie,WAL,Namur,50.15,5.1667
5590,Ciney Chevetogne,Wallonie,WAL,Namur,50.2167,5.1167
5600,Philippeville Samart,Wallonie,WAL,Namur,50.1833,4.5333
5620,Florennes Morville,Wallonie,WAL,Namur,50.2333,4.75
5621,Florennes Hanzinelle,Wallonie,WAL,Namur,50.3,4.5667
5630,Cerfontaine Soumoy,Wallonie,WAL,Namur,50.1833,4.4333
5640,Mettet Oret,Wallonie,WAL,Namur,50.3,4.6167
5641,Mettet,Wallonie,WAL,Namur,50.3167,4.6667
5644,Mettet Ermetonsur-Biert,Wallonie,WAL,Namur,50.3167,4.6667
5646,Mettet Stave,Wallonie,WAL,Namur,50.2833,4.6667
5650,Walcourt Clermont,Wallonie,WAL,Namur,50.25,4.4333
5651,Walcourt Rognée,Wallonie,WAL,Namur,50.2667,4.3833
5660,Couvin Culdes-Sarts,Wallonie,WAL,Namur,50.0429,4.4571
5670,Viroinval,Wallonie,WAL,Namur,50.08,4.6367
5680,Doische Matagnela-Grande,Wallonie,WAL,Namur,50.1458,4.7292
6000,Charleroi,Wallonie,WAL,Hainaut,50.4167,4.4333
6001,Charleroi,Wallonie,WAL,Hainaut,50.4167,4.4333
6010,Charleroi Couillet,Wallonie,WAL,Hainaut,50.4167,4.4333
6020,Charleroi,Wallonie,WAL,Hainaut,50.4167,4.4333
6030,Charleroi,Wallonie,WAL,Hainaut,50.4167,4.4333
6031,Charleroi,Wallonie,WAL,Hainaut,50.4167,4.4333
6032,Charleroi Montsur-Marchienne,Wallonie,WAL,Hainaut,50.4167,4.4333
6040,Charleroi,Wallonie,WAL,Hainaut,50.4167,4.4333
6041,Charleroi Gosselies,Wallonie,WAL,Hainaut,50.5333,4.4333
6042,Charleroi Lodelinsart,Wallonie,WAL,Hainaut,50.4167,4.4333
6043,Charleroi Ransart,Wallonie,WAL,Hainaut,50.4167,4.4333
6044,Charleroi,Wallonie,WAL,Hainaut,50.4167,4.4333
6060,Charleroi,Wallonie,WAL,Hainaut,50.4167,4.4333
6061,Charleroi,Wallonie,WAL,Hainaut,50.4167,4.4333
6110,Montignyle-Tilleul,Wallonie,WAL,Hainaut,50.4524,4.3405
6111,Montignyle-Tilleul Landelies,Wallonie,WAL,Hainaut,50.4524,4.3405
6120,Hamsur-Heure-Nalinnes,Wallonie,WAL,Hainaut,50.4524,4.3405
6140,Fontainel'Evêque,Wallonie,WAL,Hainaut,50.4524,4.3405
6141,Fontainel'Evêque Forchiesla-Marche,Wallonie,WAL,Hainaut,50.4524,4.3405
6142,Fontainel'Evêque,Wallonie,WAL,Hainaut,50.4524,4.3405
6150,Anderlues,Wallonie,WAL,Hainaut,50.4,4.2667
6180,Courcelles,Wallonie,WAL,Hainaut,50.4667,4.3667
6181,Courcelles,Wallonie,WAL,Hainaut,50.4667,4.3667
6182,Courcelles Souvret,Wallonie,WAL,Hainaut,50.4333,4.3333
6183,Courcelles Trazegnies,Wallonie,WAL,Hainaut,50.4667,4.3167
6200,Châtelet Châtelineau,Wallonie,WAL,Hainaut,50.4167,4.5167
6210,Les Bons Villers Frasneslez-Gosselies,Wallonie,WAL,Hainaut,50.5132,4.4466
6211,Les Bons Villers,Wallonie,WAL,Hainaut,50.5,4.4667
6220,Fleurus Lambusart,Wallonie,WAL,Hainaut,50.45,4.55
6221,Fleurus,Wallonie,WAL,Hainaut,50.4814,4.5488
6222,Fleurus,Wallonie,WAL,Hainaut,50.4814,4.5488
6223,Fleurus,Wallonie,WAL,Hainaut,50.4814,4.5488
6224,Fleurus,Wallonie,WAL,Hainaut,50.4814,4.5488
6230,Pontà-Celles Viesville,Wallonie,WAL,Hainaut,50.4387,4.5254
6238,Pontà-Celles,Wallonie,WAL,Hainaut,50.4387,4.5254
6240,Farciennes,Wallonie,WAL,Hainaut,50.4333,4.55
6250,Aiseau-Presles Roselies,Wallonie,WAL,Hainaut,50.3833,4.5833
6280,Gerpinnes Loverval,Wallonie,WAL,Hainaut,50.3667,4.4667
6440,Froidchapelle Boussulez-Walcourt,Wallonie,WAL,Hainaut,50.0574,4.3157
6441,Froidchapelle Erpion,Wallonie,WAL,Hainaut,50.0574,4.3157
6460,Chimay Villersla-Tour,Wallonie,WAL,Hainaut,50.0567,4.2767
6461,Chimay,Wallonie,WAL,Hainaut,50.05,4.3167
6462,Chimay,Wallonie,WAL,Hainaut,50.05,4.3167
6463,Chimay,Wallonie,WAL,Hainaut,50.05,4.3167
6464,Chimay,Wallonie,WAL,Hainaut,50.05,4.3167
6470,Sivry-Rance Montbliart,Wallonie,WAL,Hainaut,50.15,4.2667
6500,Beaumont Barbençon,Wallonie,WAL,Hainaut,50.2167,4.2667
6511,Beaumont Strée,Wallonie,WAL,Hainaut,50.2333,4.2333
6530,Thuin Leerset-Fosteau,Wallonie,WAL,Hainaut,50.3333,4.2833
6531,Thuin Biesmesous-Thuin,Wallonie,WAL,Hainaut,50.3333,4.2833
6532,Thuin Ragnies,Wallonie,WAL,Hainaut,50.3,4.2667
6533,Thuin,Wallonie,WAL,Hainaut,50.3333,4.2833
6534,Thuin Gozée,Wallonie,WAL,Hainaut,50.3333,4.35
6536,Thuin Thuillies,Wallonie,WAL,Hainaut,50.3,4.3167
6540,Lobbes Mont-Sainte-Geneviève,Wallonie,WAL,Hainaut,50.3667,4.2167
6542,Lobbes Sarsla-Buissière,Wallonie,WAL,Hainaut,50.35,4.25
6543,Lobbes Biennelez-Happart,Wallonie,WAL,Hainaut,50.35,4.25
6560,Erquelinnes Grand-Reng,Wallonie,WAL,Hainaut,50.3283,4.0702
6567,Merbesle-Château Labuissière,Wallonie,WAL,Hainaut,50.3029,4.1342
6590,Momignies,Wallonie,WAL,Hainaut,50.0333,4.1667
6591,Momignies,Wallonie,WAL,Hainaut,50.0333,4.1667
6592,Momignies Monceau-Imbrechies,Wallonie,WAL,Hainaut,50.0333,4.2167
6593,Momignies Macquenoise,Wallonie,WAL,Hainaut,49.9833,4.1833
6594,Momignies Beauwelz,Wallonie,WAL,Hainaut,50.0167,4.15
6596,Momignies Forge-Philippe,Wallonie,WAL,Hainaut,49.9667,4.2667
6600,Bastogne,Wallonie,WAL,Luxembourg,50,5.7167
6630,Martelange,Wallonie,WAL,Luxembourg,49.8333,5.7333
6637,Fauvillers,Wallonie,WAL,Luxembourg,49.85,5.6667
6640,Vaux-sur-Sûre Hompré,Wallonie,WAL,Luxembourg,49.8833,5.55
6642,Juseret,Wallonie,WAL,Luxembourg Bastogne,49.8797,5.5492
6660,Houffalize,Wallonie,WAL,Luxembourg,50.1334,5.7888
6661,Houffalize Mont,Wallonie,WAL,Luxembourg,50.1535,5.769
6662,Houffalize Tavigny,Wallonie,WAL,Luxembourg,50.1085,5.8379
6663,Houffalize Mabompré,Wallonie,WAL,Luxembourg,50.099,5.7398
6666,Houffalize Wibrin,Wallonie,WAL,Luxembourg,50.1667,5.7167
6670,Gouvy,Wallonie,WAL,Luxembourg,50.185,5.9411
6671,Gouvy,Wallonie,WAL,Luxembourg,50.185,5.9411
6672,Gouvy Beho,Wallonie,WAL,Luxembourg,50.2206,5.9981
6673,Gouvy Cherain,Wallonie,WAL,Luxembourg,50.1833,5.8667
6674,Gouvy,Wallonie,WAL,Luxembourg,50.185,5.9411
6680,Sainte-Ode Tillet,Wallonie,WAL,Luxembourg,50.0167,5.5333
6681,Sainte-Ode,Wallonie,WAL,Luxembourg,50.0833,5.5333
6686,Bertogne Flamierge,Wallonie,WAL,Luxembourg,50.085,5.6684
6687,Bertogne,Wallonie,WAL,Luxembourg,50.085,5.6684
6688,Bertogne Longchamps,Wallonie,WAL,Luxembourg,50.085,5.6684
6690,Vielsalm,Wallonie,WAL,Luxembourg,50.2847,5.9186
6692,Vielsalm,Wallonie,WAL,Luxembourg,50.2847,5.9186
6698,Vielsalm,Wallonie,WAL,Luxembourg,50.2847,5.9186
6700,Arlon Toernich,Wallonie,WAL,Luxembourg,49.65,5.7833
6704,Arlon Guirsch,Wallonie,WAL,Luxembourg,49.7333,5.85
6706,Arlon Autelbas,Wallonie,WAL,Luxembourg,49.65,5.8667
6717,Attert Nobressart,Wallonie,WAL,Luxembourg,49.75,5.7167
6720,Habay Habayla-Neuve,Wallonie,WAL,Luxembourg,49.7,5.6833
6721,Habay,Wallonie,WAL,Luxembourg,49.7833,5.6167
6723,Habay Habayla-Vieille,Wallonie,WAL,Luxembourg,49.73,5.5967
6724,Habay Marbehan,Wallonie,WAL,Luxembourg,49.7333,5.5333
6730,Tintigny Rossignol,Wallonie,WAL,Luxembourg,49.7167,5.4833
6740,Etalle,Wallonie,WAL,Luxembourg,49.6833,5.6
6741,Etalle,Wallonie,WAL,Luxembourg,49.6833,5.6
6742,Etalle,Wallonie,WAL,Luxembourg,49.6833,5.6
6743,Etalle,Wallonie,WAL,Luxembourg,49.6833,5.6
6747,Saint-Léger Meixle-Tige,Wallonie,WAL,Luxembourg,49.625,5.675
6750,Musson Signeulx,Wallonie,WAL,Luxembourg,49.55,5.6333
6760,Virton Ruette,Wallonie,WAL,Luxembourg,49.5333,5.5833
6761,Virton,Wallonie,WAL,Luxembourg,49.5667,5.5333
6762,Virton Saint-Mard,Wallonie,WAL,Luxembourg,49.55,5.5333
6767,Rouvroy Harnoncourt,Wallonie,WAL,Luxembourg,49.5333,5.5
6769,Meixdevant-Virton Robelmont,Wallonie,WAL,Luxembourg,49.5528,5.5389
6780,Messancy Hondelange,Wallonie,WAL,Luxembourg,49.6333,5.8333
6781,Messancy,Wallonie,WAL,Luxembourg,49.6,5.8167
6782,Messancy Habergy,Wallonie,WAL,Luxembourg,49.6167,5.7667
6790,Aubange,Wallonie,WAL,Luxembourg,49.5833,5.8
6791,Aubange,Wallonie,WAL,Luxembourg,49.5833,5.8
6792,Aubange,Wallonie,WAL,Luxembourg,49.5833,5.8
6800,Libramont-Chevigny Recogne,Wallonie,WAL,Luxembourg,49.8407,5.2515
6810,Chiny Izel,Wallonie,WAL,Luxembourg,49.7,5.3833
6811,Chiny Les Bulles,Wallonie,WAL,Luxembourg,49.7,5.4167
6812,Chiny Suxy,Wallonie,WAL,Luxembourg,49.7667,5.3833
6813,Chiny Termes,Wallonie,WAL,Luxembourg,49.7167,5.45
6820,Florenville,Wallonie,WAL,Luxembourg,49.7,5.3
6821,Florenville,Wallonie,WAL,Luxembourg,49.7,5.3
6823,Florenville,Wallonie,WAL,Luxembourg,49.7,5.3
6824,Florenville Chassepierre,Wallonie,WAL,Luxembourg,49.7,5.2667
6830,Bouillon Les Hayons,Wallonie,WAL,Luxembourg,49.8167,5.1333
6831,Bouillon,Wallonie,WAL,Luxembourg,49.8,5.0667
6832,Bouillon,Wallonie,WAL,Luxembourg,49.8,5.0667
6833,Bouillon Vivy,Wallonie,WAL,Luxembourg,49.8667,5.0333
6834,Bouillon,Wallonie,WAL,Luxembourg,49.8,5.0667
6836,Bouillon,Wallonie,WAL,Luxembourg,49.8,5.0667
6838,Bouillon Corbion,Wallonie,WAL,Luxembourg,49.8,5.0667
6840,Neufchâteau Hamipré,Wallonie,WAL,Luxembourg,49.8333,5.45
6850,Paliseul,Wallonie,WAL,Luxembourg,49.9,5.1333
6851,Paliseul Nollevaux,Wallonie,WAL,Luxembourg,49.8833,5.1167
6852,Paliseul Opont,Wallonie,WAL,Luxembourg,49.9333,5.1167
6853,Paliseul,Wallonie,WAL,Luxembourg,49.9,5.1333
6856,Paliseul Faysles-Veneurs,Wallonie,WAL,Luxembourg,49.9,5.1333
6860,Léglise,Wallonie,WAL,Luxembourg,49.8,5.5333
6870,Saint-Hubert Hatrival,Wallonie,WAL,Luxembourg,50.006,5.3482
6880,Bertrix Jehonville,Wallonie,WAL,Luxembourg,49.9,5.2
6887,Herbeumont Saint-Médard,Wallonie,WAL,Luxembourg,49.8167,5.3333
6890,Libin Transinne,Wallonie,WAL,Luxembourg,50,5.2
6900,Marche-en-Famenne Humain,Wallonie,WAL,Luxembourg,50.2,5.25
6920,Wellin,Wallonie,WAL,Luxembourg,50.0833,5.1167
6921,Wellin,Wallonie,WAL,Luxembourg,50.0833,5.1167
6922,Wellin Halma,Wallonie,WAL,Luxembourg,50.0833,5.1333
6924,Wellin,Wallonie,WAL,Luxembourg,50.0833,5.1167
6927,Tellin,Wallonie,WAL,Luxembourg,50.0833,5.2167
6929,Daverdisse Haut-Fays,Wallonie,WAL,Luxembourg,50,5.0167
6940,Durbuy Wéris,Wallonie,WAL,Luxembourg,50.3333,5.5333
6941,Durbuy,Wallonie,WAL,Luxembourg,50.35,5.4667
6950,Nassogne,Wallonie,WAL,Luxembourg,50.1333,5.35
6951,Nassogne Bande,Wallonie,WAL,Luxembourg,50.1667,5.4167
6952,Nassogne Grune,Wallonie,WAL,Luxembourg,50.15,5.3833
6953,Nassogne Lesterny,Wallonie,WAL,Luxembourg,50.1167,5.2833
6960,Manhay Harre,Wallonie,WAL,Luxembourg,50.3516,5.6574
6970,Tenneville,Wallonie,WAL,Luxembourg,50.1,5.5333
6971,Tenneville,Wallonie,WAL,Luxembourg,50.1,5.5333
6972,Tenneville,Wallonie,WAL,Luxembourg,50.1,5.5333
6980,La Rocheen-Ardenne Beausaint,Wallonie,WAL,Luxembourg,50.225,5.5125
6982,La Rocheen-Ardenne Samrée,Wallonie,WAL,Luxembourg,50.225,5.5125
6983,La Rocheen-Ardenne,Wallonie,WAL,Luxembourg,50.225,5.5125
6984,La Rocheen-Ardenne Hives,Wallonie,WAL,Luxembourg,50.225,5.5125
6986,La Rocheen-Ardenne Halleux,Wallonie,WAL,Luxembourg,50.225,5.5125
6987,Rendeux,Wallonie,WAL,Luxembourg,50.2333,5.5
6990,Hotton Fronville,Wallonie,WAL,Luxembourg,50.3,5.4167
6997,Erezée Mormont,Wallonie,WAL,Luxembourg,50.3167,5.5833
7000,Mons,Wallonie,WAL,Hainaut,50.4541,3.9523
7010,S.H.A.P.E. Belgique,Wallonie,WAL,Hainaut Mons,50.5041,3.9754
7011,Mons,Wallonie,WAL,Hainaut,50.4541,3.9523
7012,Mons Flénu,Wallonie,WAL,Hainaut,50.4541,3.9523
7020,"Mons Casteau,Maisières,Masnuy-Saint-Jean",Wallonie,WAL,Hainaut,50.4541,3.9523
7021,Mons,Wallonie,WAL,Hainaut,50.4541,3.9523
7022,Mons Mesvin,Wallonie,WAL,Hainaut,50.4541,3.9523
7024,Mons,Wallonie,WAL,Hainaut,50.4541,3.9523
7030,Mons,Wallonie,WAL,Hainaut,50.4541,3.9523
7031,Mons,Wallonie,WAL,Hainaut,50.4541,3.9523
7032,Mons Spiennes,Wallonie,WAL,Hainaut,50.4541,3.9523
7033,Mons Cuesmes,Wallonie,WAL,Hainaut,50.4541,3.9523
7034,Mons,Wallonie,WAL,Hainaut,50.4541,3.9523
7040,Quévy Quévyle-Grand,Wallonie,WAL,Hainaut,50.3696,3.9249
7041,Quévy Givry,Wallonie,WAL,Hainaut,50.3783,4.0293
7050,Jurbise Erbaut,Wallonie,WAL,Hainaut,50.5333,3.8833
7060,Soignies Horrues,Wallonie,WAL,Hainaut,50.6,4.0333
7061,Soignies Casteau,Wallonie,WAL,Hainaut,50.5479,4.0606
7062,Soignies Naast,Wallonie,WAL,Hainaut,50.5541,4.1008
7063,Soignies,Wallonie,WAL,Hainaut,50.579,4.0713
7070,Le Roeulx Thieu,Wallonie,WAL,Hainaut,50.4743,4.0926
7080,Frameries Sarsla-Bruyère,Wallonie,WAL,Hainaut,50.4046,3.8988
7090,Brainele-Comte Ronquières,Wallonie,WAL,Hainaut,50.4728,3.974
7100,La Louvière Saint-Vaast,Wallonie,WAL,Hainaut,50.45,4.15
7110,La Louvière Houdeng-Goegnies,Wallonie,WAL,Hainaut,50.4713,4.1266
7120,Estinnes Estinnesau-Val,Wallonie,WAL,Hainaut,50.3663,4.0957
7130,Binche,Wallonie,WAL,Hainaut,50.4,4.1667
7131,Binche,Wallonie,WAL,Hainaut,50.4,4.1667
7133,Binche,Wallonie,WAL,Hainaut,50.4,4.1667
7134,Binche Leval-Trahegnies,Wallonie,WAL,Hainaut,50.4167,4.2167
7140,Morlanwelz,Wallonie,WAL,Hainaut,50.45,4.2333
7141,Morlanwelz Mont-Sainte-Aldegonde,Wallonie,WAL,Hainaut,50.4333,4.2167
7160,Chapellelez-Herlaimont Godarville,Wallonie,WAL,Hainaut,50.4495,4.1765
7170,Manage Boisd'Haine,Wallonie,WAL,Hainaut,50.4833,4.2333
7180,Seneffe,Wallonie,WAL,Hainaut,50.5167,4.25
7181,Seneffe Familleureux,Wallonie,WAL,Hainaut,50.5167,4.2
7190,Ecaussinnes,Wallonie,WAL,Hainaut,50.5667,4.1833
7191,Ecaussinnes Ecaussinnes-Lalaing,Wallonie,WAL,Hainaut,50.5667,4.1833
7300,Boussu,Wallonie,WAL,Hainaut,50.4342,3.7944
7301,Boussu Hornu,Wallonie,WAL,Hainaut,50.4328,3.8274
7320,Bernissart,Wallonie,WAL,Hainaut,50.4746,3.6496
7321,Bernissart,Wallonie,WAL,Hainaut,50.4746,3.6496
7322,Bernissart Pommeroeul,Wallonie,WAL,Hainaut,50.473,3.6901
7330,Saint-Ghislain,Wallonie,WAL,Hainaut,50.4482,3.8189
7331,Saint-Ghislain Baudour,Wallonie,WAL,Hainaut,50.483,3.8332
7332,Saint-Ghislain,Wallonie,WAL,Hainaut,50.4482,3.8189
7333,Saint-Ghislain Tertre,Wallonie,WAL,Hainaut,50.4692,3.8124
7334,Saint-Ghislain Villerot,Wallonie,WAL,Hainaut,50.4863,3.7905
7340,Colfontaine Pâturages,Wallonie,WAL,Hainaut,50.4072,3.855
7350,Hensies Montroeulsur-Haine,Wallonie,WAL,Hainaut,50.4307,3.7303
7370,Dour Elouges,Wallonie,WAL,Hainaut,50.4024,3.7517
7380,Quiévrain Baisieux,Wallonie,WAL,Hainaut,50.3874,3.6955
7382,Quiévrain,Wallonie,WAL,Hainaut,50.4074,3.6835
7387,Honnelles Angreau,Wallonie,WAL,Hainaut,50.3508,3.6915
7390,Quaregnon,Wallonie,WAL,Hainaut,50.4407,3.8653
7500,Tournai Ere,Wallonie,WAL,Hainaut,50.5833,3.3667
7501,Tournai,Wallonie,WAL,Hainaut,50.6,3.3833
7502,Tournai,Wallonie,WAL,Hainaut,50.6,3.3833
7503,Tournai,Wallonie,WAL,Hainaut,50.6,3.3833
7504,Tournai,Wallonie,WAL,Hainaut,50.6,3.3833
7506,Tournai Willemeau,Wallonie,WAL,Hainaut,50.5667,3.3333
7520,Tournai Ramegnies-Chin,Wallonie,WAL,Hainaut,50.6,3.3833
7521,Tournai Chercq,Wallonie,WAL,Hainaut,50.6,3.3833
7522,Tournai Marquain,Wallonie,WAL,Hainaut,50.6,3.3833
7530,Tournai,Wallonie,WAL,Hainaut,50.6,3.3833
7531,Tournai Havinnes,Wallonie,WAL,Hainaut,50.6,3.3833
7532,Tournai Beclers,Wallonie,WAL,Hainaut,50.6,3.3833
7533,Tournai Thimougies,Wallonie,WAL,Hainaut,50.6,3.3833
7534,Tournai,Wallonie,WAL,Hainaut,50.6,3.3833
7536,Tournai,Wallonie,WAL,Hainaut,50.6,3.3833
7538,Tournai Vezon,Wallonie,WAL,Hainaut,50.6,3.3833
7540,Tournai,Wallonie,WAL,Hainaut,50.6,3.3833
7542,Tournai Mont-Saint-Aubert,Wallonie,WAL,Hainaut,50.6,3.3833
7543,Tournai,Wallonie,WAL,Hainaut,50.6,3.3833
7548,Tournai,Wallonie,WAL,Hainaut,50.6,3.3833
7600,Péruwelz,Wallonie,WAL,Hainaut,50.5082,3.5937
7601,Péruwelz Roucourt,Wallonie,WAL,Hainaut,50.5288,3.5863
7602,Péruwelz,Wallonie,WAL,Hainaut,50.5082,3.5937
7603,Péruwelz,Wallonie,WAL,Hainaut,50.5082,3.5937
7604,Péruwelz,Wallonie,WAL,Hainaut,50.5082,3.5937
7608,Péruwelz,Wallonie,WAL,Hainaut,50.5082,3.5937
7610,Rumes,Wallonie,WAL,Hainaut,50.55,3.3
7611,Rumes,Wallonie,WAL,Hainaut,50.55,3.3
7618,Rumes Taintignies,Wallonie,WAL,Hainaut,50.55,3.3333
7620,Brunehaut,Wallonie,WAL,Hainaut,50.539,3.4902
7621,Brunehaut Lesdain,Wallonie,WAL,Hainaut,50.539,3.4902
7622,Brunehaut Laplaigne,Wallonie,WAL,Hainaut,50.539,3.4902
7623,Brunehaut Rongy,Wallonie,WAL,Hainaut,50.539,3.4902
7624,Brunehaut,Wallonie,WAL,Hainaut,50.539,3.4902
7640,Antoing Péronneslez-Antoing,Wallonie,WAL,Hainaut,50.5588,3.477
7641,Antoing,Wallonie,WAL,Hainaut,50.5667,3.45
7642,Antoing,Wallonie,WAL,Hainaut,50.5667,3.45
7643,Antoing,Wallonie,WAL,Hainaut,50.5667,3.45
7700,Mouscron,Wallonie,WAL,Hainaut,50.7333,3.2167
7711,Mouscron Dottignies,Wallonie,WAL,Hainaut,50.7333,3.2167
7712,Mouscron Herseaux,Wallonie,WAL,Hainaut,50.7333,3.2167
7730,Estaimpuis Evregnies,Wallonie,WAL,Hainaut,50.7167,3.2833
7740,Pecq Warcoing,Wallonie,WAL,Hainaut,50.7,3.3333
7742,Pecq Hérinneslez-Pecq,Wallonie,WAL,Hainaut,50.6833,3.3333
7743,Pecq Esquelmes,Wallonie,WAL,Hainaut,50.6667,3.3333
7750,Montdel'Enclus Russeignies,Wallonie,WAL,Hainaut,50.7005,3.2756
7760,Celles Escanaffles,Wallonie,WAL,Hainaut,50.7167,3.45
7780,Comines-Warneton,Wallonie,WAL,Hainaut,50.7594,2.96
7781,Comines-Warneton,Wallonie,WAL,Hainaut,50.7594,2.96
7782,Comines-Warneton,Wallonie,WAL,Hainaut,50.7594,2.96
7783,Comines-Warneton,Wallonie,WAL,Hainaut,50.7594,2.96
7784,Comines-Warneton Warneton,Wallonie,WAL,Hainaut,50.7594,2.96
7800,Ath Lanquesaint,Wallonie,WAL,Hainaut,50.6539,3.8043
7801,Ath Irchonwelz,Wallonie,WAL,Hainaut,50.6207,3.7508
7802,Ath,Wallonie,WAL,Hainaut,50.6294,3.778
7803,Ath,Wallonie,WAL,Hainaut,50.6294,3.778
7804,Ath Ostiches,Wallonie,WAL,Hainaut,50.6786,3.759
7810,Ath,Wallonie,WAL,Hainaut,50.6294,3.778
7811,Ath,Wallonie,WAL,Hainaut,50.6294,3.778
7812,Ath Villers-Saint-Amand,Wallonie,WAL,Hainaut,50.6294,3.778
7822,Ath,Wallonie,WAL,Hainaut,50.6294,3.778
7823,Ath Gibecq,Wallonie,WAL,Hainaut,50.6294,3.778
7830,Silly Gondregnies,Wallonie,WAL,Hainaut,50.6264,3.9104
7850,Enghien,Wallonie,WAL,Hainaut,50.7,4.0333
7860,Lessines,Wallonie,WAL,Hainaut,50.7167,3.8333
7861,Lessines Papignies,Wallonie,WAL,Hainaut,50.686,3.8178
7862,Lessines,Wallonie,WAL,Hainaut,50.7167,3.8333
7863,Lessines Ghoy,Wallonie,WAL,Hainaut,50.7167,3.8
7864,Lessines,Wallonie,WAL,Hainaut,50.7167,3.8333
7866,Lessines Boisde-Lessines,Wallonie,WAL,Hainaut,50.7,3.8417
7870,Lens Cambron-Saint-Vincent,Wallonie,WAL,Hainaut,50.5849,3.9219
7880,Flobecq,Wallonie,WAL,Hainaut,50.7333,3.7333
7890,Ellezelles,Wallonie,WAL,Hainaut,50.7333,3.6833
7900,Leuzeen-Hainaut,Wallonie,WAL,Hainaut,50.5523,3.7431
7901,Leuzeen-Hainaut Thieulain,Wallonie,WAL,Hainaut,50.5523,3.7431
7903,Leuzeen-Hainaut Chapelleà-Oie,Wallonie,WAL,Hainaut,50.5523,3.7431
7904,Leuzeen-Hainaut Willaupuis,Wallonie,WAL,Hainaut,50.5523,3.7431
7906,Leuzeen-Hainaut,Wallonie,WAL,Hainaut,50.5523,3.7431
7910,Frasneslez-Anvaing Anvaing,Wallonie,WAL,Hainaut,50.5523,3.7431
7911,Frasneslez-Anvaing Oeudeghien,Wallonie,WAL,Hainaut,50.5523,3.7431
7912,Frasneslez-Anvaing Dergneau,Wallonie,WAL,Hainaut,50.5523,3.7431
7940,Brugelette Cambron-Casteau,Wallonie,WAL,Hainaut,50.5911,3.8823
7941,Brugelette Attre,Wallonie,WAL,Hainaut,50.6073,3.8392
7942,Brugelette Mévergnieslez-Lens,Wallonie,WAL,Hainaut,50.6003,3.8666
7943,Brugelette Gages,Wallonie,WAL,Hainaut,50.6069,3.8914
7950,Chièvres,Wallonie,WAL,Hainaut,50.5879,3.8071
7951,Chièvres,Wallonie,WAL,Hainaut,50.5879,3.8071
7970,Beloeil,Wallonie,WAL,Hainaut,50.5505,3.7348
7971,Beloeil Ramegnies,Wallonie,WAL,Hainaut,50.5442,3.6348
7972,Beloeil Ellignies-Sainte-Anne,Wallonie,WAL,Hainaut,50.5618,3.6727
7973,Beloeil Grandglise,Wallonie,WAL,Hainaut,50.5057,3.6963
1100,Postcheque,,,,50.835,4.3647
1105,SOC,,,,50.835,4.3647
4090,F.B.A. (Forces Belges en Allemagne),,,,50.638,5.5978
