Postal Code,Place Name,Latitude,Longitude
0002,Helsinki,60.1756,24.9342
0003,Helsinki,60.1756,24.9342
0004,Helsinki,60.1756,24.9342
0006,Helsinki,60.1756,24.9342
0007,Helsinki,60.1756,24.9342
0010,Helsinki,60.1756,24.9342
0100,Helsinki,60.1685,24.9447
0101,Helsinki,60.1756,24.9342
0120,Helsinki,60.1667,24.9667
0121,Helsinki,60.1756,24.9342
0130,Helsinki,60.1628,24.9489
0131,Helsinki,60.1756,24.9342
0140,Helsinki,60.1756,24.9342
0141,Helsinki,60.1756,24.9342
0150,Helsinki,60.1756,24.9342
0151,Helsinki,60.1756,24.9342
0160,Helsinki,60.1658,24.9679
0161,Helsinki,60.1756,24.9342
0170,Helsinki,60.1756,24.9342
0171,Helsinki,60.1756,24.9342
0180,Helsinki,60.1612,24.9268
0181,Helsinki,60.1756,24.9342
0190,Helsinki,60.1756,24.9342
0191,Helsinki,60.1756,24.9342
0200,Helsinki,60.1756,24.9342
0201,Helsinki,60.1756,24.9342
0210,Helsinki,60.1756,24.9342
0211,Helsinki,60.1756,24.9342
0230,Helsinki,60.1756,24.9342
0231,Helsinki,60.1756,24.9342
0240,Helsinki,60.1756,24.9342
0241,Helsinki,60.1756,24.9342
0250,Helsinki,60.1756,24.9342
0251,Helsinki,60.1756,24.9342
0260,Helsinki,60.179,24.9279
0270,Helsinki,60.1756,24.9342
0271,Helsinki,60.1756,24.9342
0280,Helsinki,60.1756,24.9342
0281,Helsinki,60.1756,24.9342
0290,Helsinki,60.1756,24.9342
0300,Helsinki,60.1756,24.9342
0301,Helsinki,60.1756,24.9342
0310,Helsinki,60.1756,24.9342
0320,Helsinki,60.1762,24.9419
0321,Helsinki,60.1756,24.9342
0330,Helsinki,60.1925,24.8729
0331,Helsinki,60.1756,24.9342
0340,Helsinki,60.1756,24.9342
0341,Helsinki,60.1756,24.9342
0350,Helsinki,60.1756,24.9342
0351,Helsinki,60.1756,24.9342
0360,Helsinki,60.1756,24.9342
0370,Helsinki,60.1756,24.9342
0371,Helsinki,60.1756,24.9342
0380,Helsinki,60.1756,24.9342
0381,Helsinki,60.1756,24.9342
0390,Helsinki,60.1756,24.9342
0391,Helsinki,60.1756,24.9342
0400,Helsinki,60.1756,24.9342
0401,Helsinki,60.1756,24.9342
0410,Helsinki,60.1756,24.9342
0411,Helsinki,60.1756,24.9342
0420,Helsinki,60.1756,24.9342
0421,Helsinki,60.1756,24.9342
0430,Helsinki,60.1756,24.9342
0431,Helsinki,60.1756,24.9342
0440,Helsinki,60.1756,24.9342
0441,Helsinki,60.1756,24.9342
0500,Helsinki,60.1756,24.9342
0501,Helsinki,60.1756,24.9342
0510,Helsinki,60.1871,24.9484
0511,Helsinki,60.1756,24.9342
0520,Helsinki,60.1756,24.9342
0521,Helsinki,60.1756,24.9342
0530,Helsinki,60.1719,24.9591
0531,Helsinki,60.1756,24.9342
0550,Helsinki,60.1756,24.9342
0551,Helsinki,60.1756,24.9342
0560,Helsinki,60.1756,24.9342
0561,Helsinki,60.1756,24.9342
0570,Helsinki,60.1756,24.9342
0571,Helsinki,60.1756,24.9342
0580,Helsinki,60.1756,24.9342
0581,Helsinki,60.1756,24.9342
0600,Helsinki,60.1667,24.9667
0601,Helsinki,60.1756,24.9342
0610,Helsinki,60.1756,24.9342
0611,Helsinki,60.1756,24.9342
0620,Helsinki,60.1756,24.9342
0621,Helsinki,60.1756,24.9342
0630,Helsinki,60.1756,24.9342
0640,Helsinki,60.1756,24.9342
0641,Helsinki,60.1756,24.9342
0650,Helsinki,60.1756,24.9342
0660,Helsinki,60.1756,24.9342
0661,Helsinki,60.1756,24.9342
0670,Helsinki,60.1756,24.9342
0671,Helsinki,60.1756,24.9342
0680,Helsinki,60.1756,24.9342
0681,Helsinki,60.1756,24.9342
0690,Helsinki,60.1756,24.9342
0691,Helsinki,60.1756,24.9342
0700,Helsinki,60.1667,24.9667
0701,Helsinki,60.1756,24.9342
0710,Helsinki,60.1756,24.9342
0711,Helsinki,60.1756,24.9342
0720,Helsinki,60.1756,24.9342
0721,Helsinki,60.1756,24.9342
0730,Helsinki,60.1756,24.9342
0731,Helsinki,60.1756,24.9342
0740,Helsinki,60.1756,24.9342
0741,Helsinki,60.1756,24.9342
0750,Helsinki,60.1756,24.9342
0751,Helsinki,60.1756,24.9342
0760,Helsinki,60.1756,24.9342
0761,Helsinki,60.1756,24.9342
0770,Helsinki,60.1756,24.9342
0771,Helsinki,60.1756,24.9342
0780,Helsinki,60.1756,24.9342
0781,Helsinki,60.1756,24.9342
0800,Helsinki,60.1756,24.9342
0801,Helsinki,60.1756,24.9342
0810,Helsinki,60.1756,24.9342
0811,Helsinki,60.1756,24.9342
0819,Helsinki,60.1756,24.9342
0820,Helsinki,60.1756,24.9342
0821,Helsinki,60.1756,24.9342
0830,Helsinki,60.1756,24.9342
0831,Helsinki,60.1756,24.9342
0840,Helsinki,60.1756,24.9342
0841,Helsinki,60.1756,24.9342
0850,Helsinki,60.1756,24.9342
0851,Helsinki,60.1756,24.9342
0860,Helsinki,60.1756,24.9342
0861,Helsinki,60.1756,24.9342
0870,Helsinki,60.1756,24.9342
0880,Helsinki,60.1756,24.9342
0881,Helsinki,60.1756,24.9342
0900,Helsinki,60.1756,24.9342
0901,Helsinki,60.1756,24.9342
0910,Helsinki,60.1756,24.9342
0911,Helsinki,60.1756,24.9342
0920,Helsinki,60.1756,24.9342
0921,Helsinki,60.1756,24.9342
0930,Helsinki,60.1756,24.9342
0931,Helsinki,60.1756,24.9342
0940,Helsinki,60.1756,24.9342
0941,Helsinki,60.1756,24.9342
0950,Helsinki,60.1756,24.9342
0951,Helsinki,60.1756,24.9342
0960,Helsinki,60.1756,24.9342
0970,Helsinki,60.1756,24.9342
0971,Helsinki,60.1756,24.9342
0980,Helsinki,60.1756,24.9342
0981,Helsinki,60.1756,24.9342
0990,Helsinki,60.1756,24.9342
1002,Vantaa,60.3,24.85
1003,Vantaa,60.3,24.85
1009,Veikkaus,60.3,24.85
1019,Ivo,60.3,24.85
1100,Itäsalmi,60.2578,25.1928
1101,Itäsalmi,60.2578,25.1928
1120,Västerskog,60.2669,25.2947
1121,Västerskog,60.2669,25.2947
1130,Gumbostrand,60.2564,25.2917
1150,Söderkulla,60.3,25.3
1151,Söderkulla,60.3,25.3
1180,Kalkkiranta,60.2723,25.2667
1190,Sipoo-Box,60.2723,25.2667
1200,Vantaa,60.3,24.85
1201,Vantaa,60.3,24.85
1230,Vantaa,60.3,24.85
1231,Vantaa,60.3,24.85
1260,Vantaa,60.3,24.85
1261,Vantaa,60.3,24.85
1280,Vantaa,60.3,24.85
1300,Vantaa,60.3,24.85
1301,Vantaa,60.3,24.85
1305,Vantaa 30/Yritysposti,60.3,24.85
1350,Vantaa,60.3,24.85
1351,Vantaa,60.3,24.85
1360,Vantaa,60.3,24.85
1361,Vantaa,60.3,24.85
1370,Vantaa,60.3,24.85
1380,Vantaa,60.3,24.85
1390,Vantaa,60.3,24.85
1391,Vantaa,60.3,24.85
1400,Vantaa,60.3,24.85
1401,Vantaa,60.3,24.85
1420,Vantaa,60.3,24.85
1450,Vantaa,60.3,24.85
1451,Vantaa,60.3,24.85
1480,Vantaa,60.3,24.85
1490,Vantaa,60.3,24.85
1510,Vantaa,60.3,24.85
1511,Vantaa,60.3,24.85
1520,Vantaa,60.3,24.85
1530,Vantaa,60.3,24.85
1531,Vantaa,60.3,24.85
1560,Maantiekylä,60.3375,25.0083
1590,Maisala,60.3063,24.8764
1600,Vantaa,60.3,24.85
1601,Vantaa,60.3,24.85
1610,Vantaa,60.3,24.85
1611,Vantaa,60.3,24.85
1620,Vantaa,60.3,24.85
1621,Vantaa,60.3,24.85
1630,Vantaa,60.3,24.85
1640,Vantaa,60.3,24.85
1641,Vantaa,60.3,24.85
1650,Vantaa,60.3,24.85
1651,Vantaa,60.3,24.85
1660,Vantaa,60.3,24.85
1661,Vantaa,60.3,24.85
1670,Vantaa,60.3,24.85
1671,Vantaa,60.3,24.85
1680,Vantaa,60.3,24.85
1690,Vantaa,60.3,24.85
1700,Vantaa,60.3,24.85
1710,Vantaa,60.3,24.85
1711,Vantaa,60.3,24.85
1720,Vantaa,60.3,24.85
1721,Vantaa,60.3,24.85
1730,Vantaa,60.3,24.85
1731,Vantaa,60.3,24.85
1740,Vantaa,60.3,24.85
1741,Vantaa,60.3,24.85
1750,Vantaa,60.3,24.85
1760,Vantaa,60.3,24.85
1770,Vantaa,60.3,24.85
1800,Klaukkala,60.3833,24.75
1801,Klaukkala,60.3833,24.75
1810,Luhtajoki,60.3974,24.7217
1820,Klaukkala,60.3833,24.75
1830,Lepsämä,60.3833,24.6333
1850,Haikala,60.4008,24.7469
1860,Perttula,60.45,24.7
1900,Nurmijärvi,60.4667,24.8
1901,Nurmijärvi,60.4667,24.8
1940,Palojoki,60.4333,24.8667
2002,Espoo,60.2167,24.6667
2003,Espoo,60.2167,24.6667
2007,Espoo,60.2167,24.6667
2010,Tapiola,60.9167,25.8167
2015,Tkk,60.9167,25.8167
2020,Metsä,64.3,24.2
2044,Vtt,61.1733,24.8033
2050,Radiolinja,61.1733,24.8033
2100,Espoo,60.1858,24.6335
2101,Espoo,60.2167,24.6667
2110,Espoo,60.2167,24.6667
2111,Espoo,60.2167,24.6667
2120,Espoo,60.2167,24.6667
2130,Espoo,60.2167,24.6667
2131,Espoo,60.2167,24.6667
2140,Espoo,60.2167,24.6667
2141,Espoo,60.2167,24.6667
2150,Espoo,60.2167,24.6667
2151,Espoo,60.2167,24.6667
2160,Espoo,60.2167,24.6667
2170,Espoo,60.2167,24.6667
2171,Espoo,60.2167,24.6667
2180,Espoo,60.2167,24.6667
2181,Espoo,60.2167,24.6667
2200,Espoo,60.2167,24.6667
2201,Espoo,60.2167,24.6667
2210,Espoo,60.2167,24.6667
2211,Espoo,60.2167,24.6667
2230,Espoo,60.2167,24.6667
2231,Espoo,60.2167,24.6667
2240,Espoo,60.2167,24.6667
2241,Espoo,60.2167,24.6667
2260,Espoo,60.2167,24.6667
2261,Espoo,60.2167,24.6667
2270,Espoo,60.2167,24.6667
2271,Espoo,60.2167,24.6667
2280,Espoo,60.2167,24.6667
2281,Espoo,60.2167,24.6667
2290,Espoo,60.2167,24.6667
2300,Espoo,60.2167,24.6667
2320,Espoo,60.1858,24.6335
2321,Espoo,60.2167,24.6667
2330,Espoo,60.2167,24.6667
2340,Espoo,60.2167,24.6667
2341,Espoo,60.2167,24.6667
2360,Espoo,60.2167,24.6667
2361,Espoo,60.2167,24.6667
2380,Espoo,60.2167,24.6667
2400,Kirkkonummi,60.1167,24.4333
2401,Kirkkonummi,60.1167,24.4333
2410,Kirkkonummi,60.1167,24.4333
2411,Kirkkonummi,60.1167,24.4333
2420,Jorvas,60.1361,24.5164
2421,Jorvas,60.1361,24.5164
2430,Masala,60.1533,24.5289
2431,Masala,60.1533,24.5289
2440,Luoma,60.1667,24.5667
2460,Kantvik,60.0922,24.3944
2470,Upinniemi,60.0333,24.35
2471,Upinniemi,60.0333,24.35
2490,Pikkala,60.0911,24.3147
2510,Oitmäki,60.1969,24.2647
2520,Lapinkylä,60.1969,24.2647
2540,Kylmälä,60.2333,24.4
2550,Evitskog,60.1978,24.3489
2570,Siuntio kk,60.1969,24.2647
2580,Siuntio as,60.1833,24.2
2581,Siuntio,60.1833,24.2
2590,Lappers,60.1731,24.11
2600,Espoo,60.2167,24.6667
2601,Espoo,60.2167,24.6667
2610,Espoo,60.2167,24.6667
2611,Espoo,60.2167,24.6667
2620,Espoo,60.2167,24.6667
2621,Espoo,60.2167,24.6667
2630,Espoo,60.2168,24.6625
2631,Espoo,60.2167,24.6667
2660,Espoo,60.2167,24.6667
2661,Espoo,60.2167,24.6667
2680,Espoo,60.2167,24.6667
2700,Kauniainen,60.2172,24.7425
2701,Kauniainen,60.2172,24.7425
2710,Espoo,60.2167,24.6667
2711,Espoo,60.2167,24.6667
2720,Espoo,60.2167,24.6667
2721,Espoo,60.2167,24.6667
2730,Espoo,60.2167,24.6667
2731,Espoo,60.2167,24.6667
2740,Espoo,60.2167,24.6667
2741,Espoo,60.2167,24.6667
2750,Espoo,60.2167,24.6667
2760,Espoo,60.2167,24.6667
2761,Espoo,60.2167,24.6667
2770,Espoo,60.2167,24.6667
2771,Espoo,60.2167,24.6667
2780,Espoo,60.2167,24.6667
2781,Espoo,60.2167,24.6667
2810,Espoo,60.2167,24.6667
2811,Espoo,60.2167,24.6667
2820,Espoo,60.2166,24.6666
2821,Espoo,60.2167,24.6667
2860,Espoo,60.2167,24.6667
2861,Espoo,60.2167,24.6667
2880,Veikkola,60.2833,24.4
2881,Veikkola,60.2833,24.4
2920,Espoo,60.2167,24.6667
2921,Espoo,60.2167,24.6667
2940,Espoo,60.2167,24.6667
2941,Espoo,60.2167,24.6667
2970,Espoo,60.2167,24.6667
2971,Espoo,60.2167,24.6667
2980,Espoo,60.2167,24.6667
2981,Espoo,60.2167,24.6667
3007,Nummela,60.3333,24.3333
3100,Nummela,60.3333,24.3333
3101,Nummela,60.3333,24.3333
3150,Huhmari,60.3,24.35
3220,Tervalampi,60.3333,24.4333
3250,Ojakkala,60.3333,24.4333
3300,Otalampi,60.4,24.5
3320,Selki,60.4333,24.5333
3400,Vihti,60.4167,24.3333
3401,Vihti,60.4167,24.3333
3430,Jokikunta,60.45,24.2
3600,Karkkila,60.5333,24.1833
3601,Karkkila,60.5333,24.1833
3607,Karkkila,60.5333,24.1833
3620,Karkkila,60.5333,24.1833
3621,Karkkila,60.5333,24.1833
3710,Uusitalo,60.5167,24.3333
3790,Vihtijärvi,60.5333,24.5167
3810,Ikkala,60.4833,24.1333
3850,Pusula,60.4667,23.9833
3870,Hyönölä,60.4667,23.9
3999,Helsinki,60.1756,24.9342
4110,Nikkilän Sairaala,60.3265,25.1214
4130,Sipoo,60.3667,25.2667
4131,Sipoo,60.3667,25.2667
4150,Martinkylä,60.1561,24.7022
4170,Paippinen,60.4167,25.25
4200,Kerava,60.4,25.1167
4201,Kerava,60.4,25.1167
4207,Kerava,60.4,25.1167
4220,Kerava,60.4,25.1167
4221,Kerava,60.4,25.1167
4230,Kerava,60.4,25.1167
4231,Kerava,60.4,25.1167
4240,Talma,60.4,25.1167
4250,Kerava,60.4,25.1167
4251,Kerava,60.4,25.1167
4260,Kerava,60.4,25.1167
4261,Kerava,60.4,25.1167
4300,Tuusula,60.4167,25.0333
4301,Tuusula,60.4167,25.0333
4310,Tuusula,60.4167,25.0333
4311,Tuusula,60.4167,25.0333
4320,Tuusula,60.4167,25.0333
4321,Riihikallio,60.3722,25.0075
4330,Lahela,60.3864,24.9839
4340,Tuusula,60.4167,25.0333
4350,Nahkela,60.4,24.95
4360,Tuusula,60.4167,25.0333
4370,Rusutjärvi,60.4167,24.9667
4380,Tuusula,60.4167,25.0333
4390,Jäniksenlinna,60.4861,24.9767
4400,Järvenpää,60.4667,25.1
4401,Järvenpää,60.4667,25.1
4407,Järvenpää,60.4667,25.1
4410,Järvenpää,60.4667,25.1
4420,Järvenpää,60.4667,25.1
4430,Järvenpää,60.4667,25.1
4431,Järvenpää,60.4667,25.1
4440,Järvenpää,60.4667,25.1
4441,Järvenpää,60.4667,25.1
4460,Nummenkylä,60.5,25.1
4480,Haarajoki,60.5,25.1667
4500,Kellokoski,60.55,25.1
4501,Kellokoski,60.55,25.1
4530,Ohkola,60.5667,25.15
4600,Mäntsälä,60.6333,25.3167
4601,Mäntsälä,60.6333,25.3167
4630,Sääkskylä,60.5833,25.4167
4660,Numminen,60.55,25.3
4680,Hirvihaara,60.6167,25.2333
4740,Sälinkää,60.7,25.2167
4770,Sahakylä,60.75,25.2
4820,Kaukalampi,60.6833,25.4
4840,Hautjärvi,60.7,25.4667
4920,Saarentaus,60.7167,25.4167
4940,Levanto,60.7667,25.45
5100,Röykkä,60.4833,24.65
5130,Röykän Sairaala,60.4833,24.65
5131,Röykän Sairaala,60.4833,24.65
5200,Rajamäki,60.5333,24.75
5201,Rajamäki,60.5333,24.75
5250,Kiljava,60.5,24.6667
5310,Raala,60.5,24.9
5400,Jokela,60.55,24.9833
5401,Jokela,60.55,24.9833
5430,Nuppulinna,60.5333,25.0167
5450,Nukari,60.5333,24.9167
5451,Nukari,60.5333,24.9167
5460,Hyvinkää,60.6333,24.8667
5470,Hyvinkää,60.6333,24.8667
5510,Hyvinkää,60.6333,24.8667
5620,Hyvinkää,60.6333,24.8667
5720,Hyvinkää,60.6333,24.8667
5800,Hyvinkää,60.6333,24.8667
5801,Hyvinkää,60.6333,24.8667
5807,Hyvinkää 7,60.6333,24.8667
5820,Hyvinkää,60.6333,24.8667
5821,Hyvinkää,60.6333,24.8667
5830,Hyvinkää,60.6333,24.8667
5831,Hyvinkää,60.6333,24.8667
5840,Hyvinkää,60.6333,24.8667
5841,Hyvinkää,60.6333,24.8667
5850,Hyvinkää,60.6333,24.8667
5860,Hyvinkää,60.6333,24.8667
5870,Salpakangas,60.6333,24.8667
5880,Hyvinkää,60.6333,24.8667
5881,Hyvinkää,60.6333,24.8667
5900,Hyvinkää,60.633,24.83
5901,Hyvinkää,60.6333,24.8667
5950,Hyvinkää,60.6333,24.8667
5999,Hyvinkää,60.6333,24.8667
6100,Porvoo,60.4,25.6667
6101,Porvoo,60.4,25.6667
6121,Vantaa,60.3,24.85
6150,Porvoo,60.4,25.6667
6151,Porvoo,60.4,25.6667
6200,Porvoo,60.4,25.6667
6400,Porvoo,60.4,25.6667
6401,Porvoo,60.4,25.6667
6450,Porvoo,60.4,25.6667
6451,Porvoo,60.4,25.6667
6500,Porvoo,60.4,25.6667
6530,Kerkkoo,60.45,25.6333
6550,Hamari,60.35,25.6667
6650,Hamari,60.35,25.6667
6750,Tolkkinen,60.3333,25.5833
6820,Kulloo,60.35,25.5
6830,Kulloonkylä,60.35,25.5
6831,Kulloby,60.35,25.5
6850,Kulloo,60.35,25.5
6880,Kärrby,60.2881,25.4994
6881,Kärrby,60.2881,25.4994
6950,Emäsalo,60.3695,25.5746
6951,Emsalö,60.3695,25.5746
7110,Hinthaara,60.4,25.4667
7130,Anttila,60.8667,25.9667
7150,Laukkoski,60.4333,25.4
7170,Pornainen,60.4667,25.3833
7171,Pornainen,60.4667,25.3833
7190,Halkia,60.5167,25.3167
7220,Kaarenkylä,60.4764,25.5431
7230,Monninkylä,60.5,25.55
7231,Monninkylä,60.5,25.55
7280,Ilola,60.3272,25.0319
7281,Ilola,60.3272,25.0319
7310,Sannäs,60.4169,25.8
7320,Jakari,60.2917,25.8694
7340,Epoo,60.35,25.85
7350,Gäddrag,60.2833,25.8667
7360,Tirmo,60.25,25.9
7370,Pellinki,60.2333,25.9167
7380,Österby,60.2167,25.8833
7390,Suurpellinki,60.2917,25.8694
7410,Kråkö,60.3,25.8667
7450,Voolahti,60.3,25.8667
7451,Voolahti,60.3,25.8667
7500,Askola,60.5333,25.6
7510,Vakkola,60.5167,25.6
7530,Onkimaa,60.55,25.5833
7540,Korttia,60.6,25.6
7550,Torpinkylä,60.5729,25.6271
7560,Pukkila,60.65,25.5667
7565,Kantele,60.65,25.65
7580,Tiilää,60.55,25.7
7590,Huuvari,60.5333,25.7167
7600,Myrskylä,60.6667,25.85
7601,Myrskylä,60.6667,25.85
7680,Juornaankylä,60.5667,25.75
7690,Kankkila,60.6167,25.75
7700,Koskenkylän Saha,60.4375,25.9542
7701,Koskenkylän Saha,60.4375,25.9542
7720,Malmgård,60.55,25.95
7740,Gammelby,60.5,25.9
7750,Isnäs,60.4,26
7780,Härkäpää,60.3,25.9667
7800,Lapinjärvi,60.6333,26.2167
7810,Ingermaninkylä,60.5967,26.1517
7820,Porlammi,60.7,26.05
7830,Pukaro,60.6667,26.25
7840,Lindkoski,60.6333,26.2667
7850,Heikinkylä,60.5833,26.25
7870,Skinnarby,60.55,26.1333
7880,Liljendal,60.5667,26.05
7881,Liljendal,60.5667,26.05
7890,Mickelspiltom,60.6167,26.0167
7899,Loviisa,60.45,26.2333
7900,Loviisa,60.45,26.2333
7901,Loviisa,60.45,26.2333
7910,Valko,60.4167,26.25
7920,Loviisa,60.45,26.2333
7930,Pernaja,60.45,26.05
7940,Loviisa,60.45,26.2333
7945,Kuggom,60.4922,26.1864
7955,Tesjoki,60.4667,26.3167
7960,Ahvenkoski,60.5,26.5
7970,Ruotsinpyhtää,60.5333,26.45
7980,Kuninkaankylä,60.5833,26.45
7990,Ruotsinkylä,60.6167,26.4667
7999,Porvoo,60.4,25.6667
8007,Lohja,60.25,24.0833
8100,Lohja,60.25,24.0833
8101,Lohja,60.25,24.0833
8150,Lohja,60.25,24.0833
8151,Lohja,60.25,24.0833
8200,Lohja,60.25,24.0833
8201,Lohja,60.25,24.0833
8350,Routio,60.2833,24.0667
8360,Kisakallio,60.2833,24.0667
8450,Hormajärvi,60.2667,24
8480,Karstu,60.3,23.9333
8500,Lohja As,60.25,24.0833
8501,Lohja As,60.25,24.0833
8550,Lohja,60.25,24.0833
8680,Muijala,60.2833,24.2
8681,Muijala,60.2833,24.2
8700,Virkkala,60.2,24
8701,Virkkala,60.2,24
8720,Virkkala,60.2,24
8800,Kirkniemi,60.251,24.0667
9120,Karjalohja,60.25,23.7167
9140,Risteys,60.2167,23.6667
9220,Sammatti,60.3167,23.8167
9430,Saukkola,60.3833,23.9833
9520,Millola,60.35,24.05
9630,Koisjärvi,60.4167,24.0833
9710,Hyrsynummi,60.3833,24.0333
9810,Nummi,60.4,23.8833
9930,Leppäkorpi,60.4667,23.8167
9999,Lohja,60.25,24.0833
10120,Tähtelä,67.3667,26.6167
10140,Päivölä,60.1167,24.1333
10160,Degerby Ul,60.085,24.1872
10161,Degerby,60.085,24.1872
10210,Inkoo,60.05,24.0167
10211,Inkoo,60.05,24.0167
10230,Inkoo As,60.0292,23.9417
10250,Fagervik,60.0333,23.8333
10270,Barösund,59.9833,23.9
10300,Karjaa,60.0833,23.6667
10301,Karjaa,60.0833,23.6667
10320,Karjaa,60.0833,23.6667
10330,Pinjainen,60.0833,23.6167
10350,Meltolan Sairaala,60.1,23.69
10360,Mustio,60.1667,23.8333
10380,Kaunislahti,60.1,23.69
10410,Åminnefors,60.0833,23.5833
10411,Åminnefors,60.0833,23.5833
10420,Pohjankuru,60.1167,23.55
10421,Pohjankuru,60.1167,23.55
10440,Bollsta,60.1167,23.5639
10441,Bollsta,60.1167,23.5639
10470,Fiskari,60.1333,23.55
10480,Antskog,60.1667,23.5667
10520,Tenhola,60.0667,23.3
10570,Bromarv,59.9833,23.0333
10600,Tammisaari,59.9667,23.4333
10601,Tammisaari,59.9667,23.4333
10620,Högbacka,59.9667,23.4208
10640,Dragsvik,59.9833,23.4833
10641,Dragsvik,59.9833,23.4833
10650,Tammisaari,59.9667,23.4333
10651,Tammisaari,59.9667,23.4333
10660,Tammisaari,59.9667,23.4333
10680,Skogby,59.9333,23.2333
10710,Snappertuna,60,23.65
10820,Lappohja,59.9,23.25
10850,Tvärminne,59.8333,23.2
10900,Hanko,59.8333,22.95
10901,Hanko,59.8333,22.95
10940,Hangonkylä,59.8333,22.95
10960,Hanko Pohjoinen,59.8333,22.95
10961,Hanko Pohjoinen,59.8333,22.95
11007,Riihimäki,60.75,24.7667
11100,Riihimäki,60.75,24.7667
11101,Riihimäki,60.75,24.7667
11110,Riihimäki,60.75,24.7667
11111,Riihimäki,60.75,24.7667
11120,Riihimäki,60.75,24.7667
11130,Riihimäki,60.75,24.7667
11131,Riihimäki,60.75,24.7667
11310,Riihimäki,60.75,24.7667
11311,Riihimäki,60.75,24.7667
11710,Riihimäki,60.75,24.7667
11711,Riihimäki,60.75,24.7667
11910,Riihimäki,60.75,24.7667
12100,Oitti,60.7833,25.0333
12101,Oitti,60.7833,25.0333
12130,Mommila,60.8833,25.05
12170,Hietoinen,60.8833,25.05
12210,Hausjärvi,60.7833,24.9333
12240,Hikiä,60.75,24.9167
12310,Ryttylä,60.8167,24.7667
12350,Turkhauta,60.8167,24.8167
12380,Leppäkoski,60.85,24.7333
12400,Tervakoski,60.8,24.6167
12401,Tervakoski,60.8,24.6167
12450,Vähikkälä,60.7833,24.5333
12520,Kormu,60.7333,24.65
12540,Launonen,60.75,24.5667
12600,Läyliäinen,60.6167,24.45
12630,Sajaniemi,60.6833,24.4667
12640,Jokiniemi,60.7,24.4667
12700,Loppi,60.7167,24.45
12701,Loppi,60.7167,24.45
12706,Marskinmaja,60.7167,24.45
12750,Pilpala,60.6167,24.2833
12820,Räyskälä,60.7333,24.15
12920,Topeno,60.7667,24.2833
12950,Sokala,60.7583,24.525
12999,Riihimäki,60.75,24.7667
13007,Hämeenlinna,61,24.45
13100,Hämeenlinna,61,24.45
13101,Hämeenlinna,61,24.45
13103,Jean sibeliuksen syntymäkoti,61,24.45
13110,Hämeenlinna,61,24.45
13111,Hämeenlinna,61,24.45
13130,Hämeenlinna,61,24.45
13131,Hämeenlinna,61,24.45
13160,Hämeenlinna,61,24.45
13200,Hämeenlinna,61,24.45
13201,Hämeenlinna,61,24.45
13210,Hämeenlinna,61.014,24.46
13211,Hämeenlinna,61,24.45
13220,Hämeenlinna,61,24.45
13230,Aulanko,61.0333,24.45
13250,Hämeenlinna,61,24.45
13270,Hämeenlinna,61,24.45
13300,Hämeenlinna,61,24.45
13330,Harviala,60.95,24.5833
13400,Hämeenlinna,61,24.45
13430,Hämeenlinna,61,24.45
13500,Hämeenlinna,61,24.45
13501,Hämeenlinna,61,24.45
13530,Hämeenlinna,61,24.45
13600,Hämeenlinna,61,24.45
13700,Parolannummi,61.0667,24.3833
13701,Parolannummi,61.0667,24.3833
13706,Parolan panssarimuseo,61.0667,24.3833
13720,Parola,61.0667,24.3833
13721,Parola,61.0667,24.3833
13800,Katinala,61.0333,24.4
13806,Hattulan vanha kirkko,61.0333,24.4
13880,Hattula,61.0667,24.3833
13900,Pekola,64.35,28.6167
13930,Papinsalmi,64.35,28.6167
14140,Jokimaa,60.8667,24.8833
14200,Turenki,60.9167,24.6333
14201,Turenki,60.9167,24.6333
14240,Janakkala,60.9,24.6
14300,Renko,60.9,24.2833
14301,Renko,60.9,24.2833
14330,Kaloinen,60.85,24.4
14370,Lukana,60.85,24.1833
14430,Vuohiniemi,60.95,24.1167
14450,Rimmilä,60.9833,24.05
14470,Eteläinen,61.0833,24.6833
14500,Iittala,61.1167,24.1667
14501,Iittala,61.1167,24.1667
14530,Leteensuo,61.1167,24.1222
14580,Kuurila,61.1167,24.0333
14610,Lepaa,61.1167,24.35
14620,Tyrväntö,61.15,24.3333
14680,Alvettula,61.2,24.4833
14690,Torvoila,61.25,24.55
14700,Hauho,61.1667,24.55
14701,Hauho,61.1667,24.55
14760,Kokkila,61.1333,24.6667
14770,Eteläinen,61.0833,24.6833
14810,Pohjoinen,61.1,24.8833
14820,Tuulos,61.15,24.8
14840,Sairiala,61.15,24.7667
14870,Juttila,61.1667,24.7667
14930,Sappee,61.25,24.7
14960,Puutikkala,61.2833,24.7
14980,Kuohijoki,61.3,24.8
14999,Hämeenlinna,61,24.45
15007,Lahti,60.9667,25.6667
15100,Lahti,60.9667,25.6667
15101,Lahti,60.9667,25.6667
15110,Lahti,60.9667,25.6667
15111,Lahti,60.9667,25.6667
15140,Lahti,60.983,25.663
15141,Lahti,60.9667,25.6667
15150,Lahti,60.9667,25.6667
15151,Lahti,60.9667,25.6667
15170,Lahti,60.9667,25.6667
15171,Lahti,60.9667,25.6667
15200,Lahti,60.9667,25.6667
15201,Lahti,60.9667,25.6667
15210,Lahti,60.9667,25.6667
15211,Lahti,60.9667,25.6667
15230,Lahti,60.9667,25.6667
15240,Lahti,60.9667,25.6667
15241,Lahti,60.9667,25.6667
15250,Lahti,60.9667,25.6667
15251,Lahti,60.9667,25.6667
15270,Kukkila,61.05,25.6667
15300,Lahti,60.9667,25.6667
15320,Lahti,60.9667,25.6667
15321,Lahti,60.9667,25.6667
15340,Lahti,60.9667,25.6667
15440,Villähde,60.95,25.8667
15460,Mäkelä,61.0667,25.8333
15500,Lahti,60.9667,25.6667
15501,Lahti,60.9667,25.6667
15520,Lahti,60.9667,25.6667
15540,Villähde,60.95,25.8667
15541,Villähde,60.95,25.8667
15550,Nastola 2,60.9688,25.8271
15551,Nastola 2,60.9688,25.8271
15560,Nastola,60.95,25.9333
15561,Nastola,60.95,25.9333
15570,Nastola Kk,60.9688,25.8271
15580,Ruuhijärvi,61.05,26.0167
15610,Lahti,60.9667,25.6667
15611,Lahti,60.9667,25.6667
15650,Lahti,60.9667,25.6667
15680,Lahti,60.9667,25.6667
15700,Lahti,60.9667,25.6667
15701,Lahti,60.9667,25.6667
15780,Lahti,60.9667,25.6667
15781,Lahti,60.9667,25.6667
15800,Lahti,60.9667,25.6667
15801,Lahti,60.9667,25.6667
15810,Lahti,60.9667,25.6667
15820,Lahti,60.9667,25.6667
15830,Lahti,60.9667,25.6667
15840,Lahti,60.9667,25.6667
15850,Lahti,60.9667,25.6667
15851,Lahti,60.9667,25.6667
15860,Hollola 2,61,25.5
15861,Hollola,61,25.5
15870,Hollola,61,25.5
15871,Hollola,61,25.5
15880,Hollola 3,60.9758,25.6212
15881,Hollola 3,60.9758,25.6212
15900,Lahti,60.9667,25.6667
15901,Lahti,60.9667,25.6667
15950,Lahti,60.9667,25.6667
15951,Lahti,60.9667,25.6667
15980,Messilä,60.9667,25.6667
16100,Uusikylä,60.9167,26.0167
16101,Uusikylä,60.9167,26.0167
16160,Okkeri,61.0333,26.0833
16200,Artjärvi,60.75,26.0833
16201,Artjärvi,60.75,26.0833
16210,Hiitelä,60.7167,25.95
16230,Artjärvi Kk,60.7778,26.05
16260,Hietana,60.8,26.1333
16270,Villikkala,60.7833,26.0167
16280,Kuivanto,60.8667,26.0333
16300,Orimattila,60.8,25.75
16301,Orimattila,60.8,25.75
16310,Virenoja,60.85,25.7167
16320,Pennala,60.8833,25.7167
16330,Heinämaa,60.8667,25.8333
16350,Niinikoski,60.7833,25.9167
16380,Riihioja,60.8167,25.781
16390,Pakaa,60.7333,25.7833
16450,Mallusjoki,60.7167,25.6
16500,Herrala,60.9,25.4667
16510,Luhtikylä,60.8667,25.4833
16540,Mertie,60.8167,25.3833
16560,Tienmutka,60.8333,25.35
16600,Järvelä,60.8667,25.2833
16601,Järvelä,60.8667,25.2833
16610,Kärkölä,60.9167,25.25
16630,Tennilä,60.95,25.35
16670,Lappila,60.85,25.1833
16710,Hollola,61.05,25.4333
16730,Kutajärvi,61.05,25.3667
16740,Sairakkala,61,25.3167
16790,Manskivi,61.1,25.35
16800,Hämeenkoski,60.9083,25.5681
16801,Hämeenkoski,60.9083,25.5681
16900,Lammi,61.0833,25.0167
16901,Lammi,61.0833,25.0167
16940,Lieso,61.1667,24.9167
16960,Iso-Evo,61.1667,25.05
16970,Evo,61.1667,25.05
16980,Ronni,61.0833,25.1167
16999,Lahti,60.9667,25.6667
17110,Kalliola,61.0833,25.6333
17120,Paimela,61.1,25.65
17130,Vesivehmaa,61.1333,25.6667
17150,Urajärvi,61.1333,25.7833
17200,Vääksy 2,61.1833,25.55
17201,Vääksy,61.1833,25.55
17210,Vuorenmylly,61.2,25.7667
17220,Pietilä,61.2333,25.75
17240,Kalkkinen,61.3,25.7
17300,Vääksy,61.1833,25.55
17301,Vääksy,61.1833,25.55
17320,Asikkala,61.2167,25.5
17410,Viitaila,61.1333,25.3667
17430,Kurhila,61.1833,25.3833
17440,Vähimaa,61.2167,25.3833
17450,Iso-Äiniö,61.2333,25.35
17470,Maakeski,61.2833,25.35
17500,Padasjoki,61.35,25.2833
17501,Padasjoki,61.35,25.2833
17510,Nyystölä,61.3333,25.3
17530,Arrakoski,61.3833,25.2
17610,Auttoinen,61.3,25.0833
17630,Vesijako,61.35,25.05
17710,Torittu,61.45,25.1
17740,Kasiniemi,61.4333,24.9167
17780,Harmoinen,61.4833,25.15
17800,Kuhmoinen,61.5667,25.1833
17801,Kuhmoinen,61.5667,25.1833
17840,Harjunsalmi,61.6667,25.2833
17850,Pihlajakoski,61.6833,25.35
17870,Ruolahti,61.6,25.3833
17930,Päijälä,61.6,24.8667
17950,Kylämä,61.65,25.0667
17970,Puukkoinen,61.7167,25.15
18100,Heinola,61.2167,26.0333
18101,Heinola,61.2167,26.0333
18108,Heinola leirintä,61.2167,26.0333
18111,Heinola,61.2167,26.0333
18120,Heinola,61.2167,26.0333
18130,Heinola,61.2167,26.0333
18150,Heinola,61.2167,26.0333
18200,Heinola,61.2167,26.0333
18300,Heinola Kk,61.2104,26.0271
18600,Myllyoja,61.1667,25.9833
19100,Vierumäki,61.1,25.95
19110,Vierumäki,61.1,25.95
19111,Vierumäki,61.1,25.95
19120,Vierumäki,61.1,25.95
19150,Vuolenkoski,61.0833,26.1333
19160,Huutotöyry,61.0833,26.1667
19210,Lusi,61.3,26.1
19220,Vahteristo,61.3333,26.05
19230,Onkiniemi,61.4167,26.0333
19250,Syrjäkoski,61.3833,26.2
19260,Paaso,61.3667,26.25
19310,Karilanmaa,61.35,25.6
19320,Nikkaroinen,61.4,25.65
19340,Ravioskorpi,61.35,25.8
19350,Ojankorva,61.4,25.8
19370,Nuoramoinen,61.45,25.8333
19380,Marjakylä,61.2833,25.9167
19410,Kuortti,61.4333,26.45
19420,Mansikkamäki,61.5,26.35
19430,Pertunmaa,61.5,26.4833
19460,Ruorasmäki,61.5833,26.4
19470,Lihavanpää,61.5333,26.5333
19480,Hartosenpää,61.5167,26.6167
19510,Lepsala,61.4333,26.1833
19520,Salajärvi,61.4667,26.1833
19530,Kuivajärvi,61.4667,26.1833
19540,Koitti,61.5167,26.2167
19560,Nokka,61.6,26.25
19600,Hartola,61.5833,26.0167
19601,Hartola,61.5833,26.0167
19610,Murakka,61.5333,26.1
19620,Pohela,61.5,25.9667
19630,Kalhonkylä,61.6452,26.0833
19650,Joutsa,61.75,26.1167
19651,Joutsa,61.7333,26.1167
19670,Mieskonmäki,61.85,26.25
19700,Sysmä,61.5,25.6833
19701,Sysmä,61.5,25.6833
19710,Suopelto,61.5,25.5833
19730,Särkilampi,61.5833,25.65
19740,Liikola,61.5833,25.8
19770,Valittula,61.5333,25.85
19810,Siltasuo,61.6167,25.9333
19850,Putkijärvi,61.7333,25.8833
19910,Tammijärvi,61.8333,25.8667
19920,Pappinen,61.7333,25.8133
19950,Luhanka,61.7833,25.7
19970,Putkilahti,61.8833,25.7167
19980,Oittila,61.95,25.75
19999,Heinola,61.2167,26.0333
20002,Turku,60.45,22.2833
20003,Turku,60.45,22.2833
20007,Turku,60.45,22.2833
20014,Turun Yliopisto,60.45,22.2833
20075,Sampo,60.45,22.2833
20100,Turku,60.4502,22.276
20101,Turku,60.45,22.2833
20110,Turku,60.4524,22.2711
20111,Turku,60.46,22.288
20120,Turku,60.45,22.2833
20140,Turku,60.45,22.2833
20141,Turku,60.45,22.2833
20173,Turun linna,60.45,22.2833
20200,Turku,60.45,22.2833
20201,Turku,60.45,22.2833
20210,Turku,60.45,22.2833
20211,Turku,60.45,22.2833
20240,Turku,60.45,22.2833
20241,Turku,60.45,22.2833
20250,Turku,60.45,22.2833
20251,Turku,60.45,22.2833
20260,Raisio,60.4833,22.1833
20270,Ihala,60.4667,22.1833
20300,Turku,60.45,22.2833
20301,Turku,60.45,22.2833
20310,Turku,60.45,22.2833
20311,Turku,60.45,22.2833
20320,Turku,60.45,22.2833
20321,Turku,60.45,22.2833
20340,Turku,60.45,22.2833
20350,Turku,60.45,22.2833
20351,Turku,60.45,22.2833
20360,Turku,60.45,22.2833
20361,Turku,60.45,22.2833
20380,Turku,60.45,22.2833
20381,Turku,60.45,22.2833
20400,Turku,60.45,22.2833
20460,Turku,60.45,22.2833
20500,Turku,60.45,22.2833
20501,Turku,60.45,22.2833
20510,Turku,60.45,22.2833
20520,Turku,60.45,22.2833
20521,Turku,60.45,22.2833
20540,Turku,60.45,22.2833
20541,Turku,60.45,22.2833
20600,Turku,60.45,22.2833
20601,Turku,60.45,22.2833
20610,Turku,60.45,22.2833
20611,Turku,60.45,22.2833
20640,Ravattula,60.4667,22.3667
20660,Littoinen,60.4375,22.4022
20661,Littoinen,60.4375,22.4022
20700,Turku,60.45,22.2833
20701,Turku,60.45,22.2833
20703,Turku-luostarinmäki,60.45,22.2833
20720,Turku,60.45,22.2833
20740,Turku,60.45,22.2833
20741,Turku,60.45,22.2833
20750,Turku,60.45,22.2833
20751,Turku,60.45,22.2833
20760,Piispanristi,60.4097,22.3353
20761,Piispanristi,60.4097,22.3353
20780,Kaarina,60.4167,22.4167
20781,Kaarina,60.4167,22.4167
20800,Turku,60.45,22.2833
20801,Turku,60.45,22.2833
20810,Turku,60.45,22.2833
20811,Turku,60.45,22.2833
20840,Turku,60.45,22.2833
20880,Turku,60.45,22.2833
20881,Turku,60.45,22.2833
20900,Turku,60.45,22.2833
20901,Turku,60.45,22.2833
20960,Turku,60.45,22.2833
20990,Turku,60.45,22.2833
21003,Raisio,60.4833,22.1833
21100,Naantali,60.46,22.0729
21101,Naantali,60.45,22.0333
21110,Naantali,60.45,22.0333
21111,Naantali,60.45,22.0333
21120,Raisio,60.4833,22.1833
21130,Poikko,60.4167,21.9167
21140,Rymättylä,60.3667,21.95
21150,Röölä,60.35,21.9667
21160,Merimasku,60.4833,21.8667
21180,Livonsaari,60.5167,21.75
21195,Velkua,60.4667,21.6667
21200,Raisio,60.4833,22.1833
21201,Raisio,60.4833,22.1833
21207,Raisio,60.4833,22.1833
21210,Raisio,60.4833,22.1833
21211,Raisio,60.4833,22.1833
21220,Raisio,60.4833,22.1833
21230,Lemu,60.5667,21.9667
21240,Askainen,60.6181,22.3322
21250,Masku,60.5667,22.1
21251,Masku,60.5667,22.1
21260,Raisio,60.4833,22.1833
21270,Nousiainen,60.6167,22.1333
21271,Nousiainen,60.6167,22.1333
21280,Raisio,60.4833,22.1833
21290,Rusko,60.5333,22.2167
21291,Rusko,60.5333,22.2167
21310,Vahto,60.6,22.3
21330,Paattinen,60.5833,22.3833
21340,Tortinmäki,60.6833,22.45
21350,Ilmarinen,60.5086,22.3881
21360,Lieto As,60.6298,22.4459
21370,Aura Kk,60.6298,22.4459
21380,Aura,60.6,22.5667
21381,Aura,60.6,22.5667
21390,Uusikartano,60.8333,22.4667
21410,Vanhalinna,60.4764,22.3806
21420,Lieto,60.5,22.45
21421,Lieto,60.5,22.45
21430,Yliskulma,60.5333,22.55
21450,Tarvasjoki,60.5833,22.7333
21470,Suurila,60.6167,22.75
21480,Prunkila,60.5667,22.8
21490,Marttila,60.5833,22.9
21500,Piikkiö,60.4333,22.5167
21501,Piikkiö,60.4333,22.5167
21510,Hevonpää,60.4333,22.6
21520,Naskarla,60.4348,22.6742
21530,Paimio,60.45,22.7
21531,Paimio,60.45,22.7
21540,Preitilä,60.4667,22.75
21555,Taatila,60.5,22.7667
21560,Ollila,60.65,22.9167
21570,Sauvo,60.35,22.7
21571,Sauvo,60.35,22.7
21590,Karuna,60.2667,22.55
21600,Parainen,60.3,22.3
21601,Parainen,60.3,22.3
21610,Kirjala,60.3667,22.3667
21620,Kuusisto,60.3833,22.4167
21630,Lielahti Tl,60.2204,22.0944
21650,Lillandet,60.1667,22.05
21660,Nauvo,60.1833,21.9167
21661,Nauvo,60.1833,21.9167
21670,Mattnäs,60.15,21.8167
21680,Nötö,59.95,21.7667
21710,Korppoo,60.1667,21.5667
21711,Korppoo,60.1667,21.5667
21720,Korpoström,60.1167,21.6167
21740,Utö,59.7667,21.3667
21750,Norrskata,60.2667,21.6
21760,Houtskär,60.2167,21.3833
21770,Mossala,60.2667,21.4167
21780,Nåtö,60.35,21.1667
21800,Kyrö,60.7,22.75
21801,Kyrö,60.7,22.75
21820,Kumila,60.7333,22.8
21830,Rahkio,60.7167,22.9
21840,Karinainen,60.6667,22.7667
21860,Auvainen,60.6667,22.5833
21870,Riihikoski,60.7167,22.6
21871,Riihikoski,60.7167,22.6
21880,Pöytyä,60.7667,22.6667
21890,Haveri,60.8167,22.6833
21900,Yläne,60.8833,22.4167
21901,Yläne,60.8833,22.4167
21930,Uusikartano,60.8333,22.4667
21970,Kolvaa,60.9333,22.2833
21999,Turku,60.45,22.2833
22100,Mariehamn,60.0833,19.9167
22101,Mariehamn,60.1,19.95
22120,Maarianhamina,60.1,19.95
22130,Gottby,60.1333,19.8333
22131,Gottby,60.1333,19.8333
22140,Mariehamn,60.1,19.95
22150,Jomala,60.15,19.9667
22151,Jomala,60.15,19.9667
22160,Mariehamn,60.1,19.95
22220,Emkarby,60.2111,19.8856
22240,Hammarland,60.2167,19.75
22260,Eckerö,60.2,19.6167
22270,Eckerö,60.2,19.6167
22271,Storby,60.2167,19.5667
22310,Pålsböle,60.2667,19.9333
22320,Ödkarby,60.3,19.9833
22330,Tjudö,60.3333,19.95
22340,Geta,60.3833,19.85
22410,Godby,60.2333,20
22411,Godby,60.2333,20
22430,Saltvik,60.2833,20.05
22520,Kastelholm,60.2364,20.2434
22530,Sund,60.25,20.1167
22540,Bomarsund,60.2092,20.2303
22550,Vårdö,60.25,20.3833
22610,Lemland,60.0833,20.1
22630,Lumparland,60.1167,20.25
22710,Föglö,60.0167,20.4167
22720,Sottunga,60.1333,20.6667
22730,Kökar,59.9333,20.8833
22810,Seglinge,60.2,20.7
22820,Kumlinge,60.2667,20.7833
22830,Enklinge,60.3333,20.7667
22840,Lappoby-Åland,60.3167,20.9833
22910,Torsholma,60.3561,21.0692
22920,Brändö-Åland,60.339,20.7631
22930,Fiskö,60.45,20.95
22940,Åva,60.45,21.0833
22950,Jurmo-Åland,60.339,20.7631
22999,Mariehamn,60.1,19.95
23003,Uusikaupunki,60.8,21.4167
23100,Mynämäki,60.6667,22
23101,Mynämäki,60.6667,22
23110,Mynämäki As,60.7708,21.9333
23120,Mietoinen,60.6333,21.9333
23140,Hietamäki,60.7708,21.9333
23170,Kivikylä,61.1167,21.8
23200,Vinkkilä,60.6833,21.7167
23201,Vinkkilä,60.6833,21.7167
23210,Vehmaa,60.6833,21.6667
23240,Ennyinen,60.65,21.7667
23260,Rautila,60.6167,21.7
23310,Taivassalo,60.5667,21.6
23311,Taivassalo,60.5667,21.6
23360,Kustavi,60.55,21.35
23390,Iniö,60.4,21.4
23450,Lokalahti,60.6833,21.4667
23451,Lokalahti,60.6833,21.4667
23500,Uusikaupunki,60.8,21.4167
23501,Uusikaupunki,60.8,21.4167
23520,Uusikaupunki,60.8,21.4167
23530,Uusikaupunki,60.8,21.4167
23600,Kalanti,60.8167,21.5667
23601,Kalanti,60.8167,21.5667
23660,Kalanti As,60.8167,21.5667
23800,Laitila,60.8833,21.6833
23801,Laitila,60.8833,21.6833
23840,Soukainen,60.9333,21.7
23880,Suontaka,60.9333,21.8167
23910,Raulio,60.9,21.4167
23930,Pyhämaa,60.95,21.3667
23940,Eilu,60.9458,21.4125
23950,Pyhäranta,60.95,21.45
23960,Santtio,60.9833,21.4167
24003,Salo,60.3833,23.1333
24007,Salo,60.3833,23.1333
24100,Salo,60.3846,23.1306
24101,Salo,60.3833,23.1333
24105,Salo 10/Yritysposti,60.3833,23.1333
24130,Salo,60.3833,23.1333
24240,Salo,60.3833,23.1333
24241,Salo,60.3833,23.1333
24260,Salo,60.3833,23.1333
24261,Salo,60.3833,23.1333
24280,Salo,60.3833,23.1333
24520,Inkere,60.4333,23.2833
24540,Romsila,60.4167,23.35
24800,Halikko,60.4,23.0833
24801,Halikko,60.4,23.0833
24910,Halikko As,60.3917,23.1524
25003,Salo,60.3833,23.1333
25110,Kruusila,60.3833,23.45
25130,Muurla,60.35,23.2833
25160,Tuohittu,60.3,23.25
25170,Kotalato,60.3861,23.3167
25180,Romsila,60.4167,23.35
25190,Inkere,60.4333,23.2833
25191,Inkere,60.4333,23.2833
25210,Vartsala,60.3333,23.0167
25230,Angelniemi,60.3,22.9
25240,Hajala,60.4333,22.9167
25250,Märynummi,60.3875,22.9542
25260,Vaskio,60.4833,22.9833
25310,Impola,60.5167,23.2
25320,Raatala,60.55,23.1833
25330,Kuusjoki,60.5167,23.2
25340,Kanunki,60.55,23.3
25350,Häntälä,60.5833,23.3667
25360,Pertteli,60.4333,23.2667
25370,Hiisi,60.4667,23.3333
25380,Rekijoki,60.4833,23.45
25385,Hirvelä,60.5167,23.5
25390,Kiikala,60.4667,23.5667
25391,Kiikala,60.4667,23.5667
25410,Suomusjärvi,60.35,23.65
25420,Lahnajärvi,60.2972,23.5528
25430,Kettula,60.4,23.7667
25450,Kurkela,60.3,23.55
25460,Toija,60.25,23.4333
25461,Toija,60.25,23.4333
25470,Kisko,60.2333,23.4833
25500,Perniö,60.2,23.1333
25501,Perniö,60.2,23.1333
25520,Perniö As,60.2433,23.1367
25530,Ervelä,60.2433,23.1367
25540,Knaapila,60.25,23.25
25550,Aijala,60.3167,23.2167
25560,Koski As,60.2433,23.1367
25570,Teijo,60.25,22.95
25610,Ylönkylä,60.1667,23
25630,Särkisalo,60.1611,22.9833
25640,Förby,60.1611,22.9833
25650,Strömma,60.1611,22.9833
25660,Mathildedal,60.2167,22.9167
25690,Gråböle,60.1,23.0333
25700,Kemiö,60.1667,22.75
25701,Kemiö,60.1667,22.75
25710,Vreta,60.1667,22.6833
25730,Mjösund,60.2,22.4833
25760,Kiila,60.25,22.8833
25770,Reku,60.1833,22.8
25780,Pederså,60.1333,22.8333
25810,Mark,60.07,22.6267
25820,Vestlax,60.0667,22.7667
25830,Västanfjärd,60.05,22.6833
25840,Nivelax,60.0833,22.6333
25860,Björkboda,60.0833,22.5667
25870,Dragsfjärd,60.0667,22.4833
25900,Taalintehdas,60.0333,22.5167
25901,Taalintehdas,60.0333,22.5167
25910,Vänoxa,59.9667,22.6167
25930,Kasnäs,59.9167,22.4167
25940,Hiittinen,59.8833,22.5167
25950,Rosala,59.85,22.4333
25960,Högsåra,59.95,22.3667
25999,Salo,60.3833,23.1333
26003,Rauma,61.1333,21.5
26007,Rauma,61.1333,21.5
26100,Rauma,61.1273,21.5211
26101,Rauma,61.1333,21.5
26130,Rauma,61.1333,21.5
26131,Rauma,61.1333,21.5
26200,Rauma,61.1333,21.5
26201,Rauma,61.1333,21.5
26410,Kaaro,61.1108,21.54
26411,Kaaro,61.1108,21.54
26510,Rauma,61.1333,21.5
26511,Rauma,61.1333,21.5
26560,Kolla,61.1167,21.65
26660,Rauma,61.1333,21.5
26661,Rauma,61.1333,21.5
26700,Hinnerjoki,61,22
26720,Monnanummi,61.0417,21.8
26740,Vasarainen,61.0833,21.6
26820,Rauma,61.1333,21.5
26840,Kortela,61.1,21.5
26910,Unaja,61.0833,21.5
26930,Vermuntila,61.0333,21.5833
26950,Voiluoto,61.0667,21.4667
27003,Rauma,61.1333,21.5
27100,Eurajoki,61.2,21.7333
27101,Eurajoki,61.2,21.7333
27110,Irjanne,61.2333,21.7833
27130,Eurajoki As,61.22,21.6967
27150,Lapijoki,61.1833,21.65
27160,Olkiluoto,61.22,21.6967
27170,Kuivalahti,61.2833,21.5833
27210,Kullanperä,61.1167,21.7167
27220,Ala-Kieri,61.0778,21.8639
27230,Lappi,61.1,21.8333
27231,Lappi,61.1,21.8333
27240,Karhunselkä,61.0667,21.9167
27250,Kodiksami,61.05,21.95
27260,Kuolimaa,61.0333,21.9333
27310,Kodisjoki,61.0333,21.6833
27320,Ihode,60.9833,21.6
27340,Reila,61.0333,21.3667
27400,Kiukainen,61.2167,22.0833
27401,Kiukainen,61.2167,22.0833
27420,Panelia As,61.2267,22.0367
27430,Panelia,61.2167,21.9667
27440,Saarenmaa,61.25,21.9167
27450,Harola,61.2333,22.1333
27500,Kauttua,61.1,22.1667
27501,Kauttua,61.1,22.1667
27510,Eura,61.1333,22.1333
27511,Eura,61.1333,22.1333
27600,Hinnerjoki,61,22
27640,Honkilahti Kk,60.9944,22.0944
27650,Honkilahti,60.9667,22.1167
27670,Mannila,61.0167,22.1667
27710,Köyliö,61.1167,22.35
27711,Köyliö,61.1167,22.35
27730,Tuiskula,61.1667,22.2333
27740,Voitoinen,61.1267,22.34
27750,Yttilä,61.1167,22.3833
27751,Yttilä,61.1167,22.3833
27800,Säkylä,61.0333,22.3333
27801,Säkylä,61.0333,22.3333
27820,Iso-Vimma,61.0542,22.4
27821,Iso-Vimma,61.0542,22.4
27840,Kakkuri,61.0833,22.4
27860,Vuori,61.0667,22.5333
27910,Huovinrinne,61.075,21.95
27911,Huovinrinne,61.075,21.95
27920,Otajoki,61.0167,22.4
27999,Rauma,61.1333,21.5
28003,Pori,61.4833,21.7833
28007,Pori,61.4833,21.7833
28100,Pori,61.4825,21.7911
28101,Pori,61.4833,21.7833
28120,Pori,61.4833,21.7833
28130,Pori,61.4833,21.7833
28131,Pori,61.4833,21.7833
28190,Pori,61.4833,21.7833
28191,Pori,61.4833,21.7833
28200,Pori,61.4833,21.7833
28201,Pori,61.4833,21.7833
28220,Pori,61.4833,21.7833
28221,Pori,61.4833,21.7833
28230,Pori,61.4833,21.7833
28240,Pori,61.4833,21.7833
28260,Harjunpää,61.5,21.9167
28280,Pori,61.4833,21.7833
28300,Pori,61.4833,21.7833
28330,Pori,61.4833,21.7833
28331,Pori,61.4833,21.7833
28360,Pori,61.4833,21.7833
28361,Pori,61.4833,21.7833
28370,Pori,61.4833,21.7833
28371,Pori,61.4833,21.7833
28400,Ulvila,61.4333,21.8833
28401,Ulvila,61.4333,21.8833
28430,Pori,61.4833,21.7833
28431,Pori,61.4833,21.7833
28450,Vanha-Ulvila,61.4333,21.8833
28451,Vanha-Ulvila,61.4333,21.8833
28500,Pori,61.4833,21.7833
28501,Pori,61.4833,21.7833
28540,Pori,61.4833,21.7833
28560,Pori,61.4833,21.7833
28580,Pori,61.4833,21.7833
28600,Pori,61.4833,21.7833
28601,Pori,61.4833,21.7833
28610,Pori,61.4833,21.7833
28611,Pori,61.4833,21.7833
28640,Pori,61.4833,21.7833
28660,Pori,61.4833,21.7833
28760,Pori,61.4833,21.7833
28800,Pori,61.4833,21.7833
28801,Pori,61.4833,21.7833
28840,Pori,61.4833,21.7833
28850,Yyteri,61.5667,21.5333
28880,Pori,61.4833,21.7833
28881,Pori,61.4833,21.7833
28900,Pori,61.4833,21.7833
29100,Luvia,61.35,21.6167
29101,Luvia,61.35,21.6167
29120,Verkkoranta,61.4333,21.5
29180,Peränkylä,61.3167,21.6667
29200,Harjavalta,61.3167,22.1333
29201,Harjavalta,61.3167,22.1333
29210,Merstola,61.3,22.1667
29220,Killanmaa,61.3333,22.069
29230,Satalinna,61.3333,22.1
29250,Nakkila,61.3667,22
29251,Nakkila,61.3667,22
29270,Hormisto,61.3333,21.95
29280,Järvimaa,61.3333,22.069
29310,Kaasmarkku,61.45,22.0167
29320,Leineperi,61.4333,22.1
29330,Levanpelto,61.4633,22.1067
29340,Kullaa,61.4667,22.1667
29350,Palus,61.5,22.0667
29360,Koskenranta,61.4667,22.1833
29570,Söörmarkku,61.5833,21.8167
29580,Kellahti,61.6,21.7167
29600,Noormarkku,61.5833,21.8667
29601,Noormarkku,61.5833,21.8667
29630,Pomarkku,61.7,22
29631,Pomarkku,61.7,22
29640,Honkakoski,61.75,22.1333
29670,Rudanmaa,61.5833,22.0833
29680,Lassila,61.6167,22.25
29700,Ahlainen,61.6667,21.6167
29720,Lamppi,61.6667,21.7333
29740,Etelämaa,61.7833,21.6667
29750,Pohjansaha,61.7667,21.5833
29760,Köörtilä,61.7667,21.5333
29790,Tuorila,61.8667,21.6333
29810,Siikainen,61.8667,21.8333
29811,Siikainen,61.8667,21.8333
29830,Sammi,61.9,22.05
29850,Hirvivuori,61.8381,21.8762
29860,Otamo,61.8167,21.7667
29870,Keskukylä,61.8333,21.8667
29880,Leväsjoki,61.8,21.8333
29890,Saarineva,61.7833,21.95
29900,Merikarvia,61.85,21.5
29901,Merikarvia,61.85,21.5
29910,Trolssi,61.8687,21.5833
29920,Riispyy,61.95,21.4333
29930,Kasala,61.9667,21.3833
29940,Kuvaskangas,61.9333,21.6333
29960,Koittankoski,61.9833,21.7
29970,Lautjärvi,61.9333,21.7333
29999,Pori,61.4833,21.7833
30003,Forssa,60.8167,23.6333
30007,Forssa,60.8167,23.6333
30100,Forssa,60.8167,23.6333
30101,Forssa,60.8167,23.6333
30300,Forssa,60.8167,23.6333
30420,Forssa,60.8167,23.6333
30421,Forssa,60.8167,23.6333
30630,Latovainio,60.8833,23.5
30740,Forssa,60.8167,23.6333
30760,Koijärvi,60.9333,23.65
30920,Riihivalkama,60.75,23.7
30940,Letku,60.7,23.7167
30980,Torro,60.7167,23.6
31003,Forssa,60.8167,23.6333
31100,Forssa,60.8167,23.6333
31110,Matku,60.9667,23.5167
31120,Raitoo,60.9833,23.6167
31130,Koijärvi,60.9333,23.65
31140,Menonen,61.0167,23.4833
31150,Hanhisuo,61.0333,23.6
31160,Nuutajärvi,61.05,23.4333
31170,Savijoki,60.9667,23.7
31230,Susikas,60.8667,23.85
31240,Lautaporras,60.9167,23.8667
31250,Teuro,60.8667,23.9333
31300,Tammela,60.8,23.7667
31301,Tammela,60.8,23.7667
31310,Mustiala,60.8167,23.7667
31320,Tammelasaari,60.83,24.0533
31330,Lepistö,60.9833,25.0333
31340,Porras,60.75,23.9333
31350,Liesjärvi,60.83,24.0533
31360,Honka,60.83,24.0533
31370,Eerikkilä,60.83,24.0533
31380,Letku,60.83,24.0533
31400,Somero,60.6167,23.5333
31401,Somero,60.6167,23.5333
31410,Ylöpirtti,60.6833,23.45
31430,Kultela,60.6333,23.5667
31450,Häntälä,60.5833,23.3667
31460,Hirsjärvi,60.6,23.6333
31461,Hirsjärvi,60.6,23.6333
31470,Somerniemi,60.5667,23.7167
31480,Kaskisto,60.5167,23.6333
31490,Terttilä,60.55,23.55
31500,Koski Tl,60.6533,23.1133
31501,Koski Tl,60.6533,23.1133
31520,Pitkäjärvi,60.6667,23.3
31530,Pyöli,60.65,23.4
31560,Ollila,60.65,22.9167
31570,Koivukylä,60.65,23.0333
31580,Vähä-Ollila,60.65,22.9167
31600,Jokioinen,60.8167,23.4667
31601,Jokioinen,60.8167,23.4667
31610,Vaulammi,60.8,23.4167
31620,Latovainio,60.8833,23.5
31630,Minkiö,60.8333,23.4667
31640,Humppila,60.9333,23.3667
31641,Humppila,60.9333,23.3667
31650,Venäjänkangas,60.875,23.4104
31660,Murto,60.9833,23.2333
31670,Holkeri,60.875,23.4104
31700,Urjala As,61.1133,23.4967
31720,Urjalankylä,61.0833,23.4667
31730,Honkola,61.1167,23.45
31750,Kehro,61.2,23.5
31760,Urjala,61.0833,23.5333
31761,Urjala,61.0833,23.5333
31810,Oriniemi,61.15,23.2
31830,Halkivaha,61.2,23.3
31850,Koskioinen,61.1,23.2
31860,Tursa,61.1,23.2833
31900,Punkalaidun,61.1167,23.1
31901,Punkalaidun,61.1167,23.1
31910,Haviokoski,61.1333,23.0333
31930,Vanttila,61.15,22.95
31940,Jalasjoki,61.05,23.2
31950,Sadonmaa,61.0333,23.25
31960,Orisuo,61.0333,23.1333
31970,Kanteenmaa,61.05,22.9833
31999,Forssa,60.8167,23.6333
32003,Forssa,60.8167,23.6333
32100,Ypäjä,60.8,23.2833
32101,Ypäjä,60.8,23.2833
32110,Palikkala,60.7833,23.3667
32140,Ypäjä As,60.7944,23.3111
32200,Loimaa,60.8667,22.9833
32201,Loimaa,60.8667,22.9833
32210,Loimaa Kk,60.92,23.0233
32211,Loimaa kk,60.92,23.0233
32250,Kojonkulma,60.95,22.9833
32260,Kojonperä,60.9833,23.0167
32270,Metsämaa,60.9333,23.15
32280,Metsäkorpi,60.92,23.0233
32300,Mellilä,60.7667,22.95
32301,Mellilä,60.7667,22.95
32320,Hyry,60.75,23
32410,Niinijoki,60.8667,22.9
32420,Haaroinen,60.8667,22.8
32430,Ylhäinen,60.9,22.8667
32440,Alastaro,60.9333,22.9167
32441,Alastaro,60.9333,22.9167
32450,Tammiainen,61,22.8667
32500,Oripää,60.85,22.6833
32501,Oripää,60.85,22.6833
32520,Latva,60.9,22.6
32560,Virttaa,60.9333,22.6667
32610,Vampula,61.0167,22.7
32611,Vampula,61.0167,22.7
32620,Rutava,61.0667,22.7
32650,Kukonharja,61.0667,22.7833
32700,Huittinen,61.1833,22.7
32701,Huittinen,61.1833,22.7
32710,Sampu,61.2,22.7
32730,Keikyä,61.2667,22.7
32740,Äetsä,61.2833,22.6833
32741,Äetsä,61.2833,22.6833
32760,Suttila,61.15,22.9
32770,Huhtamo,61.0833,22.9167
32800,Kokemäki,61.25,22.35
32801,Kokemäki,61.25,22.35
32810,Peipohja,61.25,22.3
32830,Riste,61.2333,22.425
32860,Korkeaoja,61.2333,22.425
32899,Huittinen,61.1833,22.7
32910,Kauvatsa As,61.1,22.7417
32920,Kauvatsa,61.3333,22.5
32999,Loimaa,60.8667,22.9833
33002,Tampere,61.5,23.75
33003,Tampere,61.5,23.75
33007,Tampere,61.5,23.75
33009,Tampere,61.5,23.75
33014,Tampereen yliopisto,61.5,23.75
33100,Tampere,61.4986,23.7725
33101,Tampere,61.5,23.75
33180,Tampere,61.511,23.773
33191,Tampere,61.5,23.75
33200,Tampere,61.4933,23.7537
33201,Tampere,61.5,23.75
33210,Tampere,61.5,23.75
33211,Tampere,61.5,23.75
33230,Tampere,61.4941,23.731
33231,Tampere,61.5,23.75
33240,Tampere,61.5,23.75
33250,Tampere,61.5,23.75
33251,Tampere,61.5,23.75
33270,Tampere,61.5,23.75
33271,Tampere,61.5,23.75
33300,Tampere,61.5,23.75
33310,Tampere,61.5,23.75
33311,Tampere,61.5,23.75
33330,Tampere,61.5,23.75
33331,Tampere,61.5,23.75
33340,Tampere,61.5,23.75
33341,Tampere,61.5,23.75
33380,Pitkäniemi,61.4833,23.5833
33400,Tampere,61.5,23.75
33401,Tampere,61.5,23.75
33410,Tampere,61.5,23.75
33411,Tampere,61.5,23.75
33420,Tampere,61.5,23.75
33430,Vuorentausta,61.5233,23.685
33431,Vuorentausta,61.5233,23.685
33450,Siivikkala,61.5333,23.7
33470,Ylöjärvi,61.55,23.6
33471,Ylöjärvi,61.55,23.6
33480,Ylöjärvi,61.55,23.6
33481,Ylöjärvi,61.55,23.6
33500,Tampere,61.5,23.75
33501,Tampere,61.5,23.75
33520,Tampere,61.5,23.75
33521,Tampere,61.5,23.75
33530,Tampere,61.5,23.75
33531,Tampere,61.5,23.75
33540,Tampere,61.5,23.75
33541,Tampere,61.5,23.75
33560,Tampere,61.5,23.75
33561,Tampere,61.5,23.75
33580,Tampere,61.5,23.75
33581,Tampere,61.5,23.75
33610,Tampere,61.5,23.75
33611,Tampere,61.5,23.75
33680,Tampere,61.5,23.75
33700,Tampere,61.5,23.75
33701,Tampere,61.5,23.75
33710,Tampere,61.5,23.75
33711,Tampere,61.5,23.75
33720,Tampere,61.5,23.75
33721,Tampere,61.5,23.75
33730,Tampere,61.5,23.75
33731,Tampere,61.5,23.75
33800,Tampere,61.5,23.75
33801,Tampere,61.5,23.75
33820,Tampere,61.5,23.75
33821,Tampere,61.5,23.75
33840,Tampere,61.5,23.75
33841,Tampere,61.5,23.75
33850,Tampere,61.5,23.75
33851,Tampere,61.5,23.75
33880,Lempäälä,61.3167,23.75
33881,Sääksjärvi,61.4167,23.7667
33900,Tampere,61.4958,23.786
33901,Tampere,61.5,23.75
33920,Pirkkala,61.4667,23.5667
33940,Pirkkala,61.4667,23.5667
33950,Pirkkala,61.4667,23.5667
33960,Pirkkala,61.4667,23.5667
33961,Pirkkala,61.4667,23.5667
33970,Pirkkala,61.4667,23.5667
33980,Pirkkala,61.4667,23.5667
34110,Lakiala,61.6792,23.6
34111,Lakiala,61.6792,23.6
34120,Peräsilta,61.6,23.5833
34130,Ylinen,61.6792,23.6
34140,Mutala,61.6667,23.5667
34150,Kyrönlahti,61.7,23.55
34180,Länsi-Teisko,61.75,23.7
34240,Kämmenniemi,61.6167,23.85
34260,Terälahti,61.7,23.9
34270,Velaatta,61.75,23.8833
34300,Kuru,61.8667,23.7333
34301,Kuru,61.8667,23.7333
34320,Parkkuu,61.8167,23.7
34330,Poikelus,61.8,23.6333
34410,Murole,61.8333,23.95
34420,Muroleen Kanava,61.8708,24.05
34430,Kekkonen,61.85,24.0167
34450,Jäminkipohja,61.9,24.1167
34451,Jäminkipohja,61.9,24.1167
34510,Luode,61.9667,23.5167
34530,Länsi-Aure,61.9833,23.3833
34550,Itä-Aure,62.0667,23.4333
34600,Ruovesi,61.9833,24.0833
34601,Ruovesi,61.9833,24.0833
34610,Ruhala,61.95,24.1333
34620,Nenonen,61.9875,24.0833
34640,Mustajärvi,62.0333,24.0333
34710,Vaskivesi,62.1333,23.6667
34730,Vaskuu,62.2167,23.55
34740,Koro,62.2167,23.65
34770,Kurjenkylä,62.2667,23.3833
34800,Virrat,62.2333,23.7833
34801,Virrat,62.2333,23.7833
34850,Jäähdyspohja,62.1833,23.8333
34870,Visuvesi,62.1333,23.9167
34910,Äijänneva,62.3333,23.55
34930,Liedenpohja,62.55,23.6667
34950,Ohtola,62.35,23.8167
34970,Toisvesi,62.3833,23.85
34980,Killinkoski,62.4,23.8667
34999,Tampere,61.5,23.75
35100,Orivesi As,61.8629,24.5552
35220,Eräjärvi,61.5833,24.5667
35240,Ristakallio,61.55,24.6667
35260,Hoivamäki,61.6333,24.6
35270,Västilä,61.6333,24.7
35300,Orivesi,61.6833,24.35
35301,Orivesi,61.6833,24.35
35320,Hirsilä,61.7333,24.3333
35400,Längelmäki,61.6833,24.6833
35420,Talviainen,61.7333,24.65
35480,Längelmäki,61.6833,24.6833
35500,Korkeakoski,61.8,24.3667
35501,Korkeakoski,61.8,24.3667
35520,Pirttikangas,61.8667,24.4667
35530,Lyly,61.8833,24.4833
35531,Lyly,61.8833,24.4833
35540,Juupajoki,61.7833,24.45
35550,Salokunta,61.7667,24.45
35600,Halli,61.8667,24.8333
35601,Halli,61.8667,24.8333
35610,Pihlaisto,61.8833,24.7167
35630,Kuorevesi,61.85,24.7833
35700,Vilppula,62.0167,24.5167
35701,Vilppula,62.0167,24.5167
35740,Ylä-Vääri,61.95,24.3167
35750,Väärinmaja,61.95,24.2667
35800,Mänttä,62.0333,24.6333
35801,Mänttä,62.0333,24.6333
35807,Mänttä,62.0333,24.6333
35820,Mänttä,62.0333,24.6333
35821,Mänttä,62.0333,24.6333
35830,Mänttä,62.0333,24.6333
35850,Mustalahti,62.0167,24.6833
35860,Raja-Aho,62.0167,24.7
35930,Tamminiemi,62.05,24.3
35990,Kolho,62.1333,24.5167
36100,Kangasala As,61.5417,24.0833
36110,Ruutana,61.5167,24.0333
36111,Ruutana,61.5167,24.0333
36120,Suinula,61.5333,24.05
36160,Siitama,61.6,24.2167
36200,Kangasala,61.4667,24.0833
36201,Kangasala,61.4667,24.0833
36220,Kangasala 2,61.4667,24.0833
36221,Kangasala 2,61.4667,24.0833
36240,Kangasala 4,61.4667,24.0833
36241,Kangasala,61.4667,24.0833
36270,Kangasala,61.4667,24.0833
36280,Pikonlinna,61.4667,24.0833
36340,Tohkala,61.5333,24.2667
36420,Sahalahti,61.4667,24.3167
36430,Sahalahti,61.4667,24.3167
36450,Salmentaka,61.4,24.4
36480,Pohjalahti,61.4167,24.3
36520,Raikku,61.4167,24.2
36570,Kaivanto,61.4167,24.15
36600,Pälkäne,61.3333,24.2667
36601,Pälkäne,61.3333,24.2667
36640,Iltasmäki,61.3,24.3333
36660,Laitikkala,61.2667,24.3667
36720,Aitoo,61.3333,24.5
36760,Luopioinen,61.3667,24.6667
36761,Luopioinen,61.3667,24.6667
36810,Kuhmalahti,61.5,24.5667
36840,Pohja,61.4833,24.7
36880,Vehkajärvi,61.5,24.8333
36910,Rautajärvi,61.4167,24.7
36930,Kyynärö,61.4,24.8
37007,Nokia,61.4667,23.5
37100,Nokia,61.4667,23.5
37101,Nokia,61.4667,23.5
37105,Nokia 10/PSP,61.4667,23.5
37120,Nokia,61.4667,23.5
37121,Nokia,61.4667,23.5
37130,Nokia,61.4667,23.5
37140,Nokia,61.4667,23.5
37141,Nokia,61.4667,23.5
37150,Nokia,61.4667,23.5
37180,Sarkola,61.4,23.25
37200,Siuro,61.4667,23.35
37210,Kulovesi,61.4833,23.2667
37240,Linnavuori,61.5,23.35
37241,Linnavuori,61.5,23.35
37310,Tottijärvi,61.4,23.35
37350,Rämsöö,61.3333,23.3
37370,Narva,61.2833,23.5
37380,Krääkkiö,61.2333,23.4
37420,Valkkinen,61.2667,23.6667
37450,Onkemäki,61.25,23.5833
37470,Vesilahti,61.3167,23.6167
37500,Lempäälä,61.3167,23.75
37501,Lempäälä,61.3167,23.75
37530,Lempäälä,61.3167,23.75
37550,Lempäälä,61.3167,23.75
37551,Moisio,61.35,23.7833
37560,Lempäälä,61.3167,23.75
37600,Valkeakoski,61.2667,24.0333
37601,Valkeakoski,61.2667,24.0333
37607,Valkeakoski,61.2667,24.0333
37620,Valkeakoski,61.2667,24.0333
37630,Valkeakoski,61.2667,24.0333
37631,Valkeakoski,61.2667,24.0333
37640,Valkeakoski,61.2667,24.0333
37641,Valkeakoski,61.2667,24.0333
37650,Valkeakoski,61.2667,24.0333
37680,Valkeakoski,61.2667,24.0333
37700,Sääksmäki,61.2,24.0667
37720,Ritvala,61.1833,24.1667
37740,Haukila,61.1778,24.0778
37770,Tarttila,61.15,24
37800,Toijala,61.1667,23.8667
37801,Toijala,61.1667,23.8667
37807,Toijala,61.1667,23.8667
37820,Nahkiala,61.2048,23.8571
37830,Viiala,61.2167,23.7833
37831,Viiala,61.2167,23.7833
37850,Metsäkansa,61.2333,23.8833
37860,Kärjenniemi,61.2667,23.95
37900,Kylmäkoski As,61.15,23.6917
37910,Kylmäkoski,61.1667,23.6833
37911,Kylmäkoski,61.1667,23.6833
37930,Tuomala,61.1333,23.6
37960,Sotkia,61.1333,23.8
38100,Karkku,61.4167,23.0167
38110,Nohkua,61.45,23.0667
38120,Kutala,61.4167,23.1333
38130,Ellivuori,61.4,23.0792
38140,Kärppälä,61.3167,23.1
38150,Heinoo,61.4,23.0792
38200,Vammala,61.3333,22.9
38201,Vammala,61.3333,22.9
38210,Vammala,61.3333,22.9
38211,Vammala,61.3333,22.9
38220,Stormi,61.3333,23.05
38230,Lantula,61.3333,23.1
38250,Roismala,61.3,22.9333
38270,Sammaljoki,61.2333,23.1333
38280,Illo,61.2167,23.0333
38300,Kiikka,61.3667,22.7167
38301,Kiikka,61.3667,22.7167
38320,Kiimajärvi,61.3667,22.7167
38350,Jaara,61.4333,22.5667
38360,Kiikoinen,61.45,22.5833
38370,Tervahauta,61.4833,22.5667
38420,Häijää,61.5,23.1
38460,Mouhijärvi,61.5,23.0167
38470,Hyynilä,61.5333,22.95
38490,Haukijärvi,61.5667,23.1
38510,Suodenniemi,61.5667,22.7833
38511,Suodenniemi,61.5667,22.7833
38540,Putaja,61.5,22.7
38600,Lavia,61.6,22.6
38601,Lavia,61.6,22.6
38610,Riuttala,61.5667,22.5333
38650,Yli-Putto,61.6167,22.475
38660,Haunia,61.6167,22.4333
38670,Kalliala,61.6,22.4167
38680,Tuunajärvi,61.7167,22.2667
38690,Tuomisaari,61.6167,22.475
38700,Kankaanpää,61.8,22.4167
38701,Kankaanpää,61.8,22.4167
38707,Kankaanpää 7,61.8,22.4167
38710,Kankaanpää,61.8,22.4167
38711,Kankaanpää,61.8,22.4167
38720,Vihteljärvi,61.75,22.5333
38740,Hapuoja,61.7929,22.3762
38750,Veneskoski,61.7833,22.2333
38760,Venesjärvi,61.8167,22.2
38770,Lohikko,61.7929,22.3762
38800,Jämijärvi,61.8167,22.7
38801,Jämijärvi,61.8167,22.7
38840,Niinisalo,61.8333,22.4833
38841,Niinisalo,61.8333,22.4833
38860,Suurimaa,61.8833,22.6
38910,Ala-Honkajoki,61.9958,22.25
38920,Vatajankoski,61.9333,22.2167
38950,Honkajoki,61.9833,22.2667
38951,Honkajoki,61.9833,22.2667
38970,Lauhala,62.0833,22.25
39100,Hämeenkyrö,61.6333,23.2
39101,Hämeenkyrö,61.6333,23.2
39110,Simuna,61.5905,23.281
39120,Mahnala,61.5667,23.3333
39130,Sasi,61.5833,23.3667
39150,Pinsiö,61.5667,23.4333
39160,Julkujärvi,61.5905,23.281
39170,Jumesniemi,61.55,23.2833
39180,Herttuala,61.6,23.15
39195,Kaipio,61.5905,23.281
39200,Kyröskoski,61.6667,23.1833
39201,Kyröskoski,61.6667,23.1833
39220,Kostula,61.7,23.15
39230,Osara,61.7,23.1667
39290,Vesajärvi,61.65,22.8833
39310,Viljakkala,61.7,23.2667
39340,Karhe,61.7333,23.45
39360,Komi,61.6667,23.4333
39380,Lavajärvi,61.65,23.4667
39410,Luhalahti,61.7667,23.2833
39420,Iso-Röyhiö,61.8,23.3167
39430,Röyhiö,61.8,23.3167
39450,Sisättö,61.8333,23.35
39500,Ikaalinen,61.7667,23.05
39501,Ikaalinen,61.7667,23.05
39510,Ikaalinen,61.7667,23.05
39520,Sikuri,61.7333,23.15
39530,Kilvakkala,61.7667,23
39540,Jylli,61.7833,22.85
39550,Myllykarttu,61.8167,22.9667
39580,Riitiala,61.8667,22.9833
39590,Tevaniemi,61.85,23.0667
39610,Kovelahti,61.9,22.8333
39620,Kovesjoki,61.95,22.8917
39660,Lapinneva,62,22.95
39700,Parkano,62.0167,23.0167
39701,Parkano,62.0167,23.0167
39710,Kylmäkoski,62.0417,23.0042
39750,Kuivasjärvi,62.1667,22.9833
39770,Aureskoski,62.0417,23.0042
39780,Alaskylä,61.9667,23
39810,Linnankylä,62.1167,23.0333
39820,Kihniö,62.2,23.1833
39821,Kihniö,62.2,23.1833
39880,Kihniö As,62.1722,23.1333
39910,Tuulenkylä,62.1167,22.7333
39920,Suomijärvi,62.1,22.65
39930,Karvia,62.1333,22.5667
39931,Karvia,62.1333,22.5667
39940,Kantti,62.0833,22.5333
39960,Sarvela,62.1667,22.6
39965,Karviankylä,62.1667,22.6
39980,Sara,62.25,22.6
39990,Alkkia,62.2,22.7667
40003,Jyväskylä,62.2333,25.7333
40007,Jyväskylä,62.2333,25.7333
40063,Laskunet,62.2333,25.7333
40100,Jyväskylä,62.2336,25.7449
40101,Jyväskylä,62.2333,25.7333
40109,Jyväskylä,62.2333,25.7333
40200,Jyväskylä,62.2333,25.7333
40220,Keski-Palokka,62.2833,25.7167
40250,Jyväskylä,62.2333,25.7333
40251,Jyväskylä,62.2333,25.7333
40270,Palokka,62.2833,25.7167
40271,Palokka,62.2833,25.7167
40320,Jyväskylä,62.2333,25.7333
40321,Jyväskylä,62.2333,25.7333
40340,Jyväskylä,62.2333,25.7333
40341,Jyväskylä,62.2333,25.7333
40350,Jyväskylä,62.2333,25.7333
40351,Jyväskylä,62.2333,25.7333
40400,Jyväskylä,62.2333,25.7333
40401,Jyväskylä,62.2333,25.7333
40420,Jyskä,62.2333,25.8333
40450,Jyväskylä,62.2333,25.7333
40500,Jyväskylä,62.2333,25.7333
40520,Jyväskylä,62.2333,25.7333
40521,Jyväskylä,62.2333,25.7333
40530,Jyväskylä,62.2333,25.7333
40531,Jyväskylä,62.2333,25.7333
40600,Jyväskylä,62.2333,25.7333
40620,Jyväskylä,62.2333,25.7333
40621,Jyväskylä,62.2333,25.7333
40630,Jyväskylä,62.2333,25.7333
40631,Jyväskylä,62.2333,25.7333
40640,Jyväskylä,62.2333,25.7333
40660,Jyväskylä,62.2333,25.7333
40700,Jyväskylä,62.2333,25.7333
40701,Jyväskylä,62.2333,25.7333
40720,Jyväskylä,62.2333,25.7333
40740,Jyväskylä,62.257,25.6969
40800,Vaajakoski,62.2667,25.9
40801,Vaajakoski,62.2667,25.9
40820,Haapaniemi,63.0833,26
40900,Säynätsalo,62.1333,25.7667
40930,Kinkomaa,62.1333,25.7
40931,Kinkomaa,62.1333,25.7
40950,Muurame,62.1333,25.6667
40951,Muurame,62.1333,25.6667
40957,Muurame 7,62.1333,25.6667
41120,Puuppola,62.4042,25.6333
41140,Kuikka,62.3833,25.6
41160,Tikkakoski,62.4,25.6333
41161,Tikkakoski,62.4,25.6333
41180,Vehniä,62.4333,25.6667
41210,Jokihaara,62.4167,25.5167
41220,Höytiä,62.4167,25.3833
41230,Uurainen,62.5,25.45
41231,Uurainen,62.5,25.45
41240,Kyynämöinen,62.4833,25.3333
41260,Hoikankylä,62.4905,25.4476
41270,Lannevesi,62.6,25.4
41290,Kangashäkki,62.5167,25.6
41310,Leppävesi,62.3333,25.8667
41315,Tiituspohja,62.3333,25.8667
41325,Laukkavirta,62.4188,25.9229
41330,Vihtavuori,62.3667,25.9
41331,Vihtavuori,62.3667,25.9
41340,Laukaa,62.4167,25.95
41341,Laukaa,62.4167,25.95
41350,Laukaa As,62.4188,25.9229
41360,Valkola,62.4667,25.8167
41370,Kuusa,62.4667,25.95
41390,Äijälä,62.5167,26.05
41400,Lievestuore,62.2667,26.2
41401,Lievestuore,62.2667,26.2
41410,Kankainen,62.2,26.2667
41420,Taulu,62.3643,26.319
41440,Ruuhimäki,62.2,26.1667
41450,Leppälahti,62.25,25.9667
41460,Iso-Oksala,62.3643,26.319
41470,Saarilahti,62.3643,26.319
41480,Simunankoski,62.3833,26.1833
41490,Niemisjärvi,62.9833,27.25
41500,Hankasalmi As,62.425,26.4292
41501,Hankasalmi As,62.425,26.4292
41520,Hankasalmi,62.3833,26.4333
41521,Hankasalmi,62.3833,26.4333
41530,Veneranta,62.425,26.4292
41540,Ristimäki,62.4667,26.35
41550,Hannula,62.425,26.4292
41560,Säkinmäki,62.4667,26.5
41580,Sauvamäki,62.425,26.4292
41585,Hanka,62.425,26.4292
41630,Oravasaari,62.1667,25.9167
41660,Toivakka,62.1,26.0833
41661,Toivakka,62.1,26.0833
41680,Särkiharju,62.1222,26.0278
41710,Rutalahti,62,25.9833
41730,Kivisuo,61.9667,26.1222
41750,Havumäki,61.9833,26.2667
41770,Leivonmäki,61.9167,26.1167
41800,Korpilahti,62.0167,25.55
41801,Korpilahti,62.0167,25.55
41820,Saakoski,61.9833,25.3833
41840,Moksi,62.1,25.4167
41860,Rannila,61.9917,25.5611
41870,Putkilahti,61.8833,25.7167
41880,Oittila,61.95,25.75
41900,Petäjävesi,62.25,25.2
41901,Petäjävesi,62.25,25.2
41920,Kintaus,62.35,25.35
41925,Ylä-Kintaus,62.35,25.35
41930,Kuohu,62.2667,25.45
41940,Vesanka,62.2667,25.5667
41945,Nyrölä,62.3667,25.4667
41970,Huttula,62.2963,25.387
41980,Kuivasmäki,62.3333,25.1667
41999,Jyväskylä,62.2333,25.7333
42100,Jämsä,61.8667,25.2
42101,Jämsä,61.8667,25.2
42120,Jämsä,61.8667,25.2
42140,Juokslahti,61.9333,25.3333
42220,Kaipola,61.8167,25.25
42250,Alhojärvi,61.8333,25.15
42280,Partalankoski,61.825,25.2
42300,Jämsänkoski,61.9167,25.1833
42301,Jämsänkoski,61.9167,25.1833
42330,Haavisto,61.9833,25.15
42440,Koskenpää,62.0833,25.15
42490,Niemisjärvi,62.9833,27.25
42520,Asunta,62.2,24.7833
42540,Kaleton,62.2,24.7833
42541,Kaleton,62.2,24.7833
42560,Pohjoisjärvi,62.2,24.7833
42600,Multia,62.4167,24.7833
42601,Multia,62.4167,24.7833
42660,Sahrajärvi,62.45,25.1
42700,Keuruu,62.2667,24.7
42701,Keuruu,62.2667,24.7
42720,Keuruu,62.2667,24.7
42721,Keuruu,62.2667,24.7
42730,Ketvelniemi,62.3033,24.6433
42760,Keurusselkä,62.3033,24.6433
42790,Liesjärvi,62.45,24.4167
42800,Haapamäki,62.25,24.4667
42801,Haapamäki,62.25,24.4667
42820,Riiho,62.2,24.4
42830,Ylä-Kolkki,62.2119,24.3095
42840,Kolkki,62.1167,24.2
42850,Pohjaslahti,62.15,24.1333
42870,Kotala,62.2667,24.0333
42899,Haapamäki,62.25,24.4667
42910,Pihlajavesi,62.35,24.2833
42930,Katajamäki,62.9,24.1167
42999,Jämsä,61.8667,25.2
43100,Saarijärvi,62.7167,25.2667
43101,Saarijärvi,62.7167,25.2667
43130,Tarvaala,62.6667,25.3
43140,Summassaari,62.7208,25.3208
43170,Häkkilä,62.7833,25.45
43220,Mahlu,62.65,25.0333
43240,Lehtola,62.7167,25.0333
43250,Kolkanlahti,62.7333,25.1667
43270,Kalmari,62.8,25.0667
43300,Kannonkoski,62.9667,25.25
43340,Kannonjärvi,62.9,25.2333
43380,Vuoskoski,63.05,25.3333
43390,Lokakylä,62.9722,25.2722
43410,Soidinmäki,62.65,24.9333
43420,Kukko,62.6167,24.75
43430,Väätäiskylä,62.5833,24.6
43440,Pylkönmäki,62.6667,24.8
43480,Pääjärvi,62.7667,24.8333
43490,Kangasaho,62.6567,24.7833
43500,Karstula,62.8667,24.7833
43501,Karstula,62.8667,24.7833
43520,Kiminki,62.9667,24.7
43540,Rantakylä,62.8667,24.7
43560,Vahanka,62.8667,24.5333
43610,Aho,62.5333,23.0833
43640,Humppi,62.9,24.9
43660,Vastinki,62.8667,24.9833
43680,Takkala,62.7667,24.3222
43700,Kyyjärvi,63.0333,24.5667
43701,Kyyjärvi,63.0333,24.5667
43720,Kumpulainen,63.05,24.75
43740,Oikari,63,24.7
43800,Kivijärvi,63.0667,25.05
43801,Kivijärvi,63.0667,25.05
43840,Sompala,63.05,25.1
43900,Kinnula,65.15,27.7167
43901,Kinnula,65.15,27.7167
43940,Muhola,64.1667,28
43960,Saarensalmi,64.8222,27.8111
44007,Äänekoski,62.6,25.7333
44100,Äänekoski,62.6,25.7333
44101,Äänekoski,62.6,25.7333
44120,Äänekoski,62.6,25.7333
44150,Äänekoski,62.6,25.7333
44151,Äänekoski,62.6,25.7333
44160,Huutomäki,62.6,25.7333
44170,Hietama,62.6,25.7333
44190,Parantala,62.6,25.7333
44200,Suolahti,62.5667,25.8667
44201,Suolahti,62.5667,25.8667
44220,Suolahti,62.5667,25.8667
44250,Ääne-Koivisto,62.4833,25.9333
44260,Vihijärvi,62.0667,26.0333
44280,Sumiainen,62.65,26.0333
44300,Konnevesi,62.6167,26.3167
44320,Sirkkamäki,62.5333,26.4
44330,Hytölä,62.5833,26.2
44350,Istunmäki,62.7,26.4833
44370,Mäntymäki,62.6083,26.35
44400,Konginkangas,62.7667,25.8
44401,Konginkangas,62.7667,25.8
44420,Liimattala,62.7333,25.8
44440,Räihä,62.8167,25.8167
44460,Kalaniemi,62.8667,25.8333
44480,Niinilahti,62.9333,25.8
44500,Viitasaari,63.0667,25.8667
44501,Viitasaari,63.0667,25.8667
44520,Jurvansalo,63.0333,25.8
44530,Ilmolahti,62.9833,25.8667
44550,Ruuponsaari,63.0306,25.75
44580,Huopanankoski,63.0667,25.5333
44590,Vuorilahti,62.9667,25.5667
44610,Kärnä,63.1667,25.95
44630,Kumpumäki,63.2,26.0833
44640,Kymönkoski,63.1167,25.95
44670,Suovanlahti,63.0167,26.0833
44680,Lahnanen,63.8167,26.3
44690,Haarala,62.9833,26.1833
44720,Pasala,63.2,25.9167
44730,Löytänä,63.25,25.6667
44740,Keitelepohja,63.2,25.6
44760,Keihärinkoski,63.1167,25.55
44770,Valkeisjärvi,63.1917,25.6833
44790,Kotvala,63.1917,25.6833
44800,Pihtipudas,63.3833,25.5667
44801,Pihtipudas,63.3833,25.5667
44820,Niemenharju,63.47,25.4167
44860,Alvajärvi,63.4667,25.3167
44880,Muurasjärvi,63.5667,25.25
44890,Kojola,63.55,25.3833
44910,Elämäjärvi,63.4833,25.6667
44920,Peninki,63.4833,25.7667
44950,Kärväsjärvi,63.3667,25.7667
44970,Korppinen,63.35,25.9
45007,Kouvola,60.8667,26.7
45100,Kouvola,60.8667,26.7
45101,Kouvola,60.8667,26.7
45120,Kouvola,60.8667,26.7
45121,Kouvola,60.8667,26.7
45130,Kouvola,60.8667,26.7
45131,Kouvola,60.8667,26.7
45140,Kouvola,60.8667,26.7
45141,Kouvola,60.8667,26.7
45150,Kouvola,60.8667,26.7
45151,Kouvola,60.8667,26.7
45160,Kouvola,60.8667,26.7
45161,Kouvola,60.8667,26.7
45200,Kouvola,60.8667,26.7
45201,Kouvola,60.8667,26.7
45250,Kymenlaakson lajittelukeskus,60.8667,26.7
45251,Kouvola,60.8667,26.7
45330,Harju,60.5333,27.5833
45360,Valkeala,60.95,26.8
45361,Valkeala,60.95,26.8
45370,Valkeala,60.95,26.8
45371,Valkeala,60.95,26.8
45410,Utti,60.8833,26.9333
45411,Utti,60.8833,26.9333
45460,Savero,60.8333,26.9833
45540,Lyöttilä,60.9667,26.45
45610,Koria,60.8333,26.6
45611,Koria,60.8333,26.6
45700,Kuusankoski,60.9,26.6333
45701,Kuusankoski,60.9,26.6333
45720,Kuusankoski,60.9,26.6333
45721,Kuusankoski,60.9,26.6333
45730,Kuusankoski,60.9,26.6333
45740,Kuusankoski,60.9,26.6333
45741,Kuusankoski,60.9,26.6333
45750,Sairaalamäki,60.9333,26.6333
45810,Pilkanmaa,60.9667,26.55
45910,Voikkaa,60.9667,26.6
45911,Voikkaa,60.9667,26.6
45940,Oravala,60.9667,26.6
46110,Tuohikotti,61.0833,27.0667
46140,Vekaranjärvi,61.0833,27.0667
46141,Vekaranjärvi,61.0833,27.0667
46230,Aro,61.05,26.8333
46250,Heinistö,61.05,26.8333
46310,Toikkala,60.9667,26.9
46350,Inkerilä,61.0167,27.0667
46400,Kaipiainen,60.9,27.1167
46430,Tirva,60.95,27.05
46450,Enäjärvi,60.85,27.1333
46530,Kannuskoski,60.9667,27.25
46550,Kaitjärvi,60.9083,27.2833
46570,Saaramaa,60.85,27.3167
46610,Hirvelänkylä,60.75,27.0331
46710,Sippola,60.7333,27
46730,Ruotila,60.6833,27.0833
46750,Liikkala,60.7,27.0167
46800,Anjalankoski,60.8441,26.9892
46801,Anjalankoski,60.8441,26.9892
46810,Anjalankoski,60.8441,26.9892
46860,Anjalankoski,60.8441,26.9892
46861,Anjalankoski,60.8441,26.9892
46900,Anjalankoski,60.7125,26.7375
46901,Anjalankoski,60.7125,26.7375
46907,Anjalankoski 7,60.7125,26.7375
46910,Anjalankoski,60.7125,26.7375
46920,Anjalankoski,60.7125,26.7375
46930,Huruksela,60.6667,26.7833
46950,Ahvio,60.6333,26.7333
46960,Muhniemi,60.6833,26.7333
46999,Kouvola,60.8667,26.7
47110,Löytty,60.65,26.5667
47150,Raussila,60.65,26.5667
47200,Elimäki,60.7167,26.4667
47201,Elimäki,60.7167,26.4667
47210,Rahikkala,60.75,26.5667
47230,Teuroinen,60.8,26.45
47240,Lakiasuo,60.7233,26.4867
47260,Ratula,60.6333,26.4833
47310,Haapa-Kimola,60.9136,26.4833
47350,Kimonkylä,60.9136,26.4833
47400,Kausala,60.9,26.3667
47401,Kausala,60.9,26.3667
47440,Valkama,60.85,26.2333
47450,Perheniemi,60.85,26.2
47460,Hiisiö,60.8833,26.2733
47490,Mankala,60.9167,26.2
47520,Iitti,60.8667,26.3833
47540,Lyöttilä,60.9667,26.45
47610,Kymentaka,60.9833,26.35
47650,Kimola,61.05,26.3667
47710,Jaala,61.05,26.4833
47760,Huhdasjärvi,61.1667,26.55
47810,Selänpää,61.05,26.7333
47830,Hasula,61.05,26.7167
47850,Verla,61.0667,26.6333
47900,Vuohijärvi,61.0833,26.8
47901,Vuohijärvi,61.0833,26.8
47910,Hillosensalmi,61.0833,26.8
48007,Kotka,60.4667,26.9167
48100,Kotka,60.4667,26.9333
48101,Kotka,60.4667,26.9167
48130,Kotka,60.4667,26.9167
48180,Kuutsalo,60.4333,27.05
48200,Kotka,60.4667,26.9167
48201,Kotka,60.4667,26.9167
48210,Kotka,60.4667,26.9167
48220,Kotka,60.4667,26.9167
48221,Kotka,60.4667,26.9167
48223,Langinkosken kalastusmaja,60.4667,26.9167
48230,Kotka,60.4667,26.9167
48231,Kotka,60.4667,26.9167
48251,Kotka,60.4667,26.9167
48300,Kotka,60.4667,26.9167
48310,Kotka,60.4667,26.9167
48350,Kotka,60.4667,26.9167
48351,Kotka,60.4667,26.9167
48400,Kotka,60.4667,26.9167
48401,Kotka,60.4667,26.9167
48410,Kotka,60.4667,26.9167
48600,Karhula,60.4833,26.9667
48601,Karhula,60.5167,26.95
48700,Kyminlinna,60.5,26.9
48701,Kyminlinna,60.5,26.9
48710,Karhula,60.5167,26.95
48720,Kymi,60.5,26.9167
48750,Kotka,60.4667,26.9167
48770,Karhula,60.5167,26.95
48771,Karhula,60.5167,26.95
48800,Karhula,60.5167,26.95
48810,Karhula,60.5167,26.95
48900,Sunila,60.4833,26.95
48901,Kotka,60.4667,26.9167
48910,Kotka,60.4667,26.9167
48911,Kotka,60.4667,26.9167
48920,Halla,60.4833,26.9667
48930,Tiutinen,60.4667,26.9833
49200,Heinlahti,60.4667,26.8
49210,Huutjärvi,60.4822,26.7508
49220,Siltakylä,60.5,26.7167
49240,Purola,60.4667,26.65
49270,Pyhtää,60.4833,26.5333
49290,Vastila,60.6167,26.6667
49300,Tavastila,60.5667,26.9667
49340,Juurikorpi,60.6,26.95
49400,Hamina,60.5484,27.2362
49401,Hamina,60.5667,27.2
49407,Hamina,60.5667,27.2
49410,Poitsila,60.55,27.1667
49411,Poitsila,60.55,27.1667
49420,Hamina,60.5667,27.2
49460,Hamina,60.5667,27.2
49461,Hamina,60.5667,27.2
49470,Kivelä,60.5616,27.17
49480,Summa,60.5667,27.1167
49490,Neuvoton,60.5497,27.05
49510,Husula,60.6167,27.1833
49520,Reitkalli,60.6167,27.1167
49540,Metsäkylä,60.6497,27.0667
49570,Kannusjärvi,60.6833,27.1831
49610,Sivatti,60.5833,27.2333
49630,Vehkajoki,60.661,27.2721
49640,Paijärvi,60.6497,27.25
49660,Pyhältö,60.75,27.3331
49700,Miehikkälä,60.6667,27.7
49701,Miehikkälä,60.6667,27.7
49720,Hurttala,60.6833,27.75
49730,Muurikkala,60.65,27.8833
49750,Kalliokoski,60.6833,27.5667
49760,Suur-Miehikkälä,60.7167,27.5831
49770,Salo-Miehikkälä,60.7,27.45
49780,Onkamaa,60.65,27.4
49818,Hamina leirintä,60.5333,27.3444
49840,Mäntlahti,60.5167,27.3667
49860,Klamila,60.5167,27.4667
49899,Hamina,60.5667,27.2
49900,Virolahti,60.5167,27.6831
49901,Virolahti,60.5167,27.6831
49930,Vaalimaa,60.5833,27.8167
49950,Virolahti Kk,60.5233,27.5299
49960,Ala-Pihlaja,60.5233,27.5299
49980,Ravijoki,60.5333,27.55
49999,Kotka,60.4667,26.9167
50007,Mikkeli,61.6833,27.25
50100,Mikkeli,61.689,27.27
50101,Mikkeli,61.6833,27.25
50120,Mikkeli,61.6833,27.25
50130,Mikkeli,61.6833,27.25
50131,Mikkeli,61.6833,27.25
50150,Mikkeli,61.6833,27.25
50151,Mikkeli,61.6833,27.25
50160,Mikkeli,61.6833,27.25
50170,Mikkeli,61.6833,27.25
50171,Mikkeli,61.6833,27.25
50180,Mikkeli,61.6833,27.25
50190,Mikkeli,61.6833,27.25
50350,Norola,61.7167,27.45
50500,Mikkeli,61.6833,27.25
50501,Mikkeli,61.6833,27.25
50520,Mikkeli,61.6833,27.25
50600,Mikkeli,61.6833,27.25
50670,Otava,61.65,27.0667
50770,Korpikoski,61.7167,27.0667
50970,Ihastjärvi,61.8667,27.1667
51130,Vanhamäki,61.8,26.9333
51200,Kangasniemi,61.9833,26.6333
51201,Kangasniemi,61.9833,26.6333
51260,Tahkomäki,62.0222,26.6667
51270,Kutemajärvi,62.1,26.7333
51310,Levä,62.1708,26.025
51330,Kortesalmi,62.1708,26.025
51335,Kaihlamäki,62.1708,26.025
51340,Hännilä,62.6667,25.1167
51350,Paappala,62.05,26.3833
51360,Koivula,61.8667,26.1
51380,Synsiö,62.1,26.5
51420,Harjumaa,61.9833,26.8833
51430,Läsäkoski,61.9,26.9167
51440,Vuojalahti,61.9667,26.7833
51450,Pajulankylä,61.9542,26.8875
51460,Luusniemi,61.9667,26.9667
51520,Hiirola,61.9328,27.2387
51540,Kalvitsa,61.9328,27.2387
51600,Haukivuori,62.0167,27.2167
51601,Haukivuori,62.0167,27.2167
51620,Pitkäaho,62.05,27.1389
51670,Nykälä,62.1167,26.9833
51720,Rahula,61.7,27.3833
51730,Asila,61.7333,27.5
51740,Huuhanaho,61.75,27.55
51760,Nuutilanmäki,61.8,27.6
51770,Pekurila,61.8167,27.6333
51780,Kuosmala,61.7667,27.65
51810,Maivala,61.8,27.7167
51820,Hatsola,61.8667,27.8
51830,Näärinki,61.9,27.6667
51840,Nevaintausta,61.8452,27.7357
51850,Vuorenmaa,61.9833,27.5
51860,Narila,62.0167,27.5833
51880,Koikkala,61.7,27.9
51890,Risulahti,61.65,27.9833
51900,Juva,61.9,27.85
51901,Juva,61.9,27.85
51930,Paatela,61.9167,28.0333
51940,Härkälä,61.9528,27.775
51960,Palokangas,62.55,27.6167
51980,Lauteala,61.7667,28.05
51999,Mikkeli,61.6833,27.25
52100,Anttola,61.5833,27.65
52110,Majavesi,61.6167,27.4667
52140,Ylivesi,61.6667,27.6667
52150,Hauhala,61.5333,27.7667
52200,Puumala,61.5333,28.1833
52201,Puumala,61.5333,28.1833
52230,Hurissalo,61.4833,27.8667
52240,Ruokotaipale,61.4333,27.9
52270,Ryhälä,61.6667,28.2333
52300,Ristiina,61.5,27.2667
52301,Ristiina,61.5,27.2667
52320,Vitsiälä,61.5667,27.2333
52330,Heimari,61.5833,27.3
52340,Hangastenmaa,61.5333,27.4
52350,Kalmo,61.5667,27.4
52360,Someenjärvi,61.4667,27.5333
52370,Suurlahti,61.4667,27.6667
52420,Pellosniemi,61.4953,27.1688
52510,Hietanen,61.6389,26.8556
52520,Syväsmäki,61.65,26.9667
52550,Hirvensalmi,61.6333,26.8
52551,Hirvensalmi,61.6333,26.8
52580,Hämeenmäki,61.6389,26.8556
52610,Tuukkala,61.7167,26.5833
52620,Kuitula,61.75,26.5
52650,Pärnämäki,61.7667,26.35
52660,Marjotaipale,61.7,26.35
52700,Mäntyharju,61.4167,26.8833
52701,Mäntyharju,61.4167,26.8833
52710,Mäntyharju Kk,61.4306,26.85
52720,Karankamäki,61.45,26.6333
52730,Koirakivi,61.4167,26.5667
52740,Tuustaipale,61.4306,26.85
52760,Mynttilä,61.4306,26.85
52770,Ollikkala,61.45,27
52780,Kuomiokoski,61.4333,27.1333
52810,Varpanen,61.3667,26.9167
52830,Suomenniemi,61.3167,27.45
52850,Halmeniemi,61.2833,27.2167
52870,Kinni,61.3,26.9
52890,Käävänkylä,61.2,27.1
52920,Voikoski,61.2667,26.8
52940,Hillosensalmi,61.2958,26.6417
52960,Nurmaa,61.3,26.6667
52970,Pankalahti,61.3167,26.5833
52980,Ahvenainen,61.3,26.5167
53007,Lappeenranta,61.0667,28.1833
53100,Lappeenranta,61.0513,28.1983
53101,Lappeenranta,61.0667,28.1833
53130,Lappeenranta,61.0667,28.1833
53200,Lappeenranta,61.0667,28.1833
53300,Lappeenranta,61.0667,28.1833
53301,Lappeenranta,61.0667,28.1833
53400,Lappeenranta,61.0667,28.1833
53420,Lappeenranta,61.0667,28.1833
53440,Lappeenranta,61.0667,28.1833
53500,Lappeenranta,61.0667,28.1833
53501,Lappeenranta,61.0667,28.1833
53600,Lappeenranta,61.0667,28.1833
53601,Lappeenranta,61.0667,28.1833
53650,Lappeenranta,61.0667,28.1833
53800,Lappeenranta,61.0667,28.1833
53810,Lappeenranta,61.0667,28.1833
53830,Lappeenranta,61.0667,28.1833
53850,Lappeenranta,61.0667,28.1833
53851,Lappeenranta,61.0667,28.1833
53900,Lappeenranta,61.0667,28.1833
53901,Lappeenranta,61.0667,28.1833
53920,Lappeenranta,61.0667,28.1833
53950,Lappeenranta,61.0667,28.1833
54100,Joutseno,61.1,28.5
54101,Joutseno,61.1,28.5
54110,Lampikangas,61.0867,28.4967
54120,Pulp,61.1333,28.4333
54160,Ala-Joutseno,61.0867,28.4967
54180,Kähärilä,61.0667,28.5
54190,Konnunsuo,61.0333,28.55
54230,Nuijamaa,60.9667,28.5333
54250,Rapattila,60.95,28.4
54270,Vainikkala,60.8667,28.3
54310,Hytti,60.9667,28.1667
54330,Simola,60.9,28.1333
54340,Raippo,60.9292,28.0792
54380,Tani,60.9167,28.05
54390,Pulsa,60.9333,27.9667
54410,Ylämaa,60.8,28
54430,Hujakkala,60.7,27.9333
54440,Väkevälä,60.6833,28
54450,Nurmela,60.6667,27.9833
54460,Ylijärvi,60.7667,27.9167
54480,Nokkala,60.8,27.6333
54490,Ahomäki,60.7361,27.9111
54500,Taavetti,60.9167,27.5667
54501,Taavetti,60.9167,27.5667
54510,Uro,60.9333,27.6667
54530,Luumäki,60.9167,27.65
54550,Suo-Anttila,60.92,27.5767
54580,Somerharju,60.9167,27.4333
54610,Ellola,60.9833,27.45
54620,Munteenkylä,61.05,27.3833
54630,Viuhkola,61.05,27.2833
54640,Pentti,61,27.5
54670,Hämäläinen,61.0208,27.4042
54710,Lemi,61.05,27.8
54711,Lemi,61.05,27.8
54715,Nisola,61.05,27.8
54720,Laksiainen,61.1167,27.6667
54740,Uimi,61.0833,27.6733
54750,Välijoki,61.0667,27.5833
54770,Heituinlahti,61.1333,27.5167
54800,Savitaipale,61.2,27.7
54801,Savitaipale,61.2,27.7
54820,Kotimäki,61.1167,27.9
54840,Telamäki,61.0833,27.9333
54850,Kuukanniemi,61.1733,27.7833
54880,Partakoski,61.2667,27.6833
54915,Saimaanharju,61.1958,28.0292
54920,Taipalsaari,61.15,28.05
54921,Taipalsaari,61.15,28.05
54930,Levänen,61.1958,28.0292
54940,Solkei,61.25,27.85
54950,Pettilä,61.3,27.75
54960,Vehkataipale,61.1667,28.2167
54980,Saimaanranta,61.2167,28.1
54990,Suur-Saimaa,61.2667,28.0333
54999,Lappeenranta,61.0667,28.1833
55007,Imatra,61.1667,28.7667
55100,Imatra,61.1712,28.7874
55101,Imatra,61.1667,28.7667
55120,Imatra,61.1667,28.7667
55121,Imatra,61.1667,28.7667
55300,Rauha,61.1833,28.7
55320,Rauha,61.1833,28.7
55330,Tiuruniemi,61.2,28.6667
55400,Imatra,61.1667,28.7667
55420,Imatra,61.1734,28.8047
55510,Imatra,61.1667,28.7667
55610,Imatra,61.1667,28.7667
55611,Imatra,61.1667,28.7667
55700,Imatra,61.1667,28.7667
55800,Imatra,61.1667,28.7667
55801,Imatra,61.1667,28.7667
55910,Imatra,61.1667,28.7667
55950,Imatra,61.1667,28.7667
56100,Ruokolahti,61.2833,28.8333
56101,Ruokolahti,61.2833,28.8333
56120,Salosaari,61.2792,28.725
56130,Savilahti,61.25,28.65
56140,Äitsaari,61.3,28.5833
56210,Virmutjoki,61.3333,28.7667
56250,Erä,61.45,28.7667
56310,Syyspohja,61.4,28.65
56330,Utula,61.35,28.4833
56350,Kyläniemi,61.2833,28.1667
56370,Hauklappi,61.45,28.5
56410,Kaiturinpää,61.35,29
56440,Pohja-Lankila,61.35,29
56510,Puntala,61.2667,28.9833
56550,Niska-Pietilä,61.2667,28.9833
56610,Rautjärvi,61.4333,29.35
56620,Untamo,61.3417,29.2583
56640,Purnujärvi,61.25,29.1667
56710,Miettilä,61.3,29.25
56730,Laikko,61.3667,29.2667
56800,Simpele,61.4333,29.3667
56801,Simpele,61.4333,29.3667
56810,Simpele As,61.4278,29.35
56830,Änkilä,61.4167,29.3167
56999,Imatra,61.1667,28.7667
57007,Savonlinna,61.8667,28.8833
57100,Savonlinna,61.8667,28.8833
57101,Savonlinna,61.8667,28.8833
57120,Savonlinna,61.8667,28.8833
57130,Savonlinna,61.8666,28.8833
57131,Savonlinna,61.8667,28.8833
57150,Olavinlinna,61.8667,28.8833
57170,Savonlinna,61.8667,28.8833
57200,Savonlinna,61.8667,28.8833
57201,Savonlinna,61.8667,28.8833
57210,Savonlinna,61.8667,28.8833
57220,Savonlinna,61.8667,28.8833
57230,Savonlinna,61.8667,28.8833
57231,Savonlinna,61.8667,28.8833
57310,Savonlinna,61.8667,28.8833
57510,Savonlinna,61.8667,28.8833
57600,Savonlinna,61.8667,28.8833
57710,Savonlinna,61.8667,28.8833
57810,Savonlinna,61.8667,28.8833
58130,Oravi,62.1167,28.6167
58140,Ahvensalmi,62.1667,28.4833
58150,Makkola,61.9667,28.9167
58160,Karvila,62.0333,28.8667
58170,Simanala,62.0667,28.9667
58175,Enonkoski,62.0833,28.9333
58180,Ihamaniemi,62.15,28.9
58200,Kerimäki,61.9167,29.2833
58201,Kerimäki,61.9167,29.2833
58220,Louhi,61.9333,29.05
58240,Seikanlampi,61.9375,29.2542
58250,Hautalahti,61.9375,29.2542
58260,Kumpuranta,61.9833,29.4
58300,Savonranta,62.1833,29.2
58320,Raikuu,62.0333,29.45
58350,Villala,62.05,29.5667
58360,Säimen,62.2667,29.2
58390,Rönkönvaara,62.3333,29.25
58410,Haapakallio,61.8667,29.1
58420,Silvola,61.8417,29.2458
58430,Kulennoinen,61.8333,29.2167
58440,Päivinen,61.8667,29.2667
58450,Punkaharju,61.8,29.4
58451,Punkuharju,61.8,29.4
58500,Punkaharju,61.8,29.4
58501,Punkaharju,61.8,29.4
58520,Hiukkajoki,61.7167,29.3633
58550,Putikko,61.7167,29.4167
58570,Ruhvana,61.6667,29.3667
58580,Vuoriniemi,61.6,29.2333
58610,Telakanava,61.65,28.6
58620,Lohilahti,61.6167,28.6667
58630,Lohikoski,61.6167,28.75
58640,Lieviskä,61.5333,28.7
58650,Kiviapaja,61.7,28.75
58680,Piojärvi,61.6,28.95
58690,Ala-Särkilahti,61.55,29.0833
58700,Sulkava,61.7833,28.3833
58701,Sulkava,61.7833,28.3833
58720,Kaartilankoski,61.7167,28.4
58740,Kyrsyä,61.7917,28.4125
58770,Pihlajalahti,61.8833,28.4833
58810,Kallislahti,61.9,28.6
58830,Parkumäki,61.9667,28.5167
58840,Päiviälä,61.9833,28.5333
58850,Hiltula,61.9667,28.3833
58900,Rantasalmi,62.0667,28.3
58901,Rantasalmi,62.0667,28.3
58910,Rantasalmi As,62.0067,28.3333
58920,Kolkontaipale,62.05,28.1333
58940,Tuusmäki,61.9833,28.05
58999,Savonlinna,61.8667,28.8833
59100,Parikkala,61.55,29.5
59101,Parikkala,61.55,29.5
59110,Tiviä,61.55,29.5667
59130,Koitsanlahti,61.4667,29.4667
59210,Melkoniemi,61.55,29.3667
59220,Peruspohja,61.5167,29.3167
59310,Särkisalmi,61.6,29.4833
59320,Haapaoja,61.6167,29.5333
59410,Kirjavala,61.6667,29.65
59420,Kesusmaa,61.6333,29.7
59510,Saari,61.65,29.75
59511,Saari,61.65,29.75
59520,Saari,61.65,29.75
59530,Mikkolanniemi,61.6833,29.7833
59610,Tarnala,61.7167,29.75
59620,Rajavaara,61.75,29.65
59710,Kummunkylä,61.7667,29.8167
59720,Niukkala,61.7333,29.8833
59730,Uukuniemi,61.7833,30.0167
59800,Kesälahti,61.9,29.8333
59801,Kesälahti,61.9,29.8333
59810,Suurikylä,60.45,27.0333
59820,Purujärvi,61.7833,29.7
59830,Totkiniemi,61.5083,29.1
59910,Luostarinen,61.9167,29.8
59999,Parikkala,61.55,29.5
60007,Seinäjoki,62.5667,23.0667
60100,Seinäjoki,62.5667,23.0667
60101,Seinäjoki,62.5667,23.0667
60110,Seinäjoki,62.5667,23.0667
60120,Seinäjoki,62.5667,23.0667
60150,Seinäjoki,62.5667,23.0667
60200,Seinäjoki,62.5667,23.0667
60201,Seinäjoki,62.5667,23.0667
60220,Seinäjoki,62.5667,23.0667
60280,Seinäjoki,62.5667,23.0667
60320,Seinäjoki,62.5667,23.0667
60420,Seinäjoki,62.5667,23.0667
60450,Munakka,62.5667,23.0667
60510,Hyllykallio,61.8875,24.2542
60511,Hyllykallio,61.8875,24.2542
60530,Kivisaari,61.0333,28.45
60550,Nurmo,62.8333,22.9
60551,Nurmo,62.8333,22.9
60560,Halkosaari,60.85,22.7667
60601,Jalasjärvi,62.5,22.75
60640,Isokoski,62.5,22.75
60720,Tuomikylä,62.7333,22.7167
60760,Pojanluoma,62.6833,22.7333
60800,Ilmajoki,62.7333,22.5667
60801,Ilmajoki,62.7333,22.5667
61100,Peräseinäjoki,62.5667,23.0667
61101,Peräseinäjoki,62.5667,23.0667
61110,Vuolle,62.6167,23
61120,Louko,62.5071,23.0238
61140,Pasto,62.6167,23.1333
61150,Sydänmaa,61.9,22.6
61160,Koura,62.7167,23.1
61170,Sääskiniemi,62.5071,23.0238
61180,Haapaluoma,62.5667,23.2
61220,Myllysalo,62.5556,22.6833
61230,Luopa,62.5667,22.5333
61240,Opas,62.5667,22.6
61250,Jalasto,62.55,22.6667
61270,Luopajärvi,62.5833,22.75
61280,Jokipii,62.5167,22.6667
61290,Taivalmaa,62.55,22.8833
61300,Kurikka,62.6167,22.4167
61301,Kurikka,62.6167,22.4167
61310,Panttila,62.6667,22.4167
61330,Koskenkorva,62.6833,22.4667
61331,Koskenkorva,62.6833,22.4667
61340,Nopankylä,62.7167,22.2833
61350,Huissi,62.75,22.35
61360,Mieto,62.5667,22.3
61370,Lohiluoma,62.6537,22.363
61380,Polvenkylä,62.5833,22.15
61400,Ylistaro,62.95,22.5167
61401,Ylistaro,62.95,22.5167
61410,Ylistaro As,62.9,22.7738
61430,Isorehto,62.9,22.7738
61440,Untamala,63.0667,22.5667
61450,Kylänpää,62.9667,22.5667
61460,Hanhikoski,62.9667,22.75
61470,Kitinoja,62.9,22.8
61480,Tenkkula,62.5,23.7
61500,Isokyrö,63,22.3167
61501,Isokyrö,63,22.3167
61510,Ruusupuro,62.9767,22.3733
61520,Lehmäjoki,63.0667,22.45
61540,Akkaansilta,62.9767,22.3733
61550,Orismala,62.95,22.4
61560,Orisberg,62.8667,22.3833
61600,Jalasjärvi,62.5,22.75
61601,Jalasjärvi,62.5,22.75
61620,Komsi,62.4833,22.8333
61630,Hirvijärvi,62.4667,22.8
61640,Ala-Valli,62.4857,22.8762
61650,Kalakoski,62.4667,23.1167
61660,Kantola,62.5333,23.1
61670,Kulma,62.4857,22.8762
61680,Mantila,62.45,22.7833
61710,Pentinmäki,62.3417,22.7833
61720,Koskue,62.35,22.85
61730,Yli-Valli,62.3417,22.7833
61760,Ilvesjoki,62.3333,22.7167
61800,Kauhajoki,62.4333,22.1833
61801,Kauhajoki,62.4333,22.1833
61810,Luomankylä,62.45,22.1167
61820,Kainasto,62.45,22.0333
61840,Norinkylä,62.5667,22.0333
61850,Kauhajoki As,62.4619,22.1976
61851,Kauhajoki as,62.4619,22.1976
61860,Harja,62.5,22.2833
61880,Ikkeläjärvi,62.4,22.55
61910,Nummijärvi,62.3,22.4167
61920,Nummikoski,62.25,22.5
61940,Hyyppä,62.3,22.2333
61950,Juonikylä,62.3306,22.4278
61960,Kyrönlatva,62.2167,22.3
61980,Päntäne,62.35,22.05
61999,Seinäjoki,62.5667,23.0667
62100,Lapua,62.95,23
62101,Lapua,62.95,23
62110,Yli-Hella,62.9315,23.0148
62130,Hellanmaa,63.0333,22.8
62140,Ala-Hella,62.9315,23.0148
62150,Rintakangas,62.9315,23.0148
62160,Karhunkylä,62.95,22.65
62165,Tiistenjoki,62.9,23.2333
62170,Lakaluoma,62.9167,23.35
62175,Ylikylä,62.85,23.2833
62185,Mäki-Paavola,62.9315,23.0148
62190,Ruha,62.8833,22.9667
62195,Karhunmäki,62.95,22.85
62200,Kauhava,63.1,23.0833
62201,Kauhava,63.1,23.0833
62210,Kauhava Kk,63.1271,23.2396
62220,Pernaa,63.0833,22.95
62230,Jylhä,63.6333,23.65
62240,Huhmarkoski,63.1271,23.2396
62260,Hirvijoki,63.0833,23.2167
62270,Halmesmäki,63.1271,23.2396
62280,Mustamaa,63.0167,23.2
62290,Hirvikylä,62.9833,23.3
62295,Kauhajärvi,63.0167,23.4333
62300,Härmä,63.2333,22.8667
62301,Härmä,63.2333,22.8667
62310,Voltti,63.2833,22.8333
62320,Huhtamäki,63.2278,22.7685
62330,Vakkuri,63.2667,22.6667
62340,Kuoppa,63.2333,22.65
62350,Ekola,63.3333,22.7667
62360,Kivihuhta,63.1833,22.8
62370,Kangasto,63.15,22.7833
62375,Ylihärmä,63.15,22.7833
62380,Kosolankylä,63.2278,22.7685
62390,Vesiluoma,63.1333,22.6833
62395,Petterinmäki,63.1333,22.6833
62410,Rintala,63.2167,23.15
62420,Kortesjärvi,63.3,23.1667
62421,Kortesjärvi,63.3,23.1667
62430,Peltotupa,63.2833,23.0333
62435,Pirttinen,63.2833,23.0333
62440,Perkiömäki,63.3167,22.95
62470,Purmojärvi,63.2833,23.3333
62500,Evijärvi,63.3667,23.4833
62501,Evijärvi,63.3667,23.4833
62510,Kuoppa-Aho,63.1556,23.8722
62520,Kautiainen,63.1556,23.8722
62530,Lepistönmäki,63.1556,23.8722
62540,Vasikka-Aho,62.7333,24.65
62570,Särkilä,63.1556,23.8722
62600,Lappajärvi,63.2,23.6333
62601,Lappajärvi,63.2,23.6333
62610,Tarvola,63.2,23.55
62620,Ala-Seppä,63.1806,23.6083
62630,Karvala,63.1333,23.55
62640,Savonkylä,63.1333,23.5333
62660,Itäkylä,63.2167,23.75
62710,Kurejoki,63,23.75
62720,Sissala,63.0167,23.6333
62730,Haukkala,63.0333,23.6667
62740,Koskenvarsi,62.95,23.7333
62750,Saukonkylä,62.99,23.67
62760,Menkijärvi,62.95,23.5667
62800,Vimpeli,63.15,23.8
62801,Vimpeli,63.15,23.8
62810,Savonjoki,63.1476,23.8929
62820,Teerineva,63.1476,23.8929
62830,Luoma-Aho,63.0833,23.8833
62840,Lakaniemi,63.1167,23.8333
62850,Pokela,63.1167,24.0167
62860,Sahi,63.1476,23.8929
62870,Vinni,63.2,23.9333
62880,Sääksvesi,63.2167,23.9833
62900,Alajärvi,63,23.8167
62901,Alajärvi,63,23.8167
62920,Levijoki,63.0233,23.9333
62940,Hoisko,63.0333,23.8833
62950,Paalijärvi,63.05,23.9
62990,Möksy,63.0333,24.25
63100,Kuortane,62.8,23.5
63101,Kuortane,62.8,23.5
63120,Leppälänkylä,62.7833,23.6167
63130,Mäyry,62.7667,23.5333
63140,Länsiranta,62.8167,23.45
63150,Ruona,62.8333,23.4833
63160,Salmi,62.8667,23.4167
63170,Kuortaneen Urheiluopisto,62.8095,23.5
63210,Niinimaa,62.8,24
63230,Lentilä,62.8,24
63250,Rantala,62.8,24
63300,Alavus,62.5833,23.6167
63301,Alavus,62.5833,23.6167
63320,Kattelus,62.4833,23.7667
63330,Pahajoki,62.525,23.6111
63340,Sapsalampi,62.45,23.65
63350,Sulkavankylä,62.45,23.55
63355,Seinäjärvi,62.45,23.55
63360,Kuivaskylä,62.6,23.4667
63370,Taipalus,62.525,23.6111
63400,Alavus As,62.6667,23.65
63401,Alavus As,62.6667,23.65
63410,Rantatöysä,62.6333,23.65
63430,Kätkänjoki,62.7,23.65
63450,Löyä,62.6667,23.65
63500,Lehtimäki,62.7833,23.9167
63501,Lehtimäki,62.7833,23.9167
63510,Lehtimäki Kk,62.8033,23.9167
63530,Länsikylä,62.8333,23.7667
63540,Hernesmaa,62.8333,23.95
63550,Suninsalmi,62.7833,24.0333
63600,Töysä,62.6333,23.8167
63601,Töysä,62.6333,23.8167
63610,Tuuri,62.6,23.75
63630,Kitula,62.6667,23.85
63640,Ritola,62.7333,22.65
63660,Ähtärinranta,62.7,24.0167
63680,Hakojärvi,62.6611,23.65
63700,Ähtäri,62.5667,24.1
63701,Ähtäri,62.5667,24.1
63706,Ähtärin eläinpuisto,62.5667,24.1
63760,Vääräkoski,62.5167,24.0333
63770,Peränne,62.4667,23.9833
63780,Alastaipale,62.5292,24.0542
63800,Soini,62.8667,24.2167
63801,Soini,62.8667,24.2167
63810,Laasalanmäki,62.8833,24.0833
63830,Keisala,62.95,24.1667
63880,Kukonkylä,62.8,24.1167
63890,Hautakylä,62.75,24.1667
63900,Myllymäki,62.5333,24.2833
63910,Inhan Tehtaat,62.5222,24.2056
63920,Inha,62.5167,24.1667
63921,Inha,62.5167,24.1667
63950,Vehunkylä,62.5222,24.2056
64100,Kristiinankaupunki,62.2833,21.3833
64101,Kristiinankaupunki,62.2833,21.3833
64120,Kristiinankaupunki,62.2833,21.3833
64140,Tiukka,62.3,21.45
64170,Lålby,62.2667,21.4667
64200,Närpes,62.4667,21.3333
64201,Närpes,62.4667,21.3333
64210,Kalax,62.4833,21.2667
64220,Yttermark,62.55,21.4
64230,Närpes St,62.4458,21.3104
64240,Böle,62.4333,21.35
64250,Pjelax,62.4,21.3667
64260,Kaskinen,62.3833,21.2167
64261,Kaskinen,62.3833,21.2167
64300,Lapväärtti,62.25,21.5333
64301,Lappfjärd,62.25,21.5333
64310,Perus,62.25,21.5833
64320,Dagsmark,62.2333,21.6333
64330,Ohriluoma,62.2333,21.75
64340,Karikannas,62.2667,21.7833
64350,Karijoki,62.3,21.7
64351,Karijoki,62.3,21.7
64360,Ylimaa,62.3333,21.7333
64370,Myrkky,62.3833,21.55
64420,Uttermossa,62.1333,21.5667
64430,Pakankylä,62.1,21.5333
64440,Metsälä,62.0833,21.5333
64450,Kallträsk,62.0333,21.5333
64460,Härkmeri,62.1667,21.4333
64470,Dalen,62.0952,21.4714
64480,Skaftung,62.1167,21.3667
64490,Siipyy,62.0333,21.3333
64510,Nämpnäs,62.5,21.2
64530,Norrnäs,62.5833,21.2167
64550,Rangsby,62.6,21.25
64610,Övermark,62.6167,21.4667
64611,Övermark,63.2667,23.75
64700,Teuva,62.4833,21.7333
64701,Teuva,62.4833,21.7333
64720,Perälä,62.4667,21.6
64740,Horo,62.6,21.6333
64750,Kauppila,62.5,21.75
64760,Peltola,62.5,21.8333
64770,Äystö,62.4833,21.9333
64810,Vanhakylä,62.1833,21.7833
64820,Kärjenkoski,62.1333,21.6833
64830,Villamo,62.1667,21.8667
64840,Heikkilänjoki,62.1833,21.9167
64850,Möykky,62.1833,21.9833
64900,Isojoki,62.1167,21.9667
64901,Isojoki,62.1167,21.9667
64920,Polvi,62.0667,22.0333
64930,Kodesjärvi,62.05,22.0667
64960,Kaukoranta,62.0833,21.7167
64999,Kristiinankaupunki,62.2833,21.3833
65001,Vaasa,63.1,21.6
65007,Vaasa,63.1,21.6
65100,Vaasa,63.096,21.6297
65101,Vaasa,63.1,21.6
65120,Vaasa,63.1,21.6
65130,Vaasa,63.1,21.6
65140,Vaasa,63.1,21.6
65170,Vaasa,63.093,21.5821
65200,Vaasa,63.1,21.6
65201,Vaasa,63.1,21.6
65210,Vaasa,63.1,21.6
65230,Vaasa,63.1,21.6
65231,Vaasa,63.1,21.6
65240,Vasa,63.1,21.6
65250,Vaasa,63.1,21.6
65280,Vaasa,63.1,21.6
65290,Vaasa,63.1,21.6
65300,Vaasa,63.1,21.6
65301,Vaasa,63.1,21.6
65320,Vaasa,63.1,21.6
65321,Vaasa,63.1,21.6
65350,Vaasa,63.1,21.6
65351,Vaasa,63.1,21.6
65370,Vaasa,63.1,21.6
65380,Vaasa,63.1,21.6
65381,Vaasa,63.1,21.6
65410,Sundom,63.0333,21.5667
65430,Kronvik,63.0667,21.5167
65450,Sulva,63.0167,21.6333
65451,Sulva,63.0167,21.6333
65460,Tölby,63.0167,21.7
65470,Rimal,62.95,21.7667
65480,Vikby,63.0333,21.7333
65520,Helsingby,63.0333,21.8
65540,Tuovila,63.0333,21.8167
65610,Mustasaari,63.0907,21.6652
65611,Mustasaari,63.1167,21.7167
65630,Karperö,63.1667,21.7
65650,Koskö,63.1833,21.7167
65710,Singsby,63.1667,21.65
65730,Jungsund,63.1833,21.625
65760,Iskmo,63.2,21.6
65800,Raippaluoto,63.25,21.4167
65801,Raippaluoto,63.25,21.4167
65870,Björköby,63.35,21.3167
65920,Norra Vallgrund,63.2,21.3
65930,Södra Vallgrund,63.1833,21.2833
65970,Söderudden,63.2833,21.1167
66100,Malax,62.9333,21.5667
66101,Malax,62.9333,21.5667
66140,Övermalax,62.9167,21.6167
66141,Övermalax,62.9167,21.6167
66160,Långåminne,62.9,21.7333
66200,Korsnäs,62.7833,21.2
66201,Korsnäs,62.7833,21.2
66210,Molpe,62.8667,21.3167
66220,Bergö,62.9667,21.2
66230,Korsbäck,62.7833,21.2833
66240,Petalax,62.8333,21.4167
66241,Petalax,62.8333,21.4167
66250,Nyby,62.8,21.4667
66260,Svarvar,62.8,21.6667
66270,Pörtom,62.7,21.6167
66271,Pörtom,62.7,21.6167
66275,Sidbäck,62.6667,21.6667
66280,Taklax,62.7167,21.3
66290,Harrström,62.7167,21.1833
66295,Töjby,62.6667,21.1667
66300,Jurva,62.6833,21.9833
66301,Jurva,62.6833,21.9833
66320,Niemenkylä,62.7167,21.9167
66330,Hakko,62.7024,21.9119
66340,Sarvijoki,62.8167,21.8
66350,Tainus,62.7167,22.0833
66360,Kesti,62.6333,21.8667
66370,Närvijoki,62.6667,21.75
66400,Laihia,62.9667,22.0167
66401,Laihia,62.9667,22.0167
66410,Laihia As,62.9426,22.0815
66420,Ruto,63,21.9
66430,Vedenoja,62.9426,22.0815
66440,Tervajoki,63,22.1667
66441,Tervajoki,63,22.1667
66450,Jakkula,62.9333,22.0833
66460,Haapala,62.9,22.0667
66470,Jukaja,62.8667,22.1833
66490,Jokisalo,62.85,22.1333
66500,Vähäkyrö,63.0667,22.1
66501,Vähäkyrö,63.0667,22.1
66510,Merikaarto,63.0667,21.9833
66520,Veikkaala,63.0833,21.8833
66530,Koivulahti,63.1667,21.8333
66531,Kvevlax,63.1667,21.8333
66540,Petsmo,63.2333,21.7833
66550,Västerhankmo,63.2167,21.85
66560,Österhankmo,63.14,21.935
66580,Kuni,63.15,21.9667
66590,Vassor,63.1833,22.0167
66600,Vöyri,63.15,22.25
66601,Vöyri,63.15,22.25
66610,Rökiö,63.15,22.2667
66620,Lotlax,63.1833,22.2167
66630,Kärklax,63.2,22.1167
66640,Maxmo,63.2167,22.0667
66641,Maksamaa,63.2167,22.0667
66650,Tottesund,63.2333,22.05
66660,Bertby,63.2167,22.2333
66670,Tuckur,63.2,22.3
66680,Kaurajärvi,63.1167,22.5
66690,Rekipelto,63.1167,22.2833
66710,Kaitsor,63.2667,22.2667
66720,Karvat,63.2667,22.2833
66730,Oxkangar,63.2667,22.275
66760,Särkimo,63.2667,22.275
66800,Oravainen,63.3,22.3833
66801,Oravais,63.3,22.3833
66810,Kimo,63.25,22.4333
66820,Komossa,63.2167,22.55
66830,Oravaisten Tehdas,63.3,22.3833
66831,Oravainen,63.3,22.3833
66840,Pensala,63.35,22.5667
66850,Jepua,63.4,22.6167
66860,Kujala,63.15,22.7667
66880,Åvist,63.4,22.8833
66900,Uusikaarlepyy,63.5333,22.5333
66901,Uusikaarlepyy,63.5333,22.5333
66910,Soklot,63.5667,22.5667
66930,Kovjoki,63.5333,22.7167
66950,Munsala,63.45,22.4333
66970,Hirvlax,63.4167,22.3333
66980,Monå,63.3833,22.4
66999,Vaasa,63.1,21.6
67007,Kokkola,63.2833,23.1333
67100,Kokkola,63.2833,23.1333
67101,Kokkola,63.2833,23.1333
67200,Kokkola,63.2833,23.1333
67300,Kokkola,63.2833,23.1333
67400,Kokkola,63.2833,23.1333
67401,Kokkola,63.2833,23.1333
67410,Kokkola,63.2833,23.1333
67500,Rimmi,63.9,23.4
67600,Kokkola,63.2833,23.1333
67601,Kokkola,63.2833,23.1333
67700,Kokkola,63.2833,23.1333
67701,Kokkola,63.2833,23.1333
67800,Kokkola,63.2833,23.1333
67801,Kokkola,63.2833,23.1333
67900,Kokkola,63.2833,23.1333
67901,Kokkola,63.2833,23.1333
68100,Himanka,64.0667,23.65
68101,Himanka,64.0667,23.65
68150,Hillilä,64.0167,23.7333
68210,Marinkainen,63.9333,23.4333
68220,Karhi,63.9833,23.4333
68230,Lohtaja,64.0167,23.5
68231,Lohtaja,64.0167,23.5
68240,Ala-Viirre,64.0167,23.6167
68300,Kälviä,63.8667,23.4333
68301,Kälviä,63.8667,23.4333
68310,Suonperä,63.8333,23.3833
68320,Ruotsalo,63.9,23.3333
68340,Joki-Vuolle,63.7944,23.5861
68370,Ullava,63.7,23.9
68380,Yli-Ullava,63.7944,23.5861
68390,Rahkonen,63.6,24.0333
68410,Ala-Veteli,63.6833,23.3667
68420,Tast,63.6833,23.3667
68500,Kruunupyy,63.7167,23.0333
68501,Kruunupyy,63.7167,23.0333
68530,Lepplax,63.6667,22.9
68550,Öja,63.8333,22.9167
68551,Öja,63.8333,22.9167
68555,Bosund,63.8167,22.8667
68560,Eugmo,63.8167,22.8167
68570,Larsmo,63.75,22.8
68571,Luoto,63.75,22.8
68580,Furuholmen,63.7,22.75
68600,Pietarsaari,63.6667,22.7
68601,Pietarsaari,63.6667,22.7
68607,Pietarsaari,63.6667,22.7
68620,Pietarsaari,63.6667,22.7
68630,Pietarsaari,63.6667,22.7
68660,Pietarsaari,63.6667,22.7
68690,Sundby,63.5833,22.6833
68700,Teerijärvi,63.5333,23.5
68701,Teerijärvi,63.5333,23.5
68710,Hästbacka,63.5333,23.4167
68730,Kortjärvi,63.5333,23.6167
68740,Högnabba,63.5333,23.5083
68750,Småbönders,63.5333,23.5083
68800,Kolppi,63.6167,22.9167
68801,Kolppi,63.6167,22.9167
68810,Ytteresse,63.6167,23.0333
68820,Ähtävä,63.5833,23.05
68830,Bäckby,63.6167,23.1167
68840,Nederlappfors,63.5167,23.1833
68850,Jeppo,63.4,22.6167
68870,Edsevö,63.6333,22.8667
68910,Pännäinen,63.6,22.8
68911,Pännäinen,63.6,22.8
68920,Forsby,63.4833,22.55
68930,Purmo,63.5167,22.95
68940,Lillby,63.4944,22.8778
68970,Överpurmo,63.4833,23.0333
68999,Kokkola,63.2833,23.1333
69100,Kannus,63.9,23.9
69101,Kannus,63.9,23.9
69150,Eskola,63.9167,24.1667
69170,Yli-Kannus,63.9042,23.9667
69199,Kannus,63.9,23.9
69210,Roikola,63.9,23.85
69240,Väliviirre,63.95,23.7167
69300,Toholampi,63.7667,24.25
69301,Toholampi,63.7667,24.25
69310,Laitala,63.7333,24.2917
69330,Määttälä,63.7167,24.3
69340,Purontaka,63.6833,24.3667
69410,Sykäräinen,63.6167,24.4167
69420,Syri,63.5667,24.5167
69440,Lestijärvi,63.5333,24.65
69450,Yli-Lesti,63.4833,24.7667
69510,Halsua,63.4667,24.1667
69540,Marjusaari,63.4833,24.3
69550,Kanala,63.4667,24.4167
69570,Karvonen,63.4,24.2167
69600,Kaustinen,63.5333,23.7
69601,Kaustinen,63.5333,23.7
69610,Nikula,63.5833,23.6
69620,Salonkylä,62.7167,23.75
69660,Köyhäjoki,63.5667,23.95
69700,Veteli,63.4667,23.7667
69701,Veteli,63.4667,23.7667
69720,Torppa,63.4583,23.8083
69730,Tunkkari,63.4833,23.75
69750,Sillanpää,63.4167,23.95
69810,Isoharju,63.3611,23.8944
69820,Räyrinki,63.4,23.7833
69830,Pulkkinen,63.3667,23.9667
69850,Patana,63.3167,23.9333
69910,Kivikangas,63.3167,24.2
69920,Oksakoski,63.2667,24.3
69950,Perho,63.2167,24.4167
69951,Perho,63.2167,24.4167
69970,Salamajärvi,63.3333,24.5833
69980,Möttönen,63.1833,24.4833
69999,Kannus,63.0667,23.6333
70007,Kuopio,62.9,27.6833
70009,Kuopio,62.9,27.6833
70100,Kuopio,62.887,27.6952
70101,Kuopio,62.9,27.6833
70110,Kuopio,62.898,27.6806
70111,Kuopio,62.9,27.6833
70150,Kuopio,62.9,27.6833
70151,Kuopio,62.9,27.6833
70200,Kuopio,62.9,27.6833
70201,Kuopio,62.9,27.6833
70210,Kuopio,62.9,27.6833
70211,Kuopio,62.9,27.6833
70240,Kuopio,62.9,27.6833
70260,Kuopio,62.9,27.6833
70280,Kuopio,62.9,27.6833
70300,Kuopio,62.9,27.6833
70301,Kuopio,62.9,27.6833
70340,Kuopio,62.9,27.6833
70341,Kuopio,62.9,27.6833
70400,Kuopio,62.9,27.6833
70408,Kuopio leirintä,62.9,27.6833
70420,Kuopio,62.9,27.6833
70421,Kuopio,62.9,27.6833
70460,Kuopio,62.9,27.6833
70461,Kuopio,62.9,27.6833
70500,Kuopio,62.9,27.6833
70501,Kuopio,62.9,27.6833
70600,Kuopio,62.9,27.6833
70601,Kuopio,62.9,27.6833
70620,Kuopio,62.9,27.6833
70621,Kuopio,62.9,27.6833
70700,Kuopio,62.8666,27.6449
70701,Kuopio,62.9,27.6833
70750,Kuopio,62.9,27.6833
70780,Kuopio,62.9,27.6833
70781,Kuopio,62.9,27.6833
70800,Kuopio,62.9,27.6833
70801,Siilinjärvi,63.0833,27.6667
70820,Kuopio,62.9,27.6833
70821,Kuopio,62.9,27.6833
70870,Hiltulanlahti,62.8,27.6167
70871,Hiltulanlahti,62.8,27.6167
70900,Toivala,62.95,27.75
70901,Toivala,62.95,27.75
70910,Vuorela,62.9583,27.7917
70911,Vuorela,62.9583,27.7917
70940,Jännevirta,62.9667,27.8333
70941,Jännevirta,62.9667,27.8333
71130,Kortejoki,62.9375,28.35
71150,Vartiala,62.9833,28.7667
71160,Riistavesi,62.9167,28.1333
71161,Riistavesi,62.9167,28.1333
71170,Laukka-Aho,62.9333,28.3667
71200,Tuusniemi,62.8167,28.5
71201,Tuusniemi,62.8167,28.5
71210,Tuusjärvi,62.85,28.2833
71240,Paakkila,62.7833,28.65
71260,Juurikkamäki,62.7333,28.4167
71270,Ruskila,62.7,28.45
71280,Kosula,62.65,28.5
71310,Vehmersalmi,62.7667,28.0333
71320,Enonlahti,62.6833,28.0833
71330,Räsälä,62.7167,27.95
71360,Litmaniemi,62.75,28.2333
71380,Mustinlahti,62.7,28.3
71460,Paukarlahti,62.6333,27.6167
71470,Oravikoski,62.5667,27.6
71480,Kurkimäki,62.6444,27.5444
71490,Airaksela,62.7333,27.4167
71520,Kaislastenlahti,62.8333,27.1417
71570,Syvänniemi,62.85,27.1667
71580,Koskislahti,62.8333,27.1417
71590,Punnonmäki,62.8167,27.1167
71610,Salonkulma,63.0812,27.1479
71630,Riuttasenpää,62.9833,27.1
71640,Talluskylä,63.0333,27
71650,Hirvilahti,63.0167,27.35
71660,Leinolanlahti,63.0333,27.25
71670,Kurolanlahti,63.0833,27.1833
71680,Pulkonkoski,63.1167,27.1833
71690,Varpasmaa,63.15,27.0833
71695,Jylänki,63.2333,27.0333
71720,Käärmelahti,63.1,27.4167
71730,Kinnulanlahti,63.1167,27.3667
71740,Tavinsalmi,63.1,27.2667
71745,Haatala,63.15,27.25
71750,Maaninka,63.15,27.3
71760,Ahkionlahti,63.1796,27.2389
71770,Vianta,63.2167,27.2
71775,Tuovilanlahti,63.2333,27.1
71780,Hovinmäki,63.2667,27.05
71790,Leppäjoki,63.2833,27.2
71800,Siilinjärvi,63.0833,27.6667
71801,Siilinjärvi,63.0833,27.6667
71807,Siilinjärvi,63.0833,27.6667
71810,Aappola,63.0952,27.6619
71820,Pöljä,63.1333,27.6
71840,Kuuslahti,63.1333,27.7833
71850,Leppäkaarre,63.0952,27.6619
71860,Jälä,63.0952,27.6619
71870,Harjamäki,63.0952,27.6619
71880,Tarinaharju,63.0667,27.6667
71890,Hamula,63.0833,27.5833
71910,Alapitkä,63.2,27.5333
71920,Pajujärvi,63.25,27.4667
71930,Karvasalmi,63.2667,27.3667
71950,Lammasaho,63.2167,27.8
71960,Lukkarila,63.3,27.6833
71999,Kuopio,62.9,27.6833
72100,Karttula,62.85,27.1667
72101,Karttula,62.85,27.1667
72140,Itä-Karttula,62.9333,27.1333
72210,Tervo,62.95,26.75
72211,Tervo,62.95,26.75
72220,Eliaksela,62.95,26.75
72300,Vesanto,62.9333,26.4167
72301,Vesanto,62.9333,26.4167
72310,Niinivesi,62.8833,26.4067
72330,Tiitilänkylä,62.8667,26.6
72350,Pienola,62.8833,26.4067
72360,Närhilä,62.8167,26.35
72380,Horontaipale,62.8667,26.25
72400,Pielavesi,63.2333,26.75
72401,Pielavesi,63.2333,26.75
72430,Kumpula,63.3167,26.8167
72480,Panka,63.1833,26.9667
72490,Saarinen,63.2417,26.8208
72510,Jokijärvi,63.0833,26.7
72530,Säviäntaipale,62.5833,26.8778
72550,Säviä,63.2,26.6667
72570,Mäntylä,61.4667,27.2667
72600,Keitele,63.1833,26.3667
72601,Keitele,63.1833,26.3667
72630,Kuusela,66.5167,25.7667
72650,Rajala,63.8167,26.5
72710,Vaaraslahti,63.3667,26.7167
72740,Laukkala,63.3833,26.55
72810,Jylhänkylä,63.2667,26.55
72840,Saarela,63.3333,26.4167
72880,Koivujoki,63.3,26.4833
72930,Tossavanlahti,63.2833,26.25
72950,Porttila,63.3333,26.2
72980,Petäjäkylä,63.4167,26.2
73100,Lapinlahti,63.3667,27.4
73101,Lapinlahti,63.3667,27.4
73110,Mäntylahti,63.3528,27.275
73120,Nerkoo,63.4167,27.35
73130,Taipale,63.1167,26.75
73140,Onkilahti,63.3667,27.2
73160,Horsmanmäki,63.4833,27.55
73200,Varpaisjärvi,63.3667,27.75
73201,Varpaisjärvi,63.3667,27.75
73230,Syvärinpää,63.4333,27.8333
73250,Korpijärvi,63.45,27.9833
73270,Karsanlahti,63.4042,27.8292
73300,Nilsiä,63.2,28.0833
73301,Nilsiä,63.2,28.0833
73310,Tahkovuori,63.1667,28.0042
73350,Haluna,63.1333,28
73360,Pajulahti,63.1333,27.85
73410,Pieksänkoski,63.0833,27.9333
73420,Tihvonjärvi,63.0278,28.1333
73460,Muuruvesi,63.0167,28.2
73470,Västinniemi,62.9833,28.2667
73500,Juankoski,63.0667,28.35
73501,Juankoski,63.0667,28.35
73600,Kaavi,62.9833,28.5
73601,Kaavi,62.9833,28.5
73610,Rasilampi,63.0167,28.55
73620,Kortteinen,63.0333,28.6667
73630,Kortteiskylä,62.9667,28.75
73640,Sivakkavaara,62.9667,28.75
73645,Niinivaara,63,28.8667
73655,Onnivaara,62.9333,28.9833
73670,Luikonlahti,62.9167,28.65
73710,Viitaniemi,63.1333,28.4833
73730,Losomäki,63.15,28.6167
73750,Pisankoski,63.1833,28.4
73770,Säyneinen,63.1333,28.4833
73810,Palonurmi,63.2833,28.2
73820,Raatti,63.2667,28.2667
73830,Siikajärvi,63.2833,28.35
73850,Ala-Luosta,63.2778,28.2722
73860,Pykälikkö,63.2778,28.2722
73880,Ala-Siikajärvi,63.2778,28.2722
73890,Aholansaari,63.2778,28.2722
73900,Rautavaara,63.4833,28.3
73901,Rautavaara,63.4833,28.3
73970,Riitasalo,63.4556,28.2444
73990,Kangaslahti,63.4,28.1333
74007,Iisalmi,63.5667,27.1833
74100,Iisalmi,63.5825,27.206
74101,Iisalmi,63.5667,27.1833
74120,Iisalmi,63.5667,27.1833
74121,Iisalmi,63.5667,27.1833
74130,Iisalmi,63.5667,27.1833
74131,Iisalmi,63.5667,27.1833
74160,Koljonvirta,63.6,27.15
74170,Soinlahti,63.6333,27.2167
74200,Vieremä,63.75,27.0167
74210,Valkeiskylä,63.6667,27.0667
74230,Salahmi,63.8,26.9333
74240,Marttisenjärvi,63.8833,26.9167
74250,Nissilä,63.95,26.8333
74270,Kauppilanmäki,63.7,27.2167
74285,Kainuunmäki,63.7667,27.3333
74300,Sonkajärvi,63.6667,27.5167
74301,Sonkajärvi,63.6667,27.5167
74340,Sukeva,63.8667,27.4333
74341,Sukeva,63.8667,27.4333
74345,Kalliosuo,63.8667,27.4333
74360,Sonkakoski,63.7333,27.5
74380,Jyrkkä,63.7833,27.8
74390,Laakajärvi,63.7639,27.5333
74420,Hernejärvi,63.5333,27.5
74470,Paloinen,63.5,27.85
74490,Koirakoski,63.6,27.8
74510,Peltosalmi,63.5333,27.25
74530,Nerohvirta,63.4833,27.2
74540,Kotikylä,63.45,27.1167
74550,Pörsänmäki,63.4,27.0833
74560,Sourunsalo,63.49,27.1
74590,Kurenpolvi,63.5833,26.85
74595,Runni,63.5833,26.85
74610,Honkaranta,63.6,26.75
74620,Ryönänjoki,63.5125,26.5708
74630,Heinäkylä,63.55,26.7167
74640,Sulkavanjärvi,63.3333,26.2167
74670,Rapakkojoki,63.5667,26.6
74680,Myllyniemi,63.5125,26.5708
74700,Kiuruvesi,63.65,26.6167
74701,Kiuruvesi,63.65,26.6167
74720,Niemiskylä,63.6167,26.5167
74740,Aittojärvi,63.6667,26.4
74770,Kalliokylä,63.5833,26.4167
74790,Paloharju,63.5167,26.25
74840,Koppeloharju,63.7667,26.7667
74860,Turhala,63.75,26.5667
74899,Kiuruvesi,63.65,26.6167
74940,Remeskylä,63.8,26.4333
74980,Tihilänkangas,63.8667,26.4167
74999,Iisalmi,63.5667,27.1833
75500,Nurmes,63.55,29.1167
75501,Nurmes,63.55,29.1167
75507,Nurmes 7,63.55,29.1167
75520,Nurmes,63.55,29.1167
75530,Nurmes 3,63.55,29.1333
75531,Nurmes 3,63.55,29.1333
75550,Bomba,63.55,29.1333
75570,Paljakka,63.55,29.1833
75650,Savikylä,63.5333,28.8833
75680,Ylä-Luosta,63.4417,28.75
75690,Luostanlinna,63.35,28.6167
75700,Valtimo,63.6667,28.8
75701,Valtimo,63.6667,28.8
75710,Karhunpää,63.6167,28.9
75740,Pajukoski,63.6167,28.75
75770,Puukari,63.75,28.7
75790,Rumo,63.8,28.55
75810,Hirvikoski,63.6167,29.1167
75840,Ylä-Valtimo,63.6833,29.1056
75850,Merilä,63.7333,28.9833
75860,Sivakka,63.6833,29.1056
75890,Saramo,63.7,29.2167
75910,Imanne,63.6167,29.2
75920,Ronkeli,63.65,29.2333
75930,Petäiskylä,63.6833,29.3667
75940,Mujejärvi,63.8167,29.4833
75960,Kuokanvaara,63.5833,29.5444
75970,Kohtavaara,63.25,30.55
75990,Höljäkkä,63.4833,29.4333
76007,Pieksämäki,62.3,27.1333
76100,Pieksämäki,62.3,27.1333
76101,Pieksämäki,62.3,27.1333
76120,Pieksämäki,62.3,27.1333
76130,Pieksämäki,62.3,27.1333
76131,Pieksämäki,62.3,27.1333
76140,Pieksämäki,62.3,27.1333
76150,Pieksämäki,62.3,27.1333
76151,Pieksämäki,62.3,27.1333
76280,Partaharju,62.4636,27.1909
76620,Pyhitty,62.4636,27.1909
76720,Meijerhovi,64.0333,27.7833
76780,Lamminmäki,64.0333,27.7833
76850,Naarajärvi,62.4636,27.1909
76851,Naarajärvi,62.4636,27.1909
76940,Nenonpelto,62.3667,27.1167
77110,Paltanen,62.3333,26.75
77120,Venetmäki,62.3333,26.75
77140,Huumala,62.3333,26.75
77160,Ilmakka,62.3333,26.75
77210,Niskamäki,62.2333,27.0167
77220,Neuvola,64.1,28.1667
77240,Halkokumpu,62.1667,26.8333
77320,Hurskaala,62.1267,27.37
77330,Virtasalmi,62.15,27.4667
77340,Hällinmäki,62.0833,27.5333
77350,Montola,62.1667,27.3
77360,Väisälä,62.1167,27.3333
77380,Kantala,62.1167,27.2167
77430,Siikamäki,62.3167,27.3667
77460,Maavesi,62.3167,27.3667
77480,Savuniemi,62.3167,27.3667
77520,Haapakoski,62.45,27.1667
77540,Kotamäki,62.4167,27.3
77570,Jäppilä,62.3833,27.4333
77580,Tihusniemi,62.35,27.5833
77600,Suonenjoki,62.6167,27.1333
77601,Suonenjoki,62.6167,27.1333
77630,Lempyy,62.6333,27.3833
77690,Suontee,62.6222,27.2167
77700,Rautalampi,62.6333,26.8333
77701,Rautalampi,62.6333,26.8333
77760,Sulasalmi,62.5833,26.8056
77770,Myhinpää,62.4833,26.75
77777,Korvatunturi,62.4833,26.75
77800,Iisvesi,62.6667,27.0333
77899,Suonenjoki,62.6167,27.1333
77910,Vaajasalmi,62.7167,26.9
77930,Kerkonjoensuu,62.7667,26.6833
77960,Pakarila,62.6667,26.6167
77980,Istunmäki,62.7,26.4833
77999,Pieksämäki,62.3,27.1333
78007,Varkaus,62.3167,27.9167
78200,Varkaus,62.3167,27.9167
78201,Varkaus,62.3167,27.9167
78210,Varkaus,62.3167,27.9167
78211,Varkaus,62.3167,27.9167
78250,Varkaus,62.315,27.892
78251,Varkaus,62.3167,27.9167
78300,Varkaus,62.3167,27.9167
78310,Varkaus,62.3167,27.9167
78400,Varkaus,62.3167,27.9167
78480,Timola,62.3833,27.8667
78500,Varkaus,62.3167,27.9167
78610,Varkaus,62.3167,27.9167
78710,Varkaus,62.3167,27.9167
78850,Varkaus,62.3167,27.9167
78870,Varkaus,62.3167,27.9167
78880,Kuvansi,62.3167,27.9167
78890,Akonlahti,62.3167,27.9167
78900,Varkaus,62.3167,27.9167
79100,Leppävirta,62.4833,27.7833
79101,Leppävirta,62.4833,27.7833
79130,Sorsakoski,62.45,27.6667
79140,Kotalahti,62.55,27.55
79150,Konnuslahti,62.5333,27.9
79160,Saamaiskylä,62.6333,27.8167
79180,Tuppurinmäki,62.6333,28
79190,Valkeamäki,62.65,28
79230,Moninmäki,62.1667,28.2667
79255,Kurjala,61.3,28.6333
79265,Puponmäki,62.5833,28.1
79290,Leppämäki,62.6167,28.0667
79330,Näädänmaa,62.4833,28.2333
79340,Huovilansalmi,62.5,28.35
79350,Itä-Soisalo,62.4917,28.2917
79400,Kuopio,62.9,27.6833
79410,Niinimäki,62.3833,28.2
79480,Kangaslampi,62.3,28.25
79510,Kurenlahti,61.2,28.0167
79520,Viljolahti,62.25,28.5
79530,Hevonlahti,62.25,28.5833
79600,Joroinen,62.1833,27.8333
79601,Joroinen,62.1833,27.8333
79620,Huutokoski,62.12,27.83
79630,Kolma,62.12,27.83
79650,Kerisalonsaari,62.12,27.83
79660,Kerisalo,62.1,27.9667
79680,Lahnalahti,62.0833,27.7833
79690,Kaitainen,62.05,27.7333
79700,Heinävesi,62.4333,28.6
79701,Heinävesi,62.4333,28.6
79710,Heinävesi As,62.41,28.5567
79720,Säynetkoski,62.41,28.5567
79750,Koivumäki,62.4167,28.6667
79770,Rummukkala,62.45,28.4
79780,Malkkila,62.3167,28.5167
79810,Karvion Kanava,62.5167,28.6361
79820,Varistaival,62.55,28.6333
79830,Palokki,62.5667,28.6
79850,Uusi-Valamo,62.5167,28.6361
79860,Suuraho,62.5167,28.6361
79870,Juojärvi,62.5333,29.05
79880,Lepikkomäki,62.5,28.7
79885,Eteläpetruma,62.5,28.7
79895,Sarvikumpu,62.4667,29.05
79899,Leppävirta,62.4833,27.7833
79910,Kerma,62.35,28.6167
79940,Vihtari,62.3833,29.0667
79970,Poikiinaho,62.35,28.8667
79999,Varkaus,62.3167,27.9167
80007,Joensuu,62.6,29.7667
80100,Joensuu,62.5767,29.7931
80101,Joensuu,62.6,29.7667
80110,Joensuu,62.6,29.7667
80120,Joensuu,62.6,29.7667
80130,Joensuu,62.6,29.7667
80131,Joensuu,62.6,29.7667
80140,Joensuu,62.6,29.7667
80141,Joensuu,62.6,29.7667
80150,Joensuu,62.6,29.7667
80160,Joensuu,62.6,29.7667
80161,Joensuu,62.6,29.7667
80170,Joensuu,62.6,29.7667
80200,Joensuu,62.6,29.7667
80201,Joensuu,62.6,29.7667
80210,Joensuu,62.6,29.7667
80220,Joensuu,62.6,29.7667
80230,Joensuu,62.6,29.7667
80260,Joensuu,62.6,29.7667
80261,Joensuu,62.6,29.7667
80330,Reijola,62.6292,29.7609
80400,Ylämylly,62.6167,29.5667
80401,Ylämylly,62.6167,29.5667
80410,Jyri,62.6167,29.5667
80411,Jyri,62.6167,29.5667
80420,Honkalampi,62.6167,29.5667
80510,Onttola,62.65,29.6833
80511,Onttola,62.65,29.6833
80580,Kunnasniemi,62.7167,29.6167
80710,Lehmo,62.6667,29.8
80770,Kontiolahti,62.7667,29.85
80780,Kontioniemi,62.75,29.8167
80790,Kontioranta,62.7167,29.7833
80791,Kontioranta,62.7167,29.7833
80850,Paihola,62.65,29.95
80910,Kulho,62.6167,29.9167
81100,Kontiolahti,62.7667,29.85
81101,Kontiolahti,62.7667,29.85
81120,Katajaranta,62.8667,29.8167
81130,Riihiaho,62.8667,29.7667
81140,Hovi,62.9167,29.75
81150,Riihikangas,62.881,29.8167
81160,Romppala,62.9833,29.7667
81190,Heraniemi,63,29.9167
81200,Eno,62.8,30.15
81201,Eno,62.8,30.15
81210,Louhioja,62.8,30.1
81220,Jakokoski,62.7333,29.9833
81230,Mönni,62.6833,30.1
81235,Lehtoi,62.6333,30.1333
81260,Ahveninen,62.95,30.0667
81270,Paukkaja,62.8667,30.2167
81280,Uimaharju,62.9167,30.25
81281,Uimaharju,62.9167,30.25
81290,Ukkola,62.95,30.2
81295,Haapalahti,62.9667,30.1167
81320,Kuismavaara,62.75,30.4667
81330,Luhtapohja,62.75,30.5167
81350,Tokrajärvi,62.7667,30.6
81360,Sarvinki,62.6833,30.2833
81390,Revonkylä,62.6333,30.5167
81420,Tyrjänsaari,62.8833,30.5833
81430,Kivilahti,62.9667,30.5
81450,Huhus,62.85,30.7667
81460,Käenkoski,62.9167,30.95
81470,Naarva,63.0667,31.0667
81560,Vuonisjärvi,63.15,30.1167
81570,Kelvä,63.0667,30.1
81580,Lapalie,63.1222,30.0722
81590,Vuonislahti,63.15,30
81640,Sikovaara,63.2667,30.4833
81650,Hattuvaara,63.2833,30.5333
81660,Lehmikylä,63.275,30.5083
81700,Lieksa,63.3167,30.0167
81701,Lieksa,63.3167,30.0167
81707,Lieksa,63.3167,30.0167
81720,Lieksa,63.3167,30.0167
81730,Lieksa,63.3167,30.0167
81750,Pankakoski,63.3167,30.15
81770,Tiensuu,63.2667,30.1167
81810,Jamali,63.3333,29.8833
81820,Kylänlahti,63.3667,29.75
81840,Viekki,63.3625,29.8125
81850,Mätäsvaara,63.4333,29.6
81860,Viekijärvi,63.3625,29.8125
81899,Lieksa,63.3167,30.0167
81950,Pankajärvi,63.45,30.1
81970,Jongunjoki,63.5167,29.9667
81999,Joensuu,63.2333,29.3333
82110,Heinävaara,62.55,30.1667
82120,Keskijärvi,62.5833,30.3
82140,Kiihtelysvaara,62.4833,30.25
82150,Palo,62.4833,30.35
82160,Oskola,62.4167,30.5
82165,Oskolankoski,62.4167,30.5
82170,Uskali,62.3667,30.45
82180,Huhtilampi,62.4167,30.4
82190,Viesimo,62.3833,30.3167
82200,Hammaslahti,62.4333,29.9667
82201,Hammaslahti,62.4333,29.9667
82210,Suhmura,62.4833,29.9
82220,Niittylahti,62.5167,29.8
82250,Repola,62.4333,30.0167
82255,Kuusvaara,62.4667,30.1
82270,Karjakumpu,62.4333,29.8833
82290,Nieminen,62.35,29.75
82300,Rääkkylä,62.3167,29.6167
82301,Rääkkylä,62.3167,29.6167
82310,Oravisalo,62.35,29.5333
82315,Varpasalo,62.3,29.4
82320,Hypönniemi,62.3667,29.4333
82335,Rasivaara,62.2667,29.75
82350,Tikkala,62.35,30.1
82360,Onkamo,62.3333,30.0333
82361,Onkamo,62.3333,30.0333
82380,Tolosenmäki,62.1333,30.0667
82395,Haarajärvi,62.1833,30.1833
82430,Puhos,62.0833,29.9
82435,Kokkoaho,62.1,29.8333
82440,Puhossalo,62.15,29.7
82450,Kontiovaara,62.1167,29.7333
82460,Hummovaara,62.1,29.65
82470,Leinovaara,62.1167,29.65
82490,Heinoniemi,62.1333,29.55
82500,Kitee,62.1,30.15
82501,Kitee,62.1,30.15
82510,Kiteenlahti,62.05,30.2833
82530,Ruunamäki,62.0667,30.3833
82580,Juurikka,61.9833,30.0667
82590,Närsäkkälä,61.9,30.1167
82600,Tohmajärvi,62.1833,30.3833
82601,Tohmajärvi,62.1833,30.3833
82610,Tohmajärvi As,62.1944,30.4722
82650,Patsola,62.2167,30.6
82655,Värtsilä,62.2,30.4667
82660,Uusi-Värtsilä,62.2,30.4667
82670,Kaurila,62.1833,30.5333
82675,Niirala,62.1833,30.5333
82685,Littilä,62.1944,30.4722
82710,Kovero,62.55,30.55
82720,Huosiovaara,62.5,30.4667
82725,Konnunniemi,62.4833,30.5
82730,Tuupovaara,62.4833,30.6
82731,Tuupovaara,62.4833,30.6
82750,Öllölä,62.3833,30.75
82760,Hoilola,62.3333,30.8333
82780,Saarilampi,62.4595,30.6143
82810,Heinäaho,62.5667,30.6167
82815,Marjovaara,62.6,30.7333
82820,Maukkula,62.6167,30.85
82830,Haukivaara,62.5667,30.9167
82840,Pirttiaho,62.5063,30.8042
82850,Kinnasniemi,62.5,30.7333
82855,Kinnas,62.5,30.7333
82865,Kokinvaara,62.45,30.8167
82870,Luutalahti,62.3833,30.85
82880,Mannervaara,62.3667,30.9167
82900,Ilomantsi,62.6667,30.9167
82901,Ilomantsi,62.6667,30.9167
82915,Sonkaja,62.7,30.7667
82950,Kuikkalampi,62.7,31.0667
82960,Lehtovaara,62.8,31.1167
82967,Hattu,62.9167,31.3
82980,Möhkö,62.6333,31.2833
82995,Nehvonniemi,62.5167,31.1667
82997,Mutalahti,62.5167,31.1667
83100,Liperi,62.5333,29.3667
83101,Liperi,62.5333,29.3667
83130,Salokylä,62.5667,29.4667
83140,Puromäki,62.55,29.5167
83150,Roukalahti,62.4833,29.5167
83160,Tutjunniemi,62.4,29.6
83250,Rinteelä,63.1333,28.9833
83320,Risti,62.55,29.1667
83330,Kaatamo,62.55,29.2167
83340,Kaarnalampi,62.6,29.15
83350,Ristinpohja,62.5667,29.1778
83400,Viinijärvi,62.65,29.2333
83430,Käsämä,62.65,29.3333
83450,Vaivio,62.6667,29.5167
83460,Harinjärvi,62.65,29.3
83480,Ahonkylä,62.6333,29.1167
83500,Outokumpu,62.7333,29.0167
83501,Outokumpu,62.7333,29.0167
83510,Sievi as.,62.7667,29.02
83520,Outokumpu,62.7333,29.0167
83540,Maarianvaara,62.85,28.8667
83550,Kokonvaara,62.7833,29.1833
83620,Viuruniemi,62.6167,28.9
83630,Kuusjärvi,62.7,28.9333
83660,Varislahti,62.7333,28.7
83700,Polvijärvi,62.85,29.3667
83701,Polvijärvi,62.85,29.3667
83710,Suojapuro,62.8083,29.3667
83720,Kuorevaara,62.8,29.45
83750,Sotkuma,62.7333,29.4333
83760,Sola,62.7833,29.3333
83780,Horsmanaho,62.8333,29.25
83815,Haaralanniemi,62.9,29.3833
83820,Mutkanvaara,62.8333,29.15
83825,Kinahmo,62.8667,29.5167
83830,Hukkala,62.8833,29.1667
83835,Ruvaslahti,62.95,29.5667
83840,Saarivaara,62.9333,29.1
83845,Sammakkovaara,62.95,29.3667
83855,Martonvaara,62.95,29.35
83865,Timovaara,63.1167,29.2667
83870,Polvela,63.15,29.2
83875,Petrovaara,63.1167,29.0833
83880,Kajoo,63.15,28.8667
83900,Juuka,63.2333,29.25
83901,Juuka,63.2333,29.25
83907,Juuka 7,63.2333,29.25
83910,Paalasmaa,63.3,29.4333
83915,Vihtasuo,63.3167,29.2167
83940,Nunnanlahti,63.1833,29.4333
83950,Ahmovaara,63.0833,29.6167
83955,Kopravaara,63.0333,29.7
83960,Koli,63.1,29.8
83965,Loma-Koli,63.1,29.8
83970,Ylä-Koli,63.155,29.48
83980,Kuhnusta,63.0667,29.5
83985,Tuopanjoki,63,29.6
84007,Ylivieska,64.0833,24.55
84100,Ylivieska,64.0833,24.55
84101,Ylivieska,64.0833,24.55
84320,Ylivieska,64.0833,24.55
84330,Ylivieska,64.0833,24.55
84460,Ylivieska,64.0833,24.55
84540,Ylivieska,64.0833,24.55
84650,Ylivieska,64.0833,24.55
84770,Ylivieska,64.0833,24.55
84880,Ylivieska,64.0833,24.55
85100,Kalajoki,64.25,23.95
85101,Kalajoki,64.25,23.95
85106,Kalajoen hiekkasärkät,64.25,23.95
85110,Vasankari,64.35,23.9667
85120,Metsä,64.3,24.2
85140,Tynkä,64.2,24.05
85150,Typpö,64.1333,24.15
85160,Rautio,64.0667,24.2
85180,Rahja,64.1833,23.7333
85200,Alavieska,64.1667,24.3
85201,Alavieska,64.1667,24.3
85210,Kähtävä,64.1333,24.3167
85230,Talus,64.1556,24.3056
85240,Somerkylä,64.1556,24.3056
85310,Sievi As,63.8917,24.3
85320,Markkula,63.85,24.1667
85340,Jyrinki,63.9333,24.4333
85410,Sievi,63.9,24.5
85411,Sievi,63.9,24.5
85430,Koivisto,63.9167,24.5833
85450,Joenkylä,63.8875,24.5417
85470,Kiiskilampi,63.8333,24.5833
85500,Nivala,63.9167,24.9667
85501,Nivala,63.9167,24.9667
85520,Korpiranta,63.8833,25.0167
85530,Haikara,63.8833,25.0167
85540,Mönkö,63.8833,25.0167
85560,Ainastalo,63.85,25
85580,Karvoskylä,63.85,25.1333
85620,Sarja,63.9333,25.0833
85630,Sarjanahde,63.9333,25.0833
85640,Maliskylä,63.9333,25.0833
85660,Ruuskankylä,63.9333,25.0833
85710,Parkkila,63.8333,25.4167
85730,Tulppo,63.8833,25.55
85800,Haapajärvi,63.75,25.3333
85801,Haapajärvi,63.75,25.3333
85820,Oksava,63.8167,25.2667
85840,Kuona,63.7722,25.3111
85860,Kumiseva,63.7722,25.3111
85880,Kalakangas,63.7722,25.3111
85900,Reisjärvi,63.6167,24.9
85901,Reisjärvi,63.6167,24.9
85920,Tolpankangas,63.7233,24.8367
85930,Kangaskylä,63.6667,24.7833
85940,Räisälänmäki,63.6333,25.05
85980,Köyhänperä,63.7233,24.8367
85999,Ylivieska,64.0833,24.55
86100,Pyhäjoki,64.4667,24.2333
86101,Pyhäjoki,64.4667,24.2333
86110,Parhalahti,64.4833,24.3333
86160,Pirttikoski,64.4167,24.3
86170,Yppäri,64.4,24.1
86210,Petäjäskoski,64.25,24.5833
86220,Merijärvi,64.3,24.45
86230,Ylipää,64.3333,24.55
86240,Pyhänkoski,64.35,24.4
86300,Oulainen,64.2667,24.8
86301,Oulainen,64.2667,24.8
86310,Oulaskangas,64.3167,24.9042
86350,Kilpua,64.35,24.9833
86360,Ilveskorpi,64.3833,25.0333
86400,Vihanti,64.4833,25
86401,Vihanti,64.4833,25
86440,Lampinsaari,64.4167,25.15
86460,Alpua,64.4167,25.2167
86470,Lumimetsä,64.35,25.2333
86480,Karhukangas,64.3333,25.45
86510,Matkaniva,64.25,25.0167
86530,Annonen,64.2167,25.05
86550,Mieluskylä,64.1667,25.1667
86600,Haapavesi,64.1333,25.3667
86601,Haapavesi,64.1333,25.3667
86610,Humaloja,64.15,25.3
86630,Ainali,64.2167,25.4333
86650,Kytökylä,64.1167,25.4833
86660,Joutenniva,64.1119,25.3738
86680,Vatjusjärvi,64.0833,25.3
86690,Karsikas,63.95,25.3667
86710,Kärsämäki,63.9667,25.7667
86711,Kärsämäki,63.9667,25.7667
86750,Saviselkä,64.0333,26.0333
86760,Miiluranta,63.9667,25.9833
86770,Luomajoki,63.9667,25.8667
86790,Venetpalo,63.9,25.7833
86800,Pyhäsalmi,63.6833,25.9833
86801,Pyhäsalmi,63.6833,25.9833
86810,Pyhäjärvi,63.6667,25.9
86820,Lamminaho,63.65,25.85
86840,Kätkytniemi,63.6694,25.9111
86850,Hiidenniemi,63.55,25.8
86870,Vesikoski,63.7833,25.95
86900,Pyhäkumpu,63.8222,25.7056
86920,Kuusenmäki,63.7,26.2
86980,Väliaho,63.5,26.1167
86999,Oulainen,64.2667,24.8
87007,Kajaani,64.2333,27.6833
87100,Kajaani,64.2333,27.6833
87101,Kajaani,64.2333,27.6833
87140,Kajaani,64.2333,27.6833
87150,Kajaani,64.2333,27.6833
87200,Kajaani,64.2261,27.7416
87250,Kajaani,64.2333,27.6833
87300,Kajaani,64.2333,27.6833
87400,Kajaani,64.2333,27.6833
87401,Kajaani,64.2333,27.6833
87500,Kajaani,64.2333,27.6833
87600,Kajaani,64.2333,27.6833
87601,Kajaani,64.2333,27.6833
87700,Kajaani,64.2333,27.6833
87701,Kajaani,64.2333,27.6833
87750,Kajaani,64.2333,27.6833
87830,Nakertaja,64.2833,27.7333
87850,Paltaniemi,64.2833,27.7333
87910,Linnantaus,64.25,27.75
87930,Salmijärvi,64.2778,27.8278
87950,Kuluntalahti,64.2667,27.8667
87970,Jormua,64.3167,27.8667
88110,Korholanmäki,64.1667,27.8
88120,Tuhkakylä,64.1667,27.8
88200,Otanmäki,64.1167,27.1
88201,Otanmäki,64.1167,27.1
88210,Vuottolahti,64.1167,27.2833
88250,Kytökoski,64.12,27.08
88260,Saaresmäki,64.0667,26.9
88270,Vuolijoki,64.1833,27.0167
88300,Paltamo,64.4167,27.8333
88301,Paltamo,64.4167,27.8333
88310,Melalahti,64.4167,27.6167
88320,Hakasuo,64.4233,27.7467
88340,Manamansalo,64.4233,27.7467
88350,Kivesjärvi,64.4667,27.4667
88380,Mieslahti,64.4,27.9833
88400,Ristijärvi,64.5,28.2167
88401,Ristijärvi,64.5,28.2167
88420,Uva,64.5833,28.05
88440,Jokikylä,64.55,28.3167
88460,Hiisijärvi,64.3667,28.65
88470,Kontiomäki,64.35,28.15
88490,Pohjavaara,64.25,28.05
88530,Paakki,64.2919,28.3032
88600,Sotkamo,64.1333,28.4167
88601,Sotkamo,64.1333,28.4167
88607,Sotkamo,64.1333,28.4167
88610,Vuokatti,64.1167,28.25
88615,Vuokatin Urheiluopisto,64.1167,28.25
88620,Korholanmäki,64.1667,27.8
88640,Ontojoki,64.1367,28.26
88670,Juurikkalahti,64.1367,28.26
88690,Maanselkä,64.1367,28.26
88730,Yli-Vieksi,64.4333,29.5333
88740,Härmänkylä,64.4333,29.5333
88760,Iivantiira,64.4333,29.5333
88820,Katerma,64.15,28.95
88899,Kuhmo,64.1333,29.5167
88900,Kuhmo,64.1333,29.5167
88901,Kuhmo,64.1333,29.5167
88910,Pajakkakylä,64.3333,29.7033
88920,Vartius,64.5,29.9833
88925,Kostamus,64.5,29.9833
88930,Lentiira,64.35,29.8333
88940,Kuumu,64.55,29.6667
88950,Kalliojoki,64.3333,29.7033
88999,Kajaani,64.3333,29.7033
89110,Törmämäki,64.65,27.9667
89140,Kotila,64.65,27.9667
89200,Puolanka,64.9,27.5
89201,Puolanka,64.9,27.5
89210,Puokiovaara,64.75,27.3
89320,Joukokylä,65.0333,28.0333
89330,Suolijärvi,65.15,28.0667
89350,Lylykylä,64.95,28.05
89400,Hyrynsalmi,64.6667,28.5333
89401,Hyrynsalmi,64.6667,28.5333
89430,Hoikka,64.7333,28.6
89440,Sakara,64.6889,28.5556
89540,Moisiovaara,64.6,29.15
89560,Karhuvaara,64.6,29.15
89600,Suomussalmi,64.9,29
89601,Ämmänsaari,64.8833,28.9167
89605,Siikaranta,64.8833,28.9833
89607,Ämmänsaari,64.8833,28.9167
89610,Jumaliskylä,65.0214,28.5333
89620,Pitämä,65.0214,28.5333
89640,Pesiökylä,65.0214,28.5333
89660,Takalo,65.2167,27.1667
89670,Näljänkä,65.2167,28.4
89680,Vaaranniva,65.1667,28.35
89730,Ahjola,65.2917,29.0417
89740,Kianta,65.1667,29.1
89750,Haapovaara,65.2667,29.0167
89760,Piispajärvi,65.3333,29
89770,Peranka,65.4,29.05
89780,Kaikkonen,65.2917,29.0417
89800,Suomussalmi kk,64.9736,28.4882
89830,Ala-Vuokki,64.9736,28.4882
89840,Yli-Vuokki,64.9736,28.4882
89920,Ruhtinansalmi,65.1667,29.5
89999,Suomussalmi,64.8833,29.0833
90003,Oulu,65.0167,25.4667
90007,Oulu,65.0167,25.4667
90009,Oulu,65.0167,25.4667
90014,Oulun yliopisto,65.0167,25.4667
90015,Oulun kaupunki,65.0167,25.4667
90029,Oys,65.0167,25.4667
90100,Oulu,65.0147,25.4962
90101,Oulu,65.0167,25.4667
90120,Oulu,65.0167,25.4667
90121,Oulu,65.0167,25.4667
90140,Oulu,65.0167,25.4667
90141,Oulu,65.0167,25.4667
90150,Oulu,65.0167,25.4667
90151,Oulu,65.0167,25.4667
90160,Oulu,65.0167,25.4667
90210,Oulu,65.0167,25.4667
90220,Oulu,65.0167,25.4667
90221,Oulu,65.0167,25.4667
90230,Oulu,65.0167,25.4667
90231,Oulu,65.0167,25.4667
90240,Oulu,65.0167,25.4667
90241,Oulu,65.0167,25.4667
90250,Oulu,65.0167,25.4667
90251,Oulu,65.0167,25.4667
90310,Oulu,65.0167,25.4667
90360,Oulu,65.0167,25.4667
90400,Oulu,65.0167,25.4667
90401,Oulu,65.0167,25.4667
90420,Oulu,65.0167,25.4667
90440,Kempele,64.9167,25.5
90441,Kempele,64.9167,25.5
90450,Kempele,64.9167,25.5
90451,Kempele,64.9167,25.5
90460,Oulunsalo,64.9333,25.4167
90461,Oulunsalo,64.9333,25.4167
90470,Varjakka,64.9,25.1333
90480,Hailuoto,65,24.7167
90500,Oulu,65.025,25.414
90501,Oulu,65.0167,25.4667
90508,Oulu leirintä,65.0167,25.4667
90520,Oulu,65.0167,25.4667
90521,Oulu,65.0167,25.4667
90530,Oulu,65.0167,25.4667
90540,Oulu,65.0167,25.4667
90550,Oulu,65.0167,25.4667
90551,Oulu,65.0167,25.4667
90560,Oulu,65.0167,25.4667
90570,Oulu,65.0167,25.4667
90571,Oulu,65.0167,25.4667
90580,Oulu,65.0167,25.4667
90581,Oulu,65.0167,25.4667
90600,Oulu,65.0167,25.4667
90630,Oulu,65.0167,25.4667
90631,Oulu,65.0167,25.4667
90650,Oulu,65.0167,25.4667
90651,Oulu,65.0167,25.4667
90740,Lapinkangas,65.0336,25.4513
90800,Oulu,65.0167,25.4667
90810,Kiviniemi,65.1333,25.3333
90820,Kello,65.1333,25.3333
90821,Kello,65.1333,25.3333
90830,Haukipudas,65.1674,25.4048
90831,Haukipudas,65.1833,25.35
90840,Haukipudas,65.1833,25.35
90850,Martinniemi,65.2167,25.3
90860,Halosenniemi,65.25,25.3167
90900,Kiiminki,65.1333,25.7333
90901,Kiiminki,65.1333,25.7333
90910,Kontio,65.15,25.6
90940,Jääli,65.1,25.6833
90941,Jääli,65.1,25.6833
91100,Ii,65.3167,25.3667
91101,Ii,65.3167,25.3667
91108,Ii leirintä,65.3167,25.3667
91110,Ii As,65.3667,25.3722
91140,Olhava,65.4667,25.3833
91150,Yli-Olhava,65.3667,25.3722
91200,Yli-Ii,65.3667,25.8333
91201,Yli-ii,65.3667,25.8333
91210,Jakkukylä,65.3,25.6167
91240,Tannila,65.4833,25.9833
91260,Pahkakoski,65.35,26.0833
91270,Räinä,65.2667,25.35
91300,Ylikiiminki,65.0333,26.1167
91310,Arkala,65,26.2083
91370,Vepsänkylä,64.9667,26.3
91410,Jokirinne,64.8333,26.05
91430,Leppiniemi,64.8333,26.05
91500,Muhos,64.7667,26.1
91501,Muhos,64.7667,26.1
91510,Rova,64.7056,26.1556
91560,Kylmälänkylä,64.5833,26.2667
91600,Utajärvi,64.75,26.3833
91601,Utajärvi,64.75,26.3833
91620,Sanginkylä,64.8667,26.65
91630,Juorkuna,64.95,26.9667
91640,Särkijärvi,64.9333,27.1833
91660,Ahmas,64.6167,26.4333
91670,Rokua,64.8111,26.6667
91700,Vaala,64.4333,26.8
91701,Vaala,64.4333,26.8
91710,Jylhämä,64.5667,26.8
91720,Oterma,64.6667,27.0667
91730,Kankari,64.5167,26.9167
91740,Jaalanka,64.55,27.25
91750,Liminpuro,64.5167,26.9167
91760,Säräisniemi,64.45,26.7833
91780,Neittävä,64.5167,26.9167
91790,Nuojua,64.5167,26.9167
91800,Tyrnävä,64.7667,25.65
91801,Tyrnävä,64.7667,25.65
91810,Ängeslevä,64.7833,25.6833
91900,Liminka,64.8167,25.4
91901,Liminka,64.8167,25.4
91910,Tupos,64.8667,25.4667
91930,Ala-Temmes,64.8357,25.3857
91950,Temmes,64.6667,25.6
91980,Lumijoki,64.8333,25.1833
91981,Lumijoki,64.8333,25.1833
91999,Oulu,65.0167,25.4667
92007,Raahe,64.6833,24.4833
92100,Raahe,64.6833,24.4833
92101,Raahe,64.6833,24.4833
92120,Raahe,64.6833,24.4833
92130,Raahe,64.6833,24.4833
92140,Pattijoki,64.7,24.5833
92150,Raahe,64.6833,24.4833
92160,Saloinen,64.65,24.4667
92170,Raahensalo,64.6792,24.4875
92180,Lapaluoto,64.6667,24.4333
92210,Arkkukari,64.6,24.4
92220,Piehinki,64.5667,24.4
92230,Mattilanperä,64.5833,24.6333
92240,Lasikangas,64.59,24.55
92250,Äyrinmäki,64.6167,24.6167
92260,Kopsa,64.5833,24.7
92320,Siikajoki,64.8333,24.7333
92330,Karinkanta,64.8667,24.95
92350,Revonlahti,64.7167,24.9667
92400,Ruukki,64.6667,25.1
92401,Ruukki,64.6667,25.1
92430,Paavola,64.6,25.2
92440,Saarikoski,64.6333,25.4
92450,Luohua,64.55,25.2833
92470,Tuomioja,64.6,25.0167
92500,Rantsila,64.5167,25.65
92501,Rantsila,64.5167,25.65
92520,Sipola,64.4,25.85
92530,Mankila,64.55,25.5
92600,Pulkkila,64.2667,25.8667
92601,Pulkkila,64.2667,25.8667
92610,Vorna,64.35,25.9667
92620,Piippola,63.85,26.35
92640,Leskelä,64.1833,25.8
92650,Laakkola,64.1833,25.97
92700,Kestilä,64.35,26.2833
92701,Kestilä,64.35,26.2833
92710,Kestilä,64.35,26.2833
92810,Pelsonsuo,64.5,26.45
92830,Veneheitto,64.45,26.55
92910,Tavastkenkä,64.1667,26.4167
92920,Ahokylä,63.9833,26.55
92930,Pyhäntä,64.1,26.3167
92931,Pyhäntä,64.1,26.3167
93100,Pudasjärvi,65.3833,26.9167
93101,Pudasjärvi,65.3833,26.9167
93117,Pudasjärvi,65.3833,26.9167
93140,Kipinä,65.2667,26.5333
93145,Kollaja,65.3333,26.5833
93150,Uutela,65.6,27.6167
93160,Hetejärvi,65.1833,26.7333
93170,Yli-Kollaja,65.4037,26.8185
93180,Ikosenniemi,65.5167,26.55
93187,Ala-Siurua,65.5167,26.55
93190,Yli-Siurua,65.5833,26.6
93195,Kokkokylä,65.5833,26.6
93220,Livo,65.6167,27.1833
93225,Pärjänsuo,65.55,27.2167
93240,Rytinki,65.6833,27.3167
93250,Sarajärvi,65.8,27.35
93270,Sotkajärvi,65.3833,27.35
93277,Iinattijärvi,65.4833,27.5
93280,Syöte,65.5667,27.369
93290,Pintamo,65.45,27.6667
93320,Ervasti,65.3167,27.4
93340,Siivikko,65.3167,27.5917
93350,Jaurakkajärvi,65.3167,27.5917
93390,Puhoskylä,65.3167,27.7833
93400,Taivalkoski,65.5667,28.25
93401,Taivalkoski,65.5667,28.25
93420,Jurmu,65.5,27.9667
93440,Loukusa,65.7333,27.9667
93470,Inget,65.7333,28.5667
93540,Tyrövaara,65.4833,28.75
93590,Vanhala,61.7833,27.1167
93600,Kuusamo,65.9834,29.1716
93601,Kuusamo,65.9667,29.1833
93607,Kuusamo,65.9667,29.1833
93608,Kuusamo leirintä,65.9667,29.1833
93620,Kuusamo,65.9667,29.1833
93630,Kuoliovaara,65.8333,28.8333
93640,Penttilänvaara,65.9786,29.0071
93650,Purnuvaara,65.9786,29.0071
93670,Haataja,66.0667,28.75
93680,Vasaraperä,66.0833,28.7333
93690,Rönni,65.9786,29.0071
93695,Mustosenvaara,65.9786,29.0071
93720,Kemilä,65.85,29.5667
93730,Poussu,65.7167,29.6333
93760,Murtovaara,65.6667,29.35
93770,Kurvisenkylä,65.6,29.5333
93780,Teeriranta,65.5167,29.5
93790,Irni,65.6,29.3167
93820,Aikkila,66.1333,29.2
93825,Rukatunturi,66.1333,29.2
93830,Kitka,66.25,28.95
93840,Patoniemi,66.2625,29.2083
93850,Käylä,66.3,29.15
93855,Liikasenvaara,66.3667,29.5333
93860,Ruvanaho,66.2625,29.2083
93875,Jyrävä,66.2625,29.2083
93880,Takkusalmi,66.2625,29.2083
93899,Pudasjärvi,66.2625,29.2083
93920,Määttälänvaara,66.0833,29.5167
93940,Vuotunki,66.15,29.5833
93980,Heikkilänniemi,66.0333,29.5208
93990,Kärpänkylä,65.9333,29.8
93999,Kuusamo,65.9667,29.1833
94007,Kemi,65.8167,24.5333
94100,Kemi,65.738,24.559
94101,Kemi,65.8167,24.5333
94130,Kemi,65.8167,24.5333
94200,Kemi,65.8167,24.5333
94300,Kemi,65.8167,24.5333
94400,Keminmaa,65.8167,24.5333
94401,Keminmaa,65.8167,24.5333
94430,Kaakamo,65.8,24.45
94450,Keminmaa 2,65.8111,24.5056
94451,Keminmaa 2,65.8111,24.5056
94500,Lautiosaari,65.8,24.5833
94600,Kemi,65.8167,24.5333
94601,Kemi,65.8167,24.5333
94700,Kemi,65.8167,24.5333
94701,Kemi,65.8167,24.5333
94720,Kemi,65.8167,24.5333
94800,Kemi,65.8167,24.5333
94830,Kemi,65.8167,24.5333
94831,Kemi,65.8167,24.5333
94900,Kemi,65.8167,24.5333
95100,Kuivaniemi,65.5833,25.1833
95101,Kuivaniemi,65.5833,25.1833
95110,Kuivaniemi Kk,65.59,25.4833
95120,Myllykangas,65.5333,25.2667
95130,Hyryoja,65.59,25.4833
95140,Luola-Aapa,65.59,25.4833
95160,Oijärvi,65.6333,25.95
95170,Lamminperä,65.59,25.4833
95180,Ruohola,65.6167,25.8333
95200,Simo,65.6667,25.05
95201,Simo,65.6667,25.05
95210,Filpus,65.8,25.0167
95220,Simoniemi,65.6667,24.9167
95225,Viantie,65.6833,24.95
95230,Maksniemi,65.6667,24.7833
95240,Vilmi,65.7426,25.1593
95250,Soikko,65.75,25.2833
95255,Alaniemi,65.8333,25.3
95260,Tainionjoki,65.7426,25.1593
95270,Yli-Kärppä,65.7426,25.1593
95280,Näverrys,65.7426,25.1593
95285,Yli-Hosio,65.7426,25.1593
95290,Leppiaho,65.95,26.0833
95295,Rovastinaho,65.95,26.0833
95300,Tervola,66.0833,24.8
95301,Tervola,66.0833,24.8
95310,Liedakkala,65.8667,24.6
95315,Törmä,65.8667,24.6
95325,Paakkola,66.0167,24.75
95330,Kaisajoki,66.15,24.75
95335,Varejoki,66.15,24.75
95340,Loue,66.1204,24.7796
95350,Peura,66.1833,25.25
95355,Koivu,66.1833,25.25
95360,Ilmola,65.8667,24.6333
95365,Maula,66.8667,24.6667
95370,Itäkoski,65.9667,24.7667
95375,Yli-Paakkola,65.9667,24.7667
95400,Tornio,65.8333,24.1667
95401,Tornio,65.8333,24.1667
95407,Tornio,65.8333,24.1667
95410,Kiviranta,65.8241,24.1796
95420,Tornio,65.8333,24.1667
95421,Tornio,65.8333,24.1667
95430,Tornio,65.8333,24.1667
95440,Kyläjoki,65.8333,24.2833
95450,Tornio,65.8333,24.1667
95470,Pirkkiö,65.8241,24.1796
95490,Röyttä,65.75,24.1667
95500,Vojakkala,65.9333,24.1333
95520,Kukkola,65.9833,24.0667
95530,Karunki,66.0333,24.0167
95540,Korpikylä,66.15,23.95
95560,Aapajoki,66.0167,24.1
95565,Kourilehto,65.9667,24.1833
95580,Apt 4,66.0143,24.119
95590,Arpela,66.0167,24.3833
95600,Ylitornio,66.3,23.6667
95601,Ylitornio,66.3,23.6667
95610,Kainuunkylä,66.2,23.8
95615,Pekanpää,66.2,23.8
95620,Aavasaksa,66.3833,23.7167
95630,Kuivakangas,66.4167,23.6667
95635,Kaulinranta,66.4167,23.6667
95640,Juoksenki,66.5667,23.8833
95645,Turtola,66.65,23.8833
95655,Etelä-Portimojärvi,66.4197,23.9864
95660,Kantomaanpää,66.4167,24.0667
95670,Pessalompolo,66.5333,24.6333
95675,Meltosjärvi,66.5333,24.6333
95680,Lohijärvi,66.45,24.3667
95690,Mellakoski,66.4,24.5
95700,Pello,66.7833,23.9167
95701,Pello,66.7833,23.9167
95710,Naamijoki,66.8,24.1352
95720,Jarhoinen,66.8,24.1352
95730,Väylänpää,67.05,23.7333
95750,Orajärvi,66.8833,24.1
95760,Konttajärvi,66.8333,24.3833
95770,Lankojärvi,66.7167,24.3333
95780,Sirkkakoski,66.6833,24.4
95790,Lampsijärvi,66.6833,24.5167
95793,Pello,66.7833,23.9167
95800,Sieppijärvi,67.15,23.9833
95810,Sammalvaara,67.05,24.05
95830,Vaattojärvi,67.2167,24.2
95840,Venejärvenkylä,67.2833,24.2333
95850,Ruokojärvi,67.1667,24.4333
95860,Pasmajärvi,67.1,24.4
95900,Kolari,67.3333,23.8
95901,Kolari,67.3333,23.8
95910,Lappea,67.1667,23.5667
95920,Saaripudas,67.4444,23.8389
95930,Äkäsjoensuu,67.45,23.7
95940,Tapojärvi,67.5333,23.6333
95950,Kihlanki,67.5833,23.55
95970,Äkäslompolo,67.6,24.15
95971,Äkäslompolo,67.6,24.15
95980,Ylläsjärvi,67.4444,23.8389
95990,Kurtakko,67.4,24.2
95999,Kemi,67.4,24.2
96007,Rovaniemi,66.5,25.7167
96100,Rovaniemi,66.5,25.7167
96101,Rovaniemi,66.5,25.7167
96190,Rovaniemi,66.5,25.7167
96200,Rovaniemi,66.5019,25.7299
96201,Rovaniemi,66.5,25.7167
96300,Rovaniemi,66.5,25.7167
96301,Rovaniemi,66.5,25.7167
96320,Rovaniemi,66.5,25.7167
96400,Rovaniemi,66.5,25.789
96420,Rovaniemi,66.5,25.7167
96440,Rovaniemi,66.5,25.7167
96441,Rovaniemi,66.5,25.7167
96460,Rovaniemi,66.5,25.7167
96500,Rovaniemi,66.5,25.7167
96580,Rovaniemi,66.5,25.7167
96600,Rovaniemi,66.5,25.7167
96700,Rovaniemi,66.5,25.7167
96800,Rovaniemi,66.5,25.7167
96900,Saarenkylä,66.5167,25.8
96910,Rovaniemi,66.5,25.7167
96911,Rovaniemi,66.5,25.7167
96930,Napapiiri Rovaniemi,66.5033,25.7333
96960,Rovaniemi,66.5,25.7167
96961,Rovaniemi,66.5,25.7167
97110,Rautionsaari,64.4278,24.5889
97130,Hirvas,60.6333,23
97140,Muurola,66.3833,25.4
97145,Totonvaara,66.3833,25.4
97160,Petäjäinen,64.4278,24.5889
97170,Jaatila,66.2667,25.3667
97190,Pisa,64.4278,24.5889
97220,Sinettä,66.65,25.4667
97240,Sonka,66.6333,25.2333
97250,Raanujärvi,66.65,24.7167
97270,Romakkaniemi,66.7,24.6667
97280,Tapio,66.7,25.45
97290,Marraskoski,66.6667,25.1067
97310,Patokoski,66.8667,25.4667
97320,Marrasjärvi,66.9,25.1333
97330,Rattosjärvi,66.85,24.8833
97335,Ruuhivaara,66.85,24.8833
97340,Meltaus,66.9,25.3667
97350,Jääskö,67.0333,25.1167
97360,Perttaus,67.0167,25.5333
97370,Unarin-Luusua,66.9762,25.2929
97380,Kukasranta,66.9762,25.2929
97390,Kierinki,67.2667,25.55
97420,Lohiniva,67.1667,24.9667
97430,Taapajärvi,67.1167,24.7
97440,Helppi,67.2167,24.85
97450,Tuuliharju,67.25,24.85
97460,Paloselkä,67.22,24.85
97470,Alakylä,67.35,24.8833
97510,Vikajärvi,66.6167,26.2
97520,Nampa,66.75,26.25
97530,Yli-Nampa,66.7542,26.45
97540,Tiainen,66.7542,26.45
97560,Käyrämö,66.9667,26.2833
97580,Misi,66.7542,26.45
97590,Raajärvi,66.6833,27.0667
97610,Oikarainen,66.3167,26.7083
97615,Tennirova,66.3167,26.7083
97620,Viiri,66.3833,26.5833
97625,Vanttauskoski,66.3833,26.5833
97630,Pekkala,66.35,26.9
97635,Juuniemi,66.35,26.9
97645,Juujärvi,66.4,27.3
97650,Juotas,66.3167,27.1
97655,Autti,66.3167,27.1
97660,Piittisjärvi,66.25,26.8333
97665,Pohjasperä,66.2167,26.8667
97667,Putkimäki,66.2333,26.85
97670,Kivitaipale,66.3333,25.95
97675,Narkaus,66.2833,26.1333
97680,Saari-Kämä,66.3167,26.7083
97685,Siika-Kämä,66.3167,26.7083
97690,Sulaoja,66.3167,26.7083
97700,Ranua,65.9167,26.5333
97701,Ranua,65.9167,26.5333
97715,Raiskio,66,26.2
97720,Yli-Simo,65.925,26.7604
97740,Aitakumpu,65.925,26.7604
97745,Rousamo,65.925,26.7604
97750,Kuha,65.9,26.7167
97755,Sääskilahti,66.0667,27.15
97760,Saariharju,65.9667,27.2167
97765,Impiö,65.9667,27.2167
97770,Petäjäjärvi,65.8333,26.7833
97780,Kuukasjärvi,65.8,26.95
97785,Kelankylä,65.8,26.95
97810,Suorsa,66.1833,27.6
97815,Pernu,66.1833,27.6
97820,Perä-Posio,66.2917,28.0278
97840,Lehtiniemi,66.25,27.95
97850,Ristilä,66.2917,28.0278
97860,Aittaniemi,66.3667,27.8833
97870,Jumisko,66.3333,28.15
97880,Nolimo,66.2917,28.0278
97890,Karjalaisenniemi,66.25,28.2
97895,Mourujärvi,66.3667,28.3833
97900,Posio,66.1833,27.8833
97901,Posio,66.1833,27.8833
97920,Suonnankylä,66.2167,28.7167
97925,Tolva,66.2167,28.7167
97940,Lohiranta,66.0417,28.1889
97950,Säikkä,66.0417,28.1889
97960,Kuloharju,65.9167,28.1333
97965,Kynsilä,65.9,28.35
97970,Sirniö,65.85,28.1667
97980,Anetjärvi,66.0417,28.1889
97999,Rovaniemi,66.0417,28.1889
98007,Kemijärvi,66.6667,27.4167
98100,Kemijärvi,66.6667,27.4167
98101,Kemijärvi,66.6667,27.4167
98120,Kemijärvi,66.6667,27.4167
98121,Kemijärvi,66.6667,27.4167
98220,Karsimus,65.3333,27.9278
98230,Luusua,66.2167,27.8833
98260,Kuusivaara,63.0667,29.05
98280,Sammale,66.7167,26.85
98310,Kemijärvi,66.6667,27.4167
98330,Javarus,66.9,26.9667
98350,Tapionniemi,66.8667,27.45
98360,Vuostimo,66.95,27.5333
98370,Vuostimojärvi,66.8767,27.3867
98390,Autioniemi,67,27.5667
98400,Isokylä,66.7167,27.6
98420,Ryti-Lehtola,66.7944,27.5111
98440,Kallaanvaara,66.7944,27.5111
98450,Kostamo,66.7833,27.45
98470,Oinaankylä,66.8833,27.4833
98500,Pelkosenniemi,67.1108,27.5106
98510,Saunavaara,67.05,27.5167
98520,Saukkoaapa,67.162,27.4298
98530,Pyhätunturi,67.162,27.4298
98540,Kultakero,67.162,27.4298
98550,Suvanto,67.1517,27.2769
98560,Kairala,67.1922,27.4425
98570,Aapajärvi,67.2506,27.2986
98580,Luiro,67.2167,27.5333
98600,Kursu,66.7833,28.1333
98620,Pahkakumpu,66.8917,28.0833
98630,Ahvenselkä,67,28.0333
98660,Salmivaara,66.8917,28.0833
98710,Joutsijärvi,66.6667,28
98720,Suomulahti,66.5556,28.25
98730,Tonkopuro,66.5556,28.25
98740,Morottaja,66.5556,28.25
98760,Hirvasvaara,66.55,28.6
98770,Aholanvaara,66.5556,28.25
98780,Maaninkavaara,66.5556,28.25
98790,Paloperä,66.45,28.15
98800,Savukoski,67.2925,28.1581
98810,Lunkkaus,67.2456,27.9036
98820,Värriö,67.4669,27.9867
98830,Martti,67.4747,28.3722
98840,Ruuvaoja,67.6575,28.7092
98850,Kuosku,67.2356,28.3956
98860,Nousu,67.1583,28.6408
98900,Salla,66.8333,28.6667
98901,Salla,66.8333,28.6667
98920,Kelloselkä,66.9333,28.8333
98930,Kotalankylä,66.7845,28.684
98950,Saija,67.0925,28.8219
98960,Naruska,66.7845,28.684
98970,Onkamojärvi,66.75,29.1
98980,Kallunki,66.65,28.9333
98995,Hautajärvi,66.5167,29.0333
98999,Kemijärvi,66.6667,27.4167
99100,Kittilä,67.6667,24.9
99101,Kittilä,67.6667,24.9
99110,Kaukonen,67.4833,24.9
99120,Kallo,67.4167,24.5
99130,Sirkka,67.8667,24.8333
99131,Sirkka,67.8167,24.8
99135,Rauhala,67.9,24.2167
99140,Köngäs,67.8667,24.8667
99150,Tepasto,68,24.6833
99160,Lompolo,68.0833,24.8167
99170,Pulju,68.2333,24.8333
99180,Rautusjärvi,67.8667,24.9667
99190,Hanhimaa,67.9167,25.05
99195,Pokka,68.15,25.7833
99210,Pitkäkumpu,67.6667,25.5125
99220,Vittakumpu,67.6667,25.5125
99230,Jeesiöjärvi,67.6667,25.5125
99240,Kuivasalmi,67.7167,25.4167
99250,Kiistala,67.8667,25.3333
99270,Hormakumpu,67.6667,25.5125
99280,Tepsa,67.5667,25.6833
99290,Kelontekemä,67.5167,25.6167
99300,Muonio,67.9233,23.7476
99301,Muonio,67.95,23.7
99310,Yli-Muonio,67.9933,23.74
99320,Kätkäsuvanto,68.1167,23.35
99330,Pallastunturi,67.9933,23.74
99340,Raattama,68.1333,24.25
99360,Kangosjärvi,67.8167,23.7
99380,Jerisjärvi,67.9933,23.74
99400,Enontekiö,68.3833,23.6333
99401,Enontekiö,68.3833,23.6333
99410,Vuontisjärvi,68.4333,24.0167
99420,Peltovuoma,68.3833,24.1833
99430,Nunnanen,68.4,24.5167
99440,Leppäjärvi,68.5,23.3
99450,Palojoensuu,68.2833,23.0833
99460,Kuttanen,68.3833,22.85
99470,Karesuvanto,68.3937,23.6521
99490,Kilpisjärvi,68.3937,23.6521
99510,Raudanjoki,67.2233,26.6033
99520,Seipäjärvi,67.1667,26.2333
99530,Vuojärvi,67.1,26.6
99540,Torvinen,67.2,26.6333
99550,Aska,67.3,26.7
99555,Luosto,67.3,26.7
99560,Orakylä,67.35,26.85
99600,Sodankylä,67.4167,26.6
99601,Sodankylä,67.4167,26.6
99607,Sodankylä,67.4167,26.6
99610,Siurunmaa,67.45,26.85
99620,Kelujärvi,67.465,27.0311
99640,Tanhua,67.5281,27.5392
99645,Lokka,67.82,27.7372
99650,Sattanen,67.5,26.6167
99655,Sattasvaara,67.5,26.6167
99660,Kersilö,67.5833,26.7167
99665,Moskuvaara,67.6,26.8833
99670,Petkula,67.6667,26.6833
99680,Yli-kitinen,67.5803,26.9159
99690,Vuotso,68.1,27.1333
99695,Tankavaara,68.1,27.1333
99710,Vaalajärvi,67.4333,26.2167
99720,Riipi,67.3333,26.05
99740,Syväjärvi,67.3,25.9333
99750,Sassali,67.2667,25.8333
99760,Uimaniemi,67.1833,25.7333
99770,Jeesiö,67.5,26.0167
99790,Jääkärinkangas,67.3361,25.9639
99800,Ivalo,68.65,27.6
99801,Ivalo,68.65,27.6
99820,Kaunispää,68.4333,27.45
99830,Saariselkä,68.7306,27.5
99831,Saariselkä,68.7306,27.5
99835,Laanila,68.7306,27.5
99860,Nellim,68.85,28.3167
99870,Inari,68.9,27.0167
99871,Inari,68.9,27.0167
99880,Menesjärvi,68.7306,27.5
99885,Lemmenjoki,68.7306,27.5
99890,Lisma,68.7306,27.5
99910,Kaamanen,69.1,27.2
99920,Partakko,69.6278,26.8407
99930,Sevettijärvi,69.5167,28.6333
99940,Näätämö,69.6278,26.8407
99941,Näätämö,69.6278,26.8407
99950,Karigasniemi,69.4,25.8333
99951,Karigasniemi,69.4,25.8333
99960,Outakoski,69.6,25.9667
99970,Nuvvus,69.7833,26.25
99980,Utsjoki,69.8833,27
99981,Utsjoki,69.8833,27
99990,Nuorgam,70.0833,27.85
99999,Korvatunturi,70.0833,27.85
