Postal Code,Place Name,State,City,Latitude,Longitude
10000,Sljeme,Zagreba?ka,Zagreb,45.7333,15.9667
10010,Zagreb-dio,Zagreba?ka,Zagreb-Sloboština,45.75,16
10020,Strmec,Zagreba?ka,Zagreb-Novi Zagreb,45.7,15.9167
10040,Zagreb-dio,Zagreba?ka,Zagreb-Dubrava,45.7333,15.9667
10090,Zagreb-dio,Zagreba?ka,Zagreb-Susedgrad,45.7333,15.9667
10110,Zagreb-Trešnjevka,Zagreba?ka,Zagreb,45.7769,16.068
10250,Lu?ko,Zagreba?ka,Lu?ko,45.7611,15.8703
10251,Demerje,Zagreba?ka,Hrvatski Leskovac,45.7419,15.9075
10253,Gudci,Zagreba?ka,Donji Dragonožec,45.6569,15.9886
10255,Obrež Stupni?ki,Zagreba?ka,Gornji Stupnik,45.7167,15.9333
10257,Zadvorsko,Zagreba?ka,Brezovica,45.7333,15.9167
10290,Šibice,Zagreba?ka,Zapreši?,45.8517,15.8196
10291,Savski Marof,Zagreba?ka,Prigorje Brdove?ko,45.8642,15.7219
10292,Gornji Ladu?,Zagreba?ka,Šenkovec,45.8833,15.7333
10293,Rozga,Zagreba?ka,Dubravica,45.95,15.7278
10294,Pojatno,Zagreba?ka,Donja Puš?a,45.905,15.8006
10295,Kupljenovo,Zagreba?ka,Kupljenovo,45.9333,15.8167
10296,Žejinci,Zagreba?ka,Luka,45.9667,15.8167
10297,Jakovlje,Zagreba?ka,Jakovlje,45.9514,15.8561
10298,Poljanica Bistranska,Zagreba?ka,Donja Bistra,45.9,15.8833
10299,Hrastina Brdove?ka,Zagreba?ka,Marija Gorica,45.9167,15.7333
10310,Tarno,Zagreba?ka,Ivani?-Grad,45.7333,16.3667
10311,Topolje,Zagreba?ka,Posavski Bregi,45.6508,16.3503
10312,Predavec,Zagreba?ka,Kloštar Ivani?,45.75,16.4333
10313,Derežani,Zagreba?ka,Graberje Ivani?ko,45.7,16.4667
10314,Johovec,Zagreba?ka,Križ,45.6667,16.4833
10315,Re?ica Kriška,Zagreba?ka,Novoselec,45.6617,16.5808
10316,Prerovec,Zagreba?ka,Lijevi Dubrov?ak,45.6447,16.3033
10340,Hruškovica,Zagreba?ka,Vrbovec,45.9333,16.4167
10341,Pirakovec,Zagreba?ka,Lonjica,45.8833,16.3667
10342,Svinjarec,Zagreba?ka,Dubrava,45.8,16.5667
10343,Stara Kapela,Zagreba?ka,Nova Kapela,45.2364,17.6878
10344,Majur,Zagreba?ka,Farkaševac,45.9167,16.7
10345,Cugovec,Zagreba?ka,Gradec,45.9117,16.5189
10346,Strmec,Zagreba?ka,Preseka,45.9667,15.9167
10347,Valeti?,Zagreba?ka,Rakovec,45.9667,16.3333
10360,Dobrodol,Zagreba?ka,Sesvete,45.85,16.1
10361,Cerje,Zagreba?ka,Sesvete-Kraljevec,45.8333,16.2
10362,Vurnovec,Zagreba?ka,Kašina,45.9091,16.095
10363,Lužan,Zagreba?ka,Belovar,45.8833,16.2
10370,Tedrovec,Zagreba?ka,Dugo Selo,45.75,16.3667
10372,Pre?no,Zagreba?ka,Oborovo,45.665,16.2961
10373,Hruš?ica,Zagreba?ka,Ivanja Reka,45.7833,16.15
10380,Gornja Topli?ica,Zagreba?ka,Sveti Ivan Zelina,45.9833,16.2333
10381,Turkov?ina,Zagreba?ka,Bedenica,46.0436,16.2472
10382,Suhodol Zelinski,Zagreba?ka,Donja Zelina,45.8807,16.2313
10383,Polonje Tomaševe?ko,Zagreba?ka,Komin,45.9667,16.3
10408,Velika Mlaka,Zagreba?ka,Velika Mlaka,45.7364,16.0311
10410,Obrezina,Zagreba?ka,Velika Gorica,45.7667,16.1
10411,Obed,Zagreba?ka,Orle,45.7308,16.1975
10412,Lukavec,Zagreba?ka,Donja Lomnica,45.7044,15.99
10413,Velika Buna,Zagreba?ka,Kravarsko,45.6333,16.0667
10414,Opatija,Zagreba?ka,Pokupsko,45.5667,16
10415,Ribnica,Zagreba?ka,Novo ?i?e,45.7167,16.1333
10417,Turopolje,Zagreba?ka,Buševec,45.6494,16.1436
10418,Gustelnica,Zagreba?ka,Dubranec,45.6031,15.9736
10419,Vukovina,Zagreba?ka,Vukovina,45.6833,16.1167
10430,Velika Rakovica,Zagreba?ka,Samobor,45.7667,15.7167
10431,Sveta Nedjelja,Zagreba?ka,Sveta Nedjelja,45.7983,15.7806
10432,Velika Jazbina,Zagreba?ka,Bregana,45.818,15.6095
10434,Strmec Samoborski,Zagreba?ka,Strmec Samoborski,45.8167,15.8
10435,Sveti Martin pod Oki?em,Zagreba?ka,Sveti Martin pod Oki?em,45.75,15.75
10436,Rakov Potok,Zagreba?ka,Rakov Potok,45.7381,15.7972
10437,Rakitje,Zagreba?ka,Bestovje,45.7939,15.8222
10450,Vlaškovec,Zagreba?ka,Jastrebarsko,45.6835,15.6653
10451,Topolovec Pisarovinski,Zagreba?ka,Pisarovina,45.5833,15.8667
10453,Celine,Zagreba?ka,Gorica Svetojanska,45.8931,16.4047
10454,Jezerine,Zagreba?ka,Kraši?,45.6667,15.4667
10455,Žumberak,Zagreba?ka,Kostanjevac,45.75,15.4333
10456,Hartje,Zagreba?ka,Kalje,45.75,15.45
10457,Jezernice,Zagreba?ka,Sošice,45.7333,15.3667
20000,Dubrovnik,Dubrova?ko-Neretvanska,Dubrovnik,42.6506,18.0914
20205,Stupa,Dubrova?ko-Neretvanska,Topolo,42.8969,17.7247
20207,Makoše,Dubrova?ko-Neretvanska,Mlini,42.65,18.1897
20210,Uskoplje,Dubrova?ko-Neretvanska,Cavtat,42.5806,18.2522
20213,Mo?i?i,Dubrova?ko-Neretvanska,?ilipi,42.5617,18.2511
20215,Poljice,Dubrova?ko-Neretvanska,Gruda,42.4961,18.3797
20216,Vodova?a,Dubrova?ko-Neretvanska,Dubravka,42.515,18.4253
20217,Mihani?i,Dubrova?ko-Neretvanska,Pridvorje,42.5633,18.3275
20218,?urini?i,Dubrova?ko-Neretvanska,Plo?ice,42.4719,18.4425
20221,Kolo?ep,Dubrova?ko-Neretvanska,Kolo?ep,42.6761,18.0097
20222,Lopud,Dubrova?ko-Neretvanska,Lopud,42.6928,17.9469
20223,Su?ura?,Dubrova?ko-Neretvanska,Šipanjska Luka,42.7119,17.9106
20224,Korita,Dubrova?ko-Neretvanska,Maranovi?i,42.7128,17.7081
20225,Kozarica,Dubrova?ko-Neretvanska,Babino Polje,42.7764,17.4642
20226,Njivice,Dubrova?ko-Neretvanska,Gove?ari,43.3075,17.1569
20230,Zabr?e,Dubrova?ko-Neretvanska,Ston,42.8606,17.5867
20231,?epiku?e,Dubrova?ko-Neretvanska,Doli,42.8581,17.8347
20232,Slano,Dubrova?ko-Neretvanska,Slano,42.7861,17.8919
20233,Trsteno,Dubrova?ko-Neretvanska,Trsteno,42.7172,17.9803
20234,Kliševo,Dubrova?ko-Neretvanska,Orašac,42.7272,18.0025
20235,Zaton,Dubrova?ko-Neretvanska,Zaton Veliki,42.6908,18.0381
20236,Pobrežje,Dubrova?ko-Neretvanska,Mokošica,42.6811,18.0736
20240,Trpanj,Dubrova?ko-Neretvanska,Trpanj,43.0075,17.275
20242,Oskorušno,Dubrova?ko-Neretvanska,Oskorušno,42.9836,17.3069
20243,Pijavi?ino,Dubrova?ko-Neretvanska,Kuna,42.94,17.3458
20244,Potomje,Dubrova?ko-Neretvanska,Potomje,42.9425,17.3383
20245,Trstenik,Dubrova?ko-Neretvanska,Trstenik,42.9183,17.3978
20246,Sreser,Dubrova?ko-Neretvanska,Janjina,42.9486,17.4422
20247,Žuljana,Dubrova?ko-Neretvanska,Žuljana,42.8936,17.4561
20248,Putnikovi?,Dubrova?ko-Neretvanska,Putnikovi?,42.8767,17.5283
20250,Orebi?,Dubrova?ko-Neretvanska,Orebi?,42.9856,17.1747
20260,Kor?ula,Dubrova?ko-Neretvanska,Kor?ula,42.9622,17.1369
20263,Lumbarda,Dubrova?ko-Neretvanska,Lumbarda,42.9228,17.1672
20264,Ra?iš?e,Dubrova?ko-Neretvanska,Ra?iš?e,42.9764,17.0167
20267,Viganj,Dubrova?ko-Neretvanska,Ku?ište,42.9886,17.0953
20269,Lovište,Dubrova?ko-Neretvanska,Lovište,43.0217,17.0353
20270,Vela Luka,Dubrova?ko-Neretvanska,Vela Luka,42.9633,16.7225
20271,Blato,Dubrova?ko-Neretvanska,Blato,43.1703,17.1917
20272,Smokvica,Dubrova?ko-Neretvanska,Smokvica,42.9306,16.8964
20273,?ara,Dubrova?ko-Neretvanska,?ara,42.9383,16.9347
20274,Pupnat,Dubrova?ko-Neretvanska,Pupnat,42.9536,17.0369
20275,Žrnovo,Dubrova?ko-Neretvanska,Žrnovo,42.9511,17.1142
20278,Dubrave,Dubrova?ko-Neretvanska,Nova Sela,43.1311,17.4803
20290,Lastovo,Dubrova?ko-Neretvanska,Lastovo,42.7681,16.9008
20340,Plina Jezero,Dubrova?ko-Neretvanska,Plo?e,43.0713,17.4197
20341,Podrujnica,Dubrova?ko-Neretvanska,Kula Norinska,43.0458,17.5975
20342,Otri? Seoci,Dubrova?ko-Neretvanska,Otri? Seoci,43.0616,17.5036
20343,Šari? Struga,Dubrova?ko-Neretvanska,Rogotin,43.0492,17.4792
20344,Desne,Dubrova?ko-Neretvanska,Komin (Dalmacija),43.0617,17.5294
20345,Staševica,Dubrova?ko-Neretvanska,Staševica,43.1389,17.4256
20350,Vidonje,Dubrova?ko-Neretvanska,Metkovi?,42.9831,17.6442
20352,Vid,Dubrova?ko-Neretvanska,Vid,43.0803,17.6258
20353,Dobranje,Dubrova?ko-Neretvanska,Mlinište,42.9842,17.6978
20355,Podgradina,Dubrova?ko-Neretvanska,Opuzen,43.0083,17.5542
20356,Raba,Dubrova?ko-Neretvanska,Klek,42.9728,17.5158
20357,Mihalj,Dubrova?ko-Neretvanska,Blace,42.9906,17.4978
21000,Split,Splitsko-Dalmatinska,Split,43.5139,16.4558
21201,Ljubitovica,Splitsko-Dalmatinska,Prgomet,43.6228,16.1378
21202,Divojevi?i,Splitsko-Dalmatinska,Le?evica,43.6667,16.25
21203,Donji Mu?,Splitsko-Dalmatinska,Donji Mu?,43.7261,16.5
21204,Dugopolje,Splitsko-Dalmatinska,Dugopolje,43.5806,16.6028
21205,Gornji Dolac,Splitsko-Dalmatinska,Donji Dolac,43.5031,16.7625
21206,Mala Milešina,Splitsko-Dalmatinska,Donje Ogorje,43.7667,16.45
21207,Kostanje,Splitsko-Dalmatinska,Kostanje,43.45,16.8333
21208,Sviniš?e,Splitsko-Dalmatinska,Ku?i?e,43.4333,16.7667
21209,Ku?ine,Splitsko-Dalmatinska,Mravince,43.5325,16.5308
21210,Blaca,Splitsko-Dalmatinska,Solin,43.7161,16.8122
21212,Kaštel Su?urac,Splitsko-Dalmatinska,Kaštel Su?urac,43.5503,16.4264
21213,Kaštel Gomilica,Splitsko-Dalmatinska,Kaštel Gomilica,43.55,16.4
21214,Kaštel Kambelovac,Splitsko-Dalmatinska,Kaštel Kambelovac,43.55,16.3833
21215,Kaštel Lukši?,Splitsko-Dalmatinska,Kaštel Lukši?,43.5553,16.3675
21216,Kaštel Stari,Splitsko-Dalmatinska,Kaštel Stari,43.55,16.35
21218,Seget Donji,Splitsko-Dalmatinska,Seget Donji,43.5167,16.2333
21220,Trogir,Splitsko-Dalmatinska,Trogir,43.5125,16.2517
21222,Dograde,Splitsko-Dalmatinska,Marina,43.5453,16.1144
21223,Okrug Gornji,Splitsko-Dalmatinska,Okrug Gornji,43.4972,16.2217
21224,Slatine,Splitsko-Dalmatinska,Slatine,43.4994,16.3333
21225,Drvenik Veliki,Splitsko-Dalmatinska,Drvenik Veliki,43.45,16.15
21226,Viniš?e,Splitsko-Dalmatinska,Viniš?e,43.4897,16.1131
21227,Primorski Dolac,Splitsko-Dalmatinska,Primorski Dolac,43.6308,16.1761
21228,Vinovac,Splitsko-Dalmatinska,Blizna Donja,43.5833,16.1056
21229,Crivac,Splitsko-Dalmatinska,Crivac,43.7667,16.3667
21230,Jasensko,Splitsko-Dalmatinska,Sinj,43.73,16.6544
21231,Koprivno,Splitsko-Dalmatinska,Klis,43.6028,16.5494
21232,Liska,Splitsko-Dalmatinska,Dicmo,43.5839,16.6642
21233,Zelovo,Splitsko-Dalmatinska,Hrvace,43.7519,16.5511
21235,Otiši?,Splitsko-Dalmatinska,Otiši?,43.8436,16.5056
21236,Garjak,Splitsko-Dalmatinska,Vrlika,43.9,16.4833
21238,Ovrlja,Splitsko-Dalmatinska,Otok (Dalmacija),43.6861,16.7483
21240,Jabuka,Splitsko-Dalmatinska,Trilj,43.6331,16.7561
21241,Bajagi?,Splitsko-Dalmatinska,Obrovac Sinjski,43.7567,16.6667
21242,Vraba?,Splitsko-Dalmatinska,Grab,43.6564,16.7539
21243,Vinine,Splitsko-Dalmatinska,Ugljane,43.549,16.7554
21244,Cista Velika,Splitsko-Dalmatinska,Cista Velika,43.5361,16.8917
21245,Vrpolje,Splitsko-Dalmatinska,Tijarica,43.6042,16.8297
21246,Kamensko,Splitsko-Dalmatinska,Aržano,43.6169,16.9531
21247,Sutina,Splitsko-Dalmatinska,Neori?,43.6967,16.5475
21250,Žeževica,Splitsko-Dalmatinska,Šestanovac,43.45,16.9667
21251,Žrnovnica,Splitsko-Dalmatinska,Žrnovnica,43.5211,16.5592
21252,Tugare,Splitsko-Dalmatinska,Tugare,43.4667,16.6667
21253,?isla,Splitsko-Dalmatinska,Gata,43.45,16.7333
21254,Trnbusi,Splitsko-Dalmatinska,Blato na Cetini,43.4833,16.7833
21255,Gornja Brela,Splitsko-Dalmatinska,Zadvarje,43.4,16.9167
21256,Svib,Splitsko-Dalmatinska,Cista Provo,43.5517,16.9631
21257,Lovre?,Splitsko-Dalmatinska,Lovre?,43.5,17
21260,Donji Vinjani,Splitsko-Dalmatinska,Imotski,43.4311,17.2528
21261,Podosoje,Splitsko-Dalmatinska,Runovi?,43.3703,17.2128
21262,Ivanbegovina,Splitsko-Dalmatinska,Kamenmost,43.4178,17.1519
21263,Šumet,Splitsko-Dalmatinska,Krivodol,43.4403,17.1456
21264,Postranje,Splitsko-Dalmatinska,Donji Proložac,43.4735,17.171
21265,Studenci,Splitsko-Dalmatinska,Studenci,43.5306,17.0306
21266,Zmijavci,Splitsko-Dalmatinska,Zmijavci,43.4108,17.2056
21267,Ri?ice,Splitsko-Dalmatinska,Ri?ice,43.5133,17.1106
21270,Zagvozd,Splitsko-Dalmatinska,Zagvozd,43.3975,17.0569
21271,Grabovac,Splitsko-Dalmatinska,Grabovac,43.4308,16.9867
21272,Mijaca,Splitsko-Dalmatinska,Slivno,43.2875,17.3197
21273,Župa Srednja,Splitsko-Dalmatinska,Župa,43.3564,17.1403
21275,Dragljane,Splitsko-Dalmatinska,Dragljane,43.2344,17.2414
21276,Stilja,Splitsko-Dalmatinska,Vrgorac,43.2464,17.3181
21277,Podprolog,Splitsko-Dalmatinska,Veliki Prolog,43.171,17.4078
21292,Srinjine,Splitsko-Dalmatinska,Srinjine,43.4833,16.6
21300,Makarska,Splitsko-Dalmatinska,Makarska,43.2969,17.0178
21310,Zaku?ac,Splitsko-Dalmatinska,Omiš,43.45,16.7
21311,Stobre?,Splitsko-Dalmatinska,Stobre?,43.5025,16.5222
21312,Miljevac,Splitsko-Dalmatinska,Podstrana,45.1286,15.6383
21314,Jesenice,Splitsko-Dalmatinska,Jesenice,43.7622,16.4708
21315,Dugi Rat,Splitsko-Dalmatinska,Dugi Rat,43.4461,16.6397
21317,?elina,Splitsko-Dalmatinska,Lokva Rogoznica,43.7622,16.4708
21318,Pisak,Splitsko-Dalmatinska,Mimice,43.4,16.85
21320,Krvavica,Splitsko-Dalmatinska,Baška Voda,43.3264,16.9869
21322,Brela,Splitsko-Dalmatinska,Brela,43.3689,16.9342
21325,Veliko Brdo,Splitsko-Dalmatinska,Tu?epi,43.3197,17.0197
21327,Gornje Igrane,Splitsko-Dalmatinska,Podgora,43.2322,17.1436
21328,Drašnice,Splitsko-Dalmatinska,Drašnice,43.2203,17.115
21329,Živogoš?e,Splitsko-Dalmatinska,Igrane,43.1789,17.1728
21330,Gradac,Splitsko-Dalmatinska,Gradac,43.1058,17.3417
21333,Drvenik,Splitsko-Dalmatinska,Drvenik,43.1575,17.2661
21334,Zaostrog,Splitsko-Dalmatinska,Zaostrog,43.1425,17.2822
21335,Brist,Splitsko-Dalmatinska,Podaca,43.1181,17.3247
21400,Supetar,Splitsko-Dalmatinska,Supetar,43.3842,16.5508
21403,Sutivan,Splitsko-Dalmatinska,Sutivan,43.3858,16.4769
21404,Boboviš?a,Splitsko-Dalmatinska,Ložiš?a,43.3522,16.4647
21405,Podhumlje,Splitsko-Dalmatinska,Milna,43.3267,16.4508
21410,Dol,Splitsko-Dalmatinska,Postira,43.3494,16.6217
21412,Pu?iš?a,Splitsko-Dalmatinska,Pu?iš?a,43.3478,16.7339
21413,Povlja,Splitsko-Dalmatinska,Povlja,43.3336,16.8397
21420,Murvica,Splitsko-Dalmatinska,Bol,43.2667,16.6
21423,Dra?evica,Splitsko-Dalmatinska,Nerežiš?a,43.3344,16.5303
21424,Pražnica,Splitsko-Dalmatinska,Pražnica,43.3203,16.6978
21425,Novo Selo,Splitsko-Dalmatinska,Selca,43.3167,16.85
21426,Sumartin,Splitsko-Dalmatinska,Sumartin,43.285,16.8756
21430,Srednje Selo,Splitsko-Dalmatinska,Grohote,43.3986,16.2753
21432,Stomorska,Splitsko-Dalmatinska,Stomorska,43.37,16.3517
21450,Zara?e,Splitsko-Dalmatinska,Hvar,43.15,16.5167
21454,Brusje,Splitsko-Dalmatinska,Brusje,43.1928,16.4908
21460,Dol,Splitsko-Dalmatinska,Stari Grad,43.3494,16.6217
21462,Vrbanj,Splitsko-Dalmatinska,Vrbanj,43.165,16.6456
21463,Vrboska,Splitsko-Dalmatinska,Vrboska,43.1822,16.6708
21465,Sveta Nedjelja,Splitsko-Dalmatinska,Jelsa,43.1364,16.5894
21466,Poljica,Splitsko-Dalmatinska,Zastražiš?e,43.1489,16.7936
21467,Gdinj,Splitsko-Dalmatinska,Gdinj,43.1319,16.9286
21468,Selca kod Bogomolja,Splitsko-Dalmatinska,Bogomolje,43.15,16.9
21469,Su?uraj,Splitsko-Dalmatinska,Su?uraj,43.1253,17.1861
21480,Vis,Splitsko-Dalmatinska,Vis,43.0619,16.1831
21483,Žena Glava,Splitsko-Dalmatinska,Podšpilje,43.0333,16.14
21485,Biševo,Splitsko-Dalmatinska,Komiža,42.9833,16.0167
22000,Šibenik-dio,Šibensko-Kninska,Šibenik,43.7543,15.959
22010,Jadrtovac,Šibensko-Kninska,Šibenik-Brodarica,43.6761,15.9508
22020,Šibenik/dio-Ražine/,Šibensko-Kninska,Šibenik-Ražine,43.6981,15.9533
22030,Šibenik/dio-Zabla?e/,Šibensko-Kninska,Šibenik-Zabla?e,43.6981,15.9533
22202,Kalina,Šibensko-Kninska,Primošten,43.6367,16.7019
22203,Ze?evo Rogozni?ko,Šibensko-Kninska,Rogoznica,43.5539,15.9383
22204,Vezac,Šibensko-Kninska,Široke,43.5847,16.0136
22205,Slivno,Šibensko-Kninska,Perkovi?,43.6861,16.0967
22206,Vrsno,Šibensko-Kninska,Boraja,43.6257,16.0818
22211,Vodice,Šibensko-Kninska,Vodice,43.7608,15.7828
22212,Tribunj,Šibensko-Kninska,Tribunj,43.75,15.75
22213,Kaši?,Šibensko-Kninska,Pirovac,43.8719,15.6811
22214,?ista Velika,Šibensko-Kninska,?ista Velika,43.8961,15.7672
22215,Zaton,Šibensko-Kninska,Zaton,43.7894,15.8253
22221,?vrljevo,Šibensko-Kninska,Lozovac,43.7597,16.0208
22222,Gorice,Šibensko-Kninska,Skradin,43.8986,15.8789
22223,Žažvi?,Šibensko-Kninska,Bribir(kod Skradina),43.9317,15.8028
22232,Zlarin,Šibensko-Kninska,Zlarin,43.6975,15.8361
22233,Prvi? Luka,Šibensko-Kninska,Prvi? Luka,43.7167,15.8
22234,Prvi? Šepurine,Šibensko-Kninska,Prvi? Šepurine,43.7333,15.8
22235,Kaprije,Šibensko-Kninska,Kaprije,43.6914,15.7117
22236,Žirje,Šibensko-Kninska,Žirje,43.6589,15.6506
22240,Dazlina,Šibensko-Kninska,Tisno,43.8667,15.7167
22242,Jezera,Šibensko-Kninska,Jezera,43.8,15.65
22243,Murter,Šibensko-Kninska,Murter,43.8125,15.6061
22244,Betina,Šibensko-Kninska,Betina,43.8167,15.5833
22300,Žagrovi?,Šibensko-Kninska,Knin,44.07,16.1897
22301,Golubi?,Šibensko-Kninska,Golubi?,44.0889,16.1983
22302,Pola?a,Šibensko-Kninska,Pola?a/kod Knina/,44.0211,16.3161
22303,Lukar,Šibensko-Kninska,Oklaj,43.9619,16.1236
22304,Radu?i?,Šibensko-Kninska,Radu?i?,44.0436,16.0733
22305,Biovi?ino Selo,Šibensko-Kninska,Kistanje,44.0508,15.9089
22306,Ervenik,Šibensko-Kninska,Ervenik,44.0994,15.9453
22307,Mokro Polje,Šibensko-Kninska,Mokro Polje,44.0858,16.0306
22310,Kijevo,Šibensko-Kninska,Kijevo,44.0089,16.3581
22311,Strmica,Šibensko-Kninska,Strmica,44.1706,16.2614
22312,Zvjerinac,Šibensko-Kninska,Kosovo/Zvjerinac/,43.9492,16.2164
22317,Plavno,Šibensko-Kninska,Plavno,44.1456,16.1836
22318,Pa?ene,Šibensko-Kninska,Pa?ene,44.0739,16.1267
22319,Varivode,Šibensko-Kninska,?evrske,43.9603,15.8767
22320,Kri?ke,Šibensko-Kninska,Drniš,43.8167,16.2167
22321,Bio?i?,Šibensko-Kninska,Siveri?,43.9,16.2333
22322,Mirlovi? Polje,Šibensko-Kninska,Ruži?,43.8114,16.3431
22323,Ljubostinje,Šibensko-Kninska,Uneši?,43.7189,16.1208
22324,Brištane,Šibensko-Kninska,Drinovci,43.8703,16.0075
23000,Zadar,Zadarska,Zadar,44.1197,15.2422
23205,Bibinje,Zadarska,Bibinje,44.0667,15.3
23206,Podvršje,Zadarska,Sukošan,44.2583,15.3289
23207,Turanj,Zadarska,Sveti Filip i Jakov,43.9711,15.4114
23210,Vrgada,Zadarska,Biograd na moru,43.8561,15.5031
23211,Pakoštane,Zadarska,Pakoštane,43.9122,15.5089
23212,Tkon,Zadarska,Tkon,43.9333,15.4167
23222,Zemunik,Zadarska,Zemunik,44.1067,15.3806
23223,Škabrnja,Zadarska,Škabrnja,44.0806,15.4278
23226,Pridraga,Zadarska,Pridraga,44.1667,15.5667
23231,Petr?ane,Zadarska,Petr?ane,44.1856,15.1656
23232,Zaton,Zadarska,Nin,44.2206,15.1736
23233,Privlaka,Zadarska,Privlaka (Dalmacija),44.2667,15.1333
23234,Vir,Zadarska,Vir,44.3031,15.0853
23235,Žerava,Zadarska,Vrsi,44.2044,15.2547
23241,Viso?ane,Zadarska,Poli?nik,44.2058,15.3469
23242,Islam Latinski/dio Podgradina/,Zadarska,Posedarje,44.2136,15.4767
23244,Seline,Zadarska,Starigrad Paklenica,44.2778,15.4794
23245,Tribanj,Zadarska,Tribanj,44.3517,15.3183
23247,Vinjerac,Zadarska,Vinjerac,44.2544,15.4661
23248,Krneza,Zadarska,Ražanac,44.263,15.34
23249,Smokvica,Zadarska,Povljana,44.3214,15.1864
23250,Pag,Zadarska,Pag,44.445,15.0575
23251,Šimuni,Zadarska,Kolan,44.4686,14.9614
23262,Barotul,Zadarska,Pašman,43.9575,15.385
23263,Ždrelac,Zadarska,Ždrelac,44.0136,15.2692
23264,Mrljane,Zadarska,Nevi?ane,43.95,15.3667
23271,Kukljica,Zadarska,Kukljica,44.0347,15.2456
23272,Kali,Zadarska,Kali,44.0628,15.2056
23273,Preko,Zadarska,Preko,44.0811,15.1875
23274,Lukoran,Zadarska,Lukoran,44.1031,15.1589
23275,Ugljan,Zadarska,Ugljan,44.1308,15.1031
23281,Zaglav,Zadarska,Sali,43.9558,15.1372
23282,Žman,Zadarska,Žman,43.9722,15.1133
23283,Rava,Zadarska,Rava,44.0219,15.0667
23284,Veli Iž,Zadarska,Veli Iž,44.0508,15.1067
23285,Savar,Zadarska,Brbinj,44.0608,15.0181
23286,Dragove,Zadarska,Božava,44.1125,14.9336
23287,Veli Rat,Zadarska,Veli Rat,44.1397,14.8522
23291,Rivanj,Zadarska,Sestrunj,44.1561,15.0356
23292,Zapuntel,Zadarska,Molat,44.2469,14.8139
23293,Ist,Zadarska,Ist,44.2667,14.7667
23294,Premuda,Zadarska,Premuda,44.3425,14.6014
23295,Silba,Zadarska,Silba,44.3764,14.6967
23296,Olib,Zadarska,Olib,44.375,14.7819
23312,Novigrad,Zadarska,Novigrad (Dalmacija),44.1839,15.5542
23420,Kožlovac,Zadarska,Benkovac,44.0103,15.6844
23421,Dobropoljci,Zadarska,Bjelina,44.005,15.8111
23422,Provi?,Zadarska,Stankovci,43.9294,15.7456
23423,Gornja Jagodnja,Zadarska,Pola?a,44.0192,15.5289
23424,Donji Kaši?,Zadarska,Smil?i?,44.1508,15.4731
23440,Vu?ipolje,Zadarska,Gra?ac,44.2686,15.9331
23441,Rudopolje Bruvanjsko,Zadarska,Bruvno,44.3983,15.8275
23442,Velika Popina,Zadarska,Otri?,44.2869,16.0308
23443,Kom,Zadarska,Zrmanja,44.0808,15.6894
23445,Zaklopac,Zadarska,Srb,44.43,16.0708
23446,Tiškovac Li?ki,Zadarska,Kaldrma,44.2689,16.18
23450,Zelengrad,Zadarska,Obrovac,44.15,15.7222
23451,Golubi?,Zadarska,Žegar,44.2333,15.8833
23452,Donji Karin,Zadarska,Karin,44.1067,15.6219
31000,Podravlje,Osje?ko-Baranjska,Osijek,45.5633,18.7083
31204,Bijelo Brdo,Osje?ko-Baranjska,Bijelo Brdo,45.5172,18.8708
31205,Aljmaš,Osje?ko-Baranjska,Aljmaš,45.5289,18.9506
31206,Erdut,Osje?ko-Baranjska,Erdut,45.5264,19.0603
31207,Klisa,Osje?ko-Baranjska,Tenja,45.4753,18.8331
31208,Petrijevci,Osje?ko-Baranjska,Petrijevci,45.6128,18.5353
31214,Ada,Osje?ko-Baranjska,Laslovo,45.4056,18.6836
31215,Paulin Dvor,Osje?ko-Baranjska,Ernestinovo,45.4431,18.6239
31216,Antunovac,Osje?ko-Baranjska,Antunovac,45.4908,18.675
31220,Višnjevac,Osje?ko-Baranjska,Višnjevac,45.5686,18.6139
31221,Josipovac,Osje?ko-Baranjska,Josipovac,45.5828,18.5814
31222,Cerovac,Osje?ko-Baranjska,Bizovac,45.5689,18.5108
31223,Novaki Bizova?ki,Osje?ko-Baranjska,Bro?anci,45.5642,18.4492
31224,Ordanja,Osje?ko-Baranjska,Koška,45.5325,18.2806
31225,La?anska,Osje?ko-Baranjska,Breznica Naši?ka,45.5431,18.1658
31226,Dalj,Osje?ko-Baranjska,Dalj,45.49,18.9847
31227,Zel?in,Osje?ko-Baranjska,Zel?in,45.6164,18.3614
31300,Širine,Osje?ko-Baranjska,Beli Manastir,45.7694,18.5614
31301,Branjin Vrh,Osje?ko-Baranjska,Branjin Vrh,45.7961,18.61
31302,Kneževo,Osje?ko-Baranjska,Kneževo,45.8461,18.6428
31303,Popovac,Osje?ko-Baranjska,Popovac,45.8092,18.6583
31304,Duboševica,Osje?ko-Baranjska,Duboševica,45.8894,18.6967
31305,Gaji?,Osje?ko-Baranjska,Draž,45.8411,18.7694
31306,Batina,Osje?ko-Baranjska,Batina,45.8461,18.85
31307,Zmajevac,Osje?ko-Baranjska,Zmajevac,45.7981,18.8014
31308,Suza,Osje?ko-Baranjska,Suza,45.7831,18.775
31309,Zlatna Greda,Osje?ko-Baranjska,Kneževi Vinogradi,45.7217,18.8656
31315,Karanac,Osje?ko-Baranjska,Karanac,45.7606,18.6844
31321,Zeleno Polje,Osje?ko-Baranjska,Petlovac,45.7697,18.5039
31322,Torjanci,Osje?ko-Baranjska,Baranjsko Petrovo Selo,45.7586,18.3661
31323,Majiške Me?e,Osje?ko-Baranjska,Bolman,45.7381,18.4883
31324,Jagodnjak,Osje?ko-Baranjska,Jagodnjak,45.6992,18.5769
31325,Kozarac,Osje?ko-Baranjska,?eminac,45.7192,18.6761
31326,Švajcarnica,Osje?ko-Baranjska,Darda,45.6486,18.6806
31327,Podunavlje,Osje?ko-Baranjska,Bilje,45.6308,18.8139
31328,Lug,Osje?ko-Baranjska,Lug,45.6622,18.7758
31400,Ivanovci Gorjanski,Osje?ko-Baranjska,?akovo,45.3694,18.4136
31401,Vu?evci,Osje?ko-Baranjska,Viškovci,45.3308,18.4942
31402,Koritna,Osje?ko-Baranjska,Semeljci,45.3844,18.5656
31403,Hrastovac,Osje?ko-Baranjska,Vuka,45.4276,18.4992
31404,Dopsin,Osje?ko-Baranjska,Vladislavci,45.4492,18.5592
31410,Merolino Sikireva?ko,Osje?ko-Baranjska,Strizivojna,45.2261,18.4239
31411,Hrkanovci ?akova?ki,Osje?ko-Baranjska,Trnava,45.2667,18.1869
31415,Selci ?akova?ki,Osje?ko-Baranjska,Selci ?akova?ki,45.3092,18.3503
31416,?enkovo,Osje?ko-Baranjska,Levanjska Varoš,45.3389,18.1106
31417,Piškorevci,Osje?ko-Baranjska,Piškorevci,45.2553,18.4042
31418,Slatinik Drenjski,Osje?ko-Baranjska,Drenje,45.3972,18.2439
31421,Satnica ?akova?ka,Osje?ko-Baranjska,Satnica ?akova?ka,45.3558,18.3781
31422,Tomašinci,Osje?ko-Baranjska,Gorjani,45.3989,18.3722
31423,Bu?je Gorjansko,Osje?ko-Baranjska,Bra?evci,45.4286,18.2514
31424,Jurjevac Punitova?ki,Osje?ko-Baranjska,Punitovci,45.4342,18.4531
31431,?okadinci,Osje?ko-Baranjska,?epin,45.5017,18.4444
31432,Poganovci,Osje?ko-Baranjska,Budimci,45.4894,18.3989
31433,Kelešinka,Osje?ko-Baranjska,Podgora?,45.4842,18.1878
31500,Rozmajerovac,Osje?ko-Baranjska,Našice,45.3761,18.1181
31511,Sušine,Osje?ko-Baranjska,?ur?enovac,45.5511,18.0625
31512,Valenovac,Osje?ko-Baranjska,Feri?anci,45.5,17.9667
31513,Donja Moti?ina,Osje?ko-Baranjska,Donja Moti?ina,45.4947,18.0242
31530,Martinci Miholja?ki,Osje?ko-Baranjska,Podravska Moslavina,45.7333,17.9333
31531,?ret Viljevski,Osje?ko-Baranjska,Viljevo,45.725,18.0617
31540,Blanje,Osje?ko-Baranjska,Donji Miholjac,45.7172,18.0814
31542,Brezovica,Osje?ko-Baranjska,Magadenovac,45.6406,18.3289
31543,Krunoslavje,Osje?ko-Baranjska,Miholja?ki Pore?,45.6875,18.1181
31550,Gorica Valpova?ka,Osje?ko-Baranjska,Valpovo,45.6478,18.3536
31551,Beliš?e,Osje?ko-Baranjska,Beliš?e,45.6803,18.4058
31552,Sveti ?ura?,Osje?ko-Baranjska,Podgajci Podravski,45.7389,18.2461
31553,?rnkovci,Osje?ko-Baranjska,?rnkovci,45.7075,18.295
31554,Kitišanci,Osje?ko-Baranjska,Gat,45.6865,18.3362
31555,Marijanski Ivanovci,Osje?ko-Baranjska,Marijanci,45.6696,18.2857
32000,Vukovar,Vukovarsko-Srijemska,Vukovar,45.3433,18.9997
32010,Lipova?a,Vukovarsko-Srijemska,Vukovar,45.3886,18.905
32100,Mirkovci,Vukovarsko-Srijemska,Vinkovci,45.2697,18.8511
32211,Ostrovo,Vukovarsko-Srijemska,Ostrovo,45.3406,18.7897
32212,Gaboš,Vukovarsko-Srijemska,Gaboš,45.3531,18.7361
32213,Podrinje,Vukovarsko-Srijemska,Markušica,45.3914,18.6925
32214,Tordinci,Vukovarsko-Srijemska,Tordinci,45.3703,18.795
32221,Nuštar,Vukovarsko-Srijemska,Nuštar,45.3325,18.8414
32222,Bršadin,Vukovarsko-Srijemska,Bršadin,45.3628,18.9111
32224,Vera,Vukovarsko-Srijemska,Trpinja,45.4578,18.8914
32225,Ludvinci,Vukovarsko-Srijemska,Bobota,45.4028,18.8267
32227,Borovo,Vukovarsko-Srijemska,Borovo,45.3764,18.9669
32229,Petrovci,Vukovarsko-Srijemska,Petrovci,45.2889,18.9444
32232,Grabovo,Vukovarsko-Srijemska,Sotin,45.2778,19.0603
32233,Opatovac,Vukovarsko-Srijemska,Opatovac,45.2606,19.1708
32234,Mohovo,Vukovarsko-Srijemska,Šarengrad,45.2514,19.2161
32235,Bapska,Vukovarsko-Srijemska,Bapska,45.1975,19.26
32236,Ilok,Vukovarsko-Srijemska,Ilok,45.2222,19.3769
32237,Lovas,Vukovarsko-Srijemska,Lovas,45.2264,19.1711
32238,Novi ?akovci,Vukovarsko-Srijemska,?akovci,45.2092,19.0375
32239,Negoslavci,Vukovarsko-Srijemska,Negoslavci,45.2794,18.9967
32241,Novi Jankovci,Vukovarsko-Srijemska,Stari Jankovci,45.24,18.8961
32242,Svinjarevci,Vukovarsko-Srijemska,Slakovci,45.2517,18.965
32243,Orolik,Vukovarsko-Srijemska,Orolik,45.2153,18.9847
32244,?eletovci,Vukovarsko-Srijemska,?eletovci,45.1825,19.0125
32245,Podgra?e,Vukovarsko-Srijemska,Nijemci,45.1056,19.0342
32246,Apševci,Vukovarsko-Srijemska,Lipovac,45.0722,19.0728
32247,Banovci,Vukovarsko-Srijemska,Banovci,45.3522,18.64
32248,Ila?a,Vukovarsko-Srijemska,Ila?a,45.1814,19.0958
32249,Tovarnik,Vukovarsko-Srijemska,Tovarnik,45.165,19.1519
32251,Privlaka,Vukovarsko-Srijemska,Privlaka,45.1947,18.8375
32252,Otok,Vukovarsko-Srijemska,Otok,45.1467,18.8839
32253,Komletinci,Vukovarsko-Srijemska,Komletinci,45.1497,18.9492
32254,Vrbanja,Vukovarsko-Srijemska,Vrbanja,44.9814,18.9272
32255,Soljani,Vukovarsko-Srijemska,Soljani,44.9503,18.9703
32256,Strošinci,Vukovarsko-Srijemska,Strošinci,44.9164,19.065
32257,Drenovci,Vukovarsko-Srijemska,Drenovci,44.9206,18.9122
32258,Podgajci Posavski,Vukovarsko-Srijemska,Posavski Podgajci,44.9506,18.8314
32260,Gunja,Vukovarsko-Srijemska,Gunja,44.88,18.8533
32261,Rajevo Selo,Vukovarsko-Srijemska,Rajevo Selo,44.9242,18.7772
32262,Ra?inovci,Vukovarsko-Srijemska,Ra?inovci,44.8639,18.9553
32263,?uri?i,Vukovarsko-Srijemska,?uri?i,44.8808,18.9175
32270,Županja,Vukovarsko-Srijemska,Županja,45.0775,18.6975
32271,Andrijaševci,Vukovarsko-Srijemska,Rokovci Andrijaševci,45.2247,18.7381
32272,Šiškovci,Vukovarsko-Srijemska,Cerna,45.1989,18.6467
32273,Gradište,Vukovarsko-Srijemska,Gradište,45.1481,18.7067
32274,Štitar,Vukovarsko-Srijemska,Štitar,45.0956,18.6403
32275,Bošnjaci,Vukovarsko-Srijemska,Bošnjaci,45.0503,18.7556
32276,Babina Greda,Vukovarsko-Srijemska,Babina Greda,45.1172,18.5369
32280,Karadži?evo,Vukovarsko-Srijemska,Jarmina,45.3328,18.6856
32281,Ivankovo,Vukovarsko-Srijemska,Ivankovo,45.2886,18.6839
32282,Retkovci,Vukovarsko-Srijemska,Retkovci,45.2333,18.6531
32283,Vo?inci,Vukovarsko-Srijemska,Vo?inci,45.2756,18.6097
32284,Mrzovi?,Vukovarsko-Srijemska,Stari Mikanovci,45.3264,18.5928
33000,Rezovac,Viroviti?ko-Podravska,Virovitica,45.7833,17.4167
33404,Lozan,Viroviti?ko-Podravska,Špiši? Bukovica,45.8914,17.29
33405,Mala ?rešnjevica,Viroviti?ko-Podravska,Pitoma?a,45.9167,17.2
33406,Brezik,Viroviti?ko-Podravska,Luka?,45.8667,17.4167
33407,Veliko Polje,Viroviti?ko-Podravska,Gornje Bazje,45.9224,17.4508
33410,Ga?ište,Viroviti?ko-Podravska,Suhopolje,45.8333,17.6
33411,Ba?evac,Viroviti?ko-Podravska,Gradina,45.8667,17.4833
33412,Trnava Cabunska,Viroviti?ko-Podravska,Cabuna,45.7333,17.5333
33507,Krivaja Pustara,Viroviti?ko-Podravska,Crnac,45.6667,17.9333
33513,Slavonske Bare,Viroviti?ko-Podravska,Zdenci,45.6,17.95
33514,Krajna,Viroviti?ko-Podravska,?a?inci,45.5667,17.8
33515,Donja Pištana,Viroviti?ko-Podravska,Orahovica,45.5167,17.8333
33516,Slatinski Drenovac,Viroviti?ko-Podravska,Slatinski Drenovac,45.5531,17.7072
33517,Borik,Viroviti?ko-Podravska,Mikleuš,45.6164,17.7727
33518,Donja Bukovica,Viroviti?ko-Podravska,Nova Bukovica,45.6833,17.8167
33520,Josipovo,Viroviti?ko-Podravska,Slatina,45.7228,17.661
33521,?eralije,Viroviti?ko-Podravska,?eralije,45.6192,17.6858
33522,Bokane,Viroviti?ko-Podravska,Vo?in,45.6167,17.6833
33523,Šaševo,Viroviti?ko-Podravska,?a?avica,45.7589,17.8349
33525,Gornje Predrijevo,Viroviti?ko-Podravska,Sopje,45.7897,17.7858
33533,Velika Babina Gora,Viroviti?ko-Podravska,Pivnica Slavonska,45.7172,17.4419
34000,Vasine Laze,Požeško-Slavonska,Požega,45.3056,17.715
34308,Granje,Požeško-Slavonska,Jakši?,45.3581,17.8136
34310,Srednje Selo,Požeško-Slavonska,Pleternica,45.3244,17.7586
34311,Kuzmica,Požeško-Slavonska,Kuzmica,45.3283,17.7567
34312,?osinci,Požeško-Slavonska,Sesvete (kod Požege),45.35,17.8358
34315,Drenovac,Požeško-Slavonska,Ratkovica,45.2228,17.7542
34320,Šušnjari,Požeško-Slavonska,Orljavac,45.4502,17.505
34322,Vili? Selo,Požeško-Slavonska,Brestovac,45.3567,17.5492
34330,Poljanska,Požeško-Slavonska,Velika,45.45,17.5833
34334,Doljanovci,Požeško-Slavonska,Kaptol,45.4494,17.7417
34335,Podgorje,Požeško-Slavonska,Vetovo,45.4406,17.7661
34340,Ferovac,Požeško-Slavonska,Kutjevo,45.3817,17.8556
34343,Pore?,Požeško-Slavonska,Bektež,45.3678,17.9281
34350,Vlatkovac,Požeško-Slavonska,?aglin,45.3533,18.0769
34543,Brekinska,Požeško-Slavonska,Poljana,45.4944,17.0567
34550,Gornji Grahovljani,Požeško-Slavonska,Pakrac,45.4833,17.2833
34551,Bjelanovac,Požeško-Slavonska,Lipik,45.3594,17.1781
34552,Gornja Obrijež,Požeško-Slavonska,Badljevina,45.4789,17.1708
34553,Prgomelje,Požeško-Slavonska,Bu?je,45.8908,16.7522
35000,Groma?nik,Brodsko-Posavska,Slavonski Brod,45.1794,17.9575
35105,Slavonski Brod,Brodsko-Posavska,Slavonski Brod,45.1603,18.0156
35106,Slavonski Brod,Brodsko-Posavska,Slavonski Brod,45.1603,18.0156
35107,Rastušje,Brodsko-Posavska,Podvinje,45.2047,18.0336
35201,Grabarje,Brodsko-Posavska,Podcrkavlje,45.3589,17.8617
35207,Donja Vrba,Brodsko-Posavska,Gornja Vrba,45.1658,18.1067
35208,Gornja Bebrina,Brodsko-Posavska,Ruš?ica,45.1119,18.11
35209,Ježevik,Brodsko-Posavska,Bukovlje,45.2119,18.075
35210,Stari Perkovci,Brodsko-Posavska,Vrpolje,45.2175,18.3486
35211,Šušnjevci,Brodsko-Posavska,Trnjani,45.2092,18.1044
35212,Gar?in,Brodsko-Posavska,Gar?in,45.1828,18.1831
35213,Poljanci,Brodsko-Posavska,Oprisavci,45.1306,18.1961
35214,Novo Topolje,Brodsko-Posavska,Donji Andrijevci,45.2083,18.2408
35215,Zoljani,Brodsko-Posavska,Svilaj,45.1319,18.32
35216,Stružani,Brodsko-Posavska,Prnjavor,45.1406,18.3047
35220,Slavonski Šamac,Brodsko-Posavska,Slavonski Šamac,45.0667,18.4889
35221,Mala Kopanica,Brodsko-Posavska,Velika Kopanica,45.1464,18.37
35222,Gundinci,Brodsko-Posavska,Gundinci,45.1583,18.4914
35224,Sikirevci,Brodsko-Posavska,Sikirevci,45.1089,18.4644
35250,Be?ic,Brodsko-Posavska,Oriovac,45.1919,17.7075
35252,Jaka?ina Mala,Brodsko-Posavska,Sibinj,45.2256,17.8722
35253,Lov?i?,Brodsko-Posavska,Brodski Stupnik,45.2047,17.8022
35254,Bebrina,Brodsko-Posavska,Bebrina,45.0983,17.8342
35255,Slavonski Kobaš,Brodsko-Posavska,Slavonski Kobaš,45.1064,17.7456
35257,Pri?ac,Brodsko-Posavska,Lužani,45.1361,17.6742
35400,Kova?evac,Brodsko-Posavska,Nova Gradiška,45.2667,17.3667
35403,Bukovica,Brodsko-Posavska,Rešetari,45.6647,17.7669
35404,Šumetlica,Brodsko-Posavska,Cernik,45.3208,17.3958
35410,Si?e,Brodsko-Posavska,Nova Kapela,45.1608,17.6206
35414,Vrbova,Brodsko-Posavska,Vrbova,45.2186,17.5778
35420,Komarnica,Brodsko-Posavska,Staro Petrovo Selo,45.1839,17.5681
35422,Gunjevci,Brodsko-Posavska,Zapolje,45.2756,17.4664
35423,Dolina,Brodsko-Posavska,Vrbje,45.1431,17.3875
35424,Orubica,Brodsko-Posavska,Orubica,45.1478,17.4589
35425,Davor,Brodsko-Posavska,Davor,45.1153,17.5164
35428,Gorice,Brodsko-Posavska,Dragali?,45.2158,17.2958
35429,Smrti?,Brodsko-Posavska,Gornji Bogi?evci,45.2814,17.2567
35430,Gre?ani,Brodsko-Posavska,Oku?ani,45.2106,17.1775
35432,Medari,Brodsko-Posavska,Medari,45.2672,17.29
35435,Gornji Varoš,Brodsko-Posavska,Stara Gradiška,45.1533,17.2133
40000,Krištanovec,Me?imurska,?akovec,46.4442,16.4525
40305,Slakovec,Me?imurska,Nedeliš?e,46.4058,16.3769
40306,Macinec,Me?imurska,Macinec,46.3936,16.3283
40311,Vu?etinec,Me?imurska,Lopatinec,46.4375,16.3867
40312,Leskovec,Me?imurska,Štrigova,46.2136,16.5119
40313,Žabnik,Me?imurska,Sveti Martin na Muri,46.3064,16.4483
40314,Prapor?an,Me?imurska,Selnica,46.4667,16.3667
40315,Peklenica,Me?imurska,Mursko Središ?e,46.4953,16.4761
40316,Ferketinec,Me?imurska,Vratišinec,46.4667,16.5167
40317,Celine,Me?imurska,Podturen,45.8931,16.4047
40318,Tur?iš?e,Me?imurska,Dekanovec,46.4122,16.6169
40319,Gardinovec,Me?imurska,Belica,46.4269,16.5575
40320,Donji Hraš?an,Me?imurska,Donji Kraljevec,46.4122,16.6253
40321,Strelec,Me?imurska,Mala Subotica,46.4017,16.5606
40322,Vularija,Me?imurska,Orehovica,46.3269,16.4767
40323,Cirkovljan,Me?imurska,Prelog,46.3444,16.6494
40324,Gori?an,Me?imurska,Gori?an,46.3842,16.6808
40325,Hemuševec,Me?imurska,Draškovec,46.3542,16.6711
40326,Sveta Marija,Me?imurska,Sveta Marija,46.3356,16.7419
40327,Donji Vidovec,Me?imurska,Donji Vidovec,46.3292,16.7867
40328,Donja Dubrava,Me?imurska,Donja Dubrava,46.3147,16.8119
40329,Kotoriba,Me?imurska,Kotoriba,46.355,16.8181
42000,Jalkovec,Varaždinska,Varaždin,46.2808,16.3197
42201,Beretinec,Varaždinska,Beretinec,46.25,16.3
42202,Zamlaka,Varaždinska,Trnovec Bartolove?ki,46.2892,16.4981
42203,Pihovec,Varaždinska,Jalžabet,46.2378,16.45
42204,Seketin,Varaždinska,Tur?in,46.2297,16.3394
42205,Zamla?a,Varaždinska,Vidovec,46.2828,16.2686
42206,Strmec Podravski,Varaždinska,Petrijanec,46.3644,16.2142
42207,Vinica,Varaždinska,Vinica,46.3361,16.1494
42208,Virje Križovljansko,Varaždinska,Cestica,46.3836,16.1422
42209,Sra?inec,Varaždinska,Sra?inec,46.3294,16.2789
42214,Krušljevec,Varaždinska,Sveti Ilija,46.2333,16.3333
42220,Kr?,Varaždinska,Novi Marof,46.1564,16.3316
42222,Rakovec,Varaždinska,Ljubeš?ica,45.9303,16.3225
42223,Tuhovec,Varaždinska,Varaždinske Toplice,46.2,16.45
42224,Vini?no,Varaždinska,Visoko,46.0918,16.3355
42225,Š?epanje,Varaždinska,Brezni?ki Hum,46.1258,16.2536
42226,Jarek Bisaški,Varaždinska,Bisag,46.0536,16.275
42230,Slokovec,Varaždinska,Ludbreg,46.2561,16.6531
42231,Sveti Petar Ludbreški,Varaždinska,Mali Bukovec,46.2514,16.6925
42232,Hrastovljan,Varaždinska,Donji Martijanec,46.2842,16.5383
42233,Priles,Varaždinska,Sveti ?ur?,46.2778,16.6036
42240,Ge?kovec,Varaždinska,Ivanec,46.1986,16.1898
42242,Cerje Tužno,Varaždinska,Radovan,46.2567,16.235
42243,Greda,Varaždinska,Maruševec,46.2764,16.2086
42244,Vukovoj,Varaždinska,Klenovnik,46.2833,16.0667
42245,Donja Vo?a,Varaždinska,Donja Vo?a,46.3008,16.105
42250,Kameni?ki Vrhovec,Varaždinska,Lepoglava,46.2372,16.0869
42253,Veliki Gorenec,Varaždinska,Bednja,46.2833,16.0333
42254,Jamno,Varaždinska,Trakoš?an,46.2833,15.9333
42255,Gornja Višnjica,Varaždinska,Donja Višnjica,46.3,16
43000,Prespa,Bjelovarsko-Bilogorska,Bjelovar,45.8667,16.9167
43202,Jakopovac,Bjelovarsko-Bilogorska,Zrinski Topolovac,46.0256,16.7883
43203,Srednja Diklenica,Bjelovarsko-Bilogorska,Kapela,45.9667,16.8833
43211,Predavac,Bjelovarsko-Bilogorska,Predavac,45.75,16.4333
43212,Domankuš,Bjelovarsko-Bilogorska,Roviš?e,45.9547,16.7308
43226,Vrbica,Bjelovarsko-Bilogorska,Veliko Trojstvo,45.9469,16.9353
43227,Jasenik,Bjelovarsko-Bilogorska,Šandrovac,45.9333,17.05
43231,Rastovac,Bjelovarsko-Bilogorska,Ivanska,45.7833,16.7833
43232,Šimljana,Bjelovarsko-Bilogorska,Berek,45.6975,16.8247
43233,Šimljanik,Bjelovarsko-Bilogorska,Trnoviti?ki Popovac,45.6689,16.7833
43240,Sovari,Bjelovarsko-Bilogorska,?azma,45.7333,16.5333
43245,Siš?ani,Bjelovarsko-Bilogorska,Gornji Draganec,45.8086,16.6611
43246,Staro Štefanje,Bjelovarsko-Bilogorska,Štefanje,45.8167,16.7167
43247,Paljevine,Bjelovarsko-Bilogorska,Narta,45.8167,16.8167
43251,Gudovac,Bjelovarsko-Bilogorska,Gudovac,45.8803,16.7808
43252,Prgomelje,Bjelovarsko-Bilogorska,Prgomelje,45.8908,16.7522
43270,Zrinska,Bjelovarsko-Bilogorska,Veliki Gr?evac,45.8,17.15
43271,Polum,Bjelovarsko-Bilogorska,Velika Pisanica,45.838,17.1048
43272,Sasovac,Bjelovarsko-Bilogorska,Nova Ra?a,45.7689,16.9294
43273,Babinac,Bjelovarsko-Bilogorska,Bulinac,45.8333,17.05
43274,Kašljavac,Bjelovarsko-Bilogorska,Severin,45.8833,17
43280,Kajgana,Bjelovarsko-Bilogorska,Garešnica,45.5961,16.9764
43282,Mala Bršljanica,Bjelovarsko-Bilogorska,Veliko Vukovje,45.5792,16.8389
43283,Kaniška Iva,Bjelovarsko-Bilogorska,Kaniška Iva,45.5378,16.9269
43284,Hercegovac,Bjelovarsko-Bilogorska,Hercegovac,45.6586,17.0136
43285,Velika Trnovitica,Bjelovarsko-Bilogorska,Velika Trnovitica,45.6825,16.9539
43290,Velika Peratovica,Bjelovarsko-Bilogorska,Grubišno Polje,45.7656,17.2608
43293,Orlovac Zdena?ki,Bjelovarsko-Bilogorska,Veliki Zdenci,45.6782,17.1203
43500,Donji Borki,Bjelovarsko-Bilogorska,Daruvar,45.5478,17.3161
43504,Tur?evi? Polje,Bjelovarsko-Bilogorska,Ivanovo Selo,45.6961,17.3169
43505,Brestova?ka Brda,Bjelovarsko-Bilogorska,Kon?anica,45.6337,17.1724
43506,Trojeglava,Bjelovarsko-Bilogorska,Dežanovac,45.5364,17.1133
43507,Blagorodovac,Bjelovarsko-Bilogorska,Uljanik,45.5525,17.0353
43531,Veliki Miletinac,Bjelovarsko-Bilogorska,Veliki Bastaji,45.6833,17.3333
43532,Poto?ani,Bjelovarsko-Bilogorska,?ulovac,45.65,17.4
43541,Barica,Bjelovarsko-Bilogorska,Sira?,45.5167,17.2667
44000,Žir?ica,Sisa?ko-Moslava?ka,Sisak,45.5333,16.3833
44010,Novo Pra?no,Sisa?ko-Moslava?ka,Sisak-Caprag,45.6807,18.0229
44201,Desna Martinska Ves,Sisa?ko-Moslava?ka,Martinska Ves,45.5833,16.3833
44202,Preloš?ica,Sisa?ko-Moslava?ka,Topolovac,45.445,16.485
44203,Veliko Svinji?ko,Sisa?ko-Moslava?ka,Guš?e,45.4667,16.5672
44204,Jabukovac,Sisa?ko-Moslava?ka,Jabukovac,45.3286,16.295
44205,Luš?ani,Sisa?ko-Moslava?ka,Donja Ba?uga,45.35,16.2167
44210,Staza,Sisa?ko-Moslava?ka,Sunja,45.325,16.5942
44211,Klobu?ak,Sisa?ko-Moslava?ka,Blinjski Kut,45.3988,16.4602
44212,Staro Selo,Sisa?ko-Moslava?ka,Mala Gradusa,45.3547,16.4131
44214,Strmen,Sisa?ko-Moslava?ka,Bobovac,45.3494,16.6981
44221,Donji Hrastovac,Sisa?ko-Moslava?ka,Staza,45.3272,16.5647
44222,Utolica,Sisa?ko-Moslava?ka,Šaš,45.2478,16.6489
44231,Madžari,Sisa?ko-Moslava?ka,Blinja,45.3808,16.4069
44250,Brest Pokupski,Sisa?ko-Moslava?ka,Petrinja,45.4547,16.2606
44251,Sibi?,Sisa?ko-Moslava?ka,Gora,45.4079,16.1991
44253,Moš?enica,Sisa?ko-Moslava?ka,Moš?enica,45.4383,16.3611
44271,Žažina,Sisa?ko-Moslava?ka,Letovani?,45.5,16.25
44272,Donji Vukojevac,Sisa?ko-Moslava?ka,Lekenik,45.6,16.1333
44273,Vurot,Sisa?ko-Moslava?ka,Sela,45.4675,16.2881
44316,Grabrov Potok,Sisa?ko-Moslava?ka,Velika Ludina,45.5978,16.5867
44317,Gornja Jelenska,Sisa?ko-Moslava?ka,Popova?a,45.5994,16.6994
44318,Gornja Gra?enica,Sisa?ko-Moslava?ka,Voloder,45.5128,16.6958
44320,Šartovac,Sisa?ko-Moslava?ka,Kutina,45.5142,16.7992
44321,Krivaj,Sisa?ko-Moslava?ka,Banova Jaruga,45.4214,16.9042
44322,Kozarice,Sisa?ko-Moslava?ka,Lipovljani,45.3867,16.9658
44323,Borovac,Sisa?ko-Moslava?ka,Raji?,45.2892,17.1475
44324,Mlaka,Sisa?ko-Moslava?ka,Jasenovac,45.2375,17.0194
44325,Trebež,Sisa?ko-Moslava?ka,Krapje,45.3003,16.8223
44330,Stara Subocka,Sisa?ko-Moslava?ka,Novska,45.3553,16.8975
44400,Prekopa,Sisa?ko-Moslava?ka,Glina,45.3675,16.1225
44401,Šaševa,Sisa?ko-Moslava?ka,Hajti?,45.2746,16.0689
44402,Mali Obljaj,Sisa?ko-Moslava?ka,Mali Obljaj,45.2317,16.0208
44403,Prijeka,Sisa?ko-Moslava?ka,Maja,45.2878,16.0992
44404,Donji Klasni?,Sisa?ko-Moslava?ka,Gornji Klasni?,45.2411,16.175
44405,Trnovac Glinski,Sisa?ko-Moslava?ka,Mali Gradac,45.2342,16.2175
44406,Bijele Vode,Sisa?ko-Moslava?ka,Vlahovi?,45.2833,16.2
44410,Slavsko Polje,Sisa?ko-Moslava?ka,Gvozd,45.3667,15.8
44412,Zaloj,Sisa?ko-Moslava?ka,Stankovac,45.4667,16.05
44414,Stipan,Sisa?ko-Moslava?ka,Bovi?,45.4667,15.8833
44415,Vorkapi?,Sisa?ko-Moslava?ka,Topusko,45.2667,15.9167
44425,Ilova?ak,Sisa?ko-Moslava?ka,Gornja Bu?ica,45.4667,15.9333
44430,Rosulje,Sisa?ko-Moslava?ka,Hrvatska Kostajnica,45.2283,16.5756
44431,Gornji Kukuruzari,Sisa?ko-Moslava?ka,Donji Kukuruzari,45.2664,16.4833
44432,Gornji Bjelovac,Sisa?ko-Moslava?ka,Me?en?ani,45.2833,16.4333
44433,Gornja Velešnja,Sisa?ko-Moslava?ka,Majur,45.2422,16.4592
44434,Srednja Meminska,Sisa?ko-Moslava?ka,Graboštani,45.2922,16.6025
44435,Volinja,Sisa?ko-Moslava?ka,Divuša,45.2025,16.4856
44437,Ljubina,Sisa?ko-Moslava?ka,Rujevac,45.0711,16.2614
44440,Vani?i,Sisa?ko-Moslava?ka,Dvor,45.0815,16.3358
44441,Švrakarica,Sisa?ko-Moslava?ka,Br?ani Šamari?ki,45.1772,16.3369
44443,Donji Žirovac,Sisa?ko-Moslava?ka,Donji Žirovac,45.1539,16.1219
44450,Živaja,Sisa?ko-Moslava?ka,Hrvatska Dubica,45.2311,16.7464
47000,Husje,Karlova?ka,Karlovac,45.4993,15.5575
47201,Lazina,Karlova?ka,Dragani?i,45.6036,15.6203
47203,Zamršje,Karlova?ka,Re?ica,45.5167,15.7
47204,Ivan?i?i Pokupski,Karlova?ka,Šišljavi?,45.5167,15.75
47205,Knez Gorica,Karlova?ka,Vukmani?,45.425,15.6475
47206,Desni Štefanki,Karlova?ka,Lasinja,45.5,15.9167
47211,Podsedlo,Karlova?ka,Utinja,45.4147,15.7343
47212,Banska Selnica,Karlova?ka,Skakavac,45.5014,15.7186
47213,Gornji Sjeni?ak,Karlova?ka,Sjeni?ak Lasinjski,45.4,15.7833
47220,Brdo Utinjsko,Karlova?ka,Vojni?,45.3208,15.7122
47221,Krstinja,Karlova?ka,Krstinja,45.2442,15.73
47222,?urin Potok,Karlova?ka,Cetingrad,45.1142,15.785
47240,Donji Nikši?,Karlova?ka,Slunj,45.0964,15.6462
47241,Brezova Glava,Karlova?ka,Tušilovi?,45.3758,15.6197
47242,Gornji Buda?ki,Karlova?ka,Krnjak,45.2833,15.6167
47243,Bandino Selo,Karlova?ka,Veljun,45.2097,15.5896
47244,Mjesto Primišlje,Karlova?ka,Primišlje,45.2167,15.4667
47245,?atrnja,Karlova?ka,Rakovica,44.9503,15.6467
47246,Korana,Karlova?ka,Drežnik Grad,44.9269,15.6194
47250,Belajska Vinica,Karlova?ka,Duga Resa,45.4645,15.5222
47251,Dani,Karlova?ka,Bosiljevo,45.3337,15.259
47252,Vijenac Barilovi?ki,Karlova?ka,Barilovi?,45.3615,15.5446
47253,Srednji Poloj,Karlova?ka,Perjasica,45.2667,15.4833
47261,Protulipa,Karlova?ka,Zve?aj,45.3905,15.4214
47262,Duga Gora,Karlova?ka,Generalski Stol,45.3386,15.3419
47263,Bartolovi?i,Karlova?ka,Gornje Dubrave,45.218,15.338
47264,Trži? Tounjski,Karlova?ka,Tounj,45.2,15.4167
47271,Zaborsko Selo,Karlova?ka,Netreti?,45.4909,15.4354
47272,Novaki Lipni?ki,Karlova?ka,Ribnik,45.5585,15.3504
47273,Gornje Priliš?e,Karlova?ka,Srednje Priliš?e,45.4667,15.3667
47276,Kohanjac,Karlova?ka,Žakanje,45.6031,15.3184
47280,Zaluka,Karlova?ka,Ozalj,45.6,15.3
47281,Slapno,Karlova?ka,Mali Erjavec,45.6,15.4833
47282,Mali Vrh Kamanjski,Karlova?ka,Kamanje,45.6333,15.4
47283,Zorkovac Vivodinski,Karlova?ka,Vivodina,45.6751,15.4134
47284,Brašljevica,Karlova?ka,Kašt,45.7083,15.3667
47285,Rajakovi?i,Karlova?ka,Radatovi?i,45.7033,15.31
47286,Gornje Pokupje,Karlova?ka,Mahi?no,45.5667,15.5167
47300,Oklinak,Karlova?ka,Ogulin,45.2522,15.2707
47302,Otok Oštarijski,Karlova?ka,Oštarije,45.2386,15.2547
47303,Sabljaki Modruški,Karlova?ka,Josipdol,45.1577,15.3026
47304,Plaški,Karlova?ka,Plaški,45.0764,15.3681
47305,Li?ka Jesenica,Karlova?ka,Li?ka Jesenica,44.995,15.4453
47306,Saborsko,Karlova?ka,Saborsko,44.9833,15.4781
47307,Dujmi? Selo,Karlova?ka,Gornje Zagorje,45.2,15.2389
47313,Tomi?i,Karlova?ka,Drežnica,45.1475,15.0356
47314,Jasenak,Karlova?ka,Jasenak,45.2328,15.0442
48000,Starigrad,Koprivni?ko-Križeva?ka,Koprivnica,46.106,16.6193
48213,Cepidlak,Koprivni?ko-Križeva?ka,Cirkvena,45.9667,16.6667
48214,Trema,Koprivni?ko-Križeva?ka,Sveti Ivan Žabno,45.9667,16.6167
48260,Mali Poto?ec,Koprivni?ko-Križeva?ka,Križevci,46.0542,16.5094
48264,Kostadinovac,Koprivni?ko-Križeva?ka,Kloštar Vojakova?ki,46.0668,16.6371
48265,Ku?ari,Koprivni?ko-Križeva?ka,Raven,45.9929,16.4654
48267,Hrgovec,Koprivni?ko-Križeva?ka,Orehovec,46.0908,16.4697
48268,Kusijevec,Koprivni?ko-Križeva?ka,Gornja Rijeka,46.0811,16.3828
48269,Žibrinovec,Koprivni?ko-Križeva?ka,Kalnik,46.1028,16.5147
48306,Domaji,Koprivni?ko-Križeva?ka,Sokolovac,46.1333,16.75
48311,Subotica Podravska,Koprivni?ko-Križeva?ka,Kunovec,46.1833,16.75
48312,Mala Rasinjica,Koprivni?ko-Križeva?ka,Rasinja,46.189,16.6678
48314,Koprivni?ki Ivanec,Koprivni?ko-Križeva?ka,Koprivni?ki Ivanec,46.2333,16.7983
48316,Imbriovec,Koprivni?ko-Križeva?ka,?elekovec,46.2547,16.8256
48317,Mali Otok,Koprivni?ko-Križeva?ka,Legrad,46.2775,16.8347
48321,Sigetec,Koprivni?ko-Križeva?ka,Peteranec,46.1883,16.9358
48322,Drnje,Koprivni?ko-Križeva?ka,Drnje,46.2069,16.9169
48323,Gambajeva Greda,Koprivni?ko-Križeva?ka,Hlebine,46.1569,16.9628
48324,Glogovac,Koprivni?ko-Križeva?ka,Koprivni?ki Bregi,46.1156,16.8744
48325,Novigrad Podravski,Koprivni?ko-Križeva?ka,Novigrad Podravski,46.0781,16.9539
48326,Virje,Koprivni?ko-Križeva?ka,Virje,46.0672,16.99
48327,Molve Grede,Koprivni?ko-Križeva?ka,Molve,46.1092,17.0317
48331,Gola,Koprivni?ko-Križeva?ka,Gola,46.1958,17.0581
48332,Repaš,Koprivni?ko-Križeva?ka,Ždala,46.15,17.0833
48350,Severovci,Koprivni?ko-Križeva?ka,?ur?evac,46.0019,17.0119
48355,Novo Virje,Koprivni?ko-Križeva?ka,Novo Virje,46.0094,17.0439
48356,Ferdinandovac,Koprivni?ko-Križeva?ka,Ferdinandovac,46.05,17.2
48361,Hladna Voda,Koprivni?ko-Križeva?ka,Kalinovac,46.0294,17.1156
48362,Kozarevac,Koprivni?ko-Križeva?ka,Kloštar Podravski,45.9289,17.1172
48363,Podravske Sesvete,Koprivni?ko-Križeva?ka,Podravske Sesvete,46.005,17.2117
49000,Straža Krapinska,Krapinsko-Zagorska,Krapina,46.1481,15.8652
49210,Hum Zabo?ki,Krapinsko-Zagorska,Zabok,46.0236,15.9253
49214,Veliko Trgoviš?e,Krapinsko-Zagorska,Veliko Trgoviš?e,46,15.85
49215,Tuheljske Toplice,Krapinsko-Zagorska,Tuhelj,46.0812,15.8687
49216,Desini? Gora,Krapinsko-Zagorska,Desini?,46.1738,15.8106
49217,Slivonja Jarek,Krapinsko-Zagorska,Krapinske Toplice,46.0734,15.9492
49218,Pavlovec Pregradski,Krapinsko-Zagorska,Pregrada,46.1665,15.7429
49221,Vu?ak,Krapinsko-Zagorska,Bedekov?ina,46.03,16.0031
49222,Lug Poznanove?ki,Krapinsko-Zagorska,Poznanovec,46.0608,16.0358
49223,Ciglenica Zagorska,Krapinsko-Zagorska,Sveti Križ Za?retje,46.0637,15.9153
49224,Velika Ves,Krapinsko-Zagorska,Lepajci,46.1167,15.8833
49225,Gornji Macelj,Krapinsko-Zagorska,?urmanec,46.1994,15.8124
49228,Vojni? Breg,Krapinsko-Zagorska,Brestovec Orehovi?ki,46.1,15.9833
49231,Klenovec Humski,Krapinsko-Zagorska,Hum na Sutli,46.207,15.6852
49232,Strahinje Radobojsko,Krapinsko-Zagorska,Radoboj,46.1664,15.9236
49233,Lužani Zagorski,Krapinsko-Zagorska,Gornje Jesenje,46.2074,15.8986
49234,Petrovsko,Krapinsko-Zagorska,Petrovsko,46.1681,15.8408
49240,Lepa Ves,Krapinsko-Zagorska,Donja Stubica,46.0167,15.9833
49243,Mokrice,Krapinsko-Zagorska,Oroslavje,46.055,16.3819
49244,Pila,Krapinsko-Zagorska,Stubi?ke Toplice,45.9667,15.9167
49245,Orehova Gorica,Krapinsko-Zagorska,Gornja Stubica,45.9944,16.0785
49246,Selnica,Krapinsko-Zagorska,Marija Bistrica,46.0156,16.0933
49247,Lovre?an,Krapinsko-Zagorska,Zlatar Bistrica,46.0569,16.0589
49250,Ratkovec,Krapinsko-Zagorska,Zlatar,46.1167,16.0833
49251,Peršaves,Krapinsko-Zagorska,Ma?e,46.125,16.0275
49252,Velika Veterni?ka,Krapinsko-Zagorska,Mihovljan,46.1406,16.0197
49253,Petrova Gora,Krapinsko-Zagorska,Lobor,46.1528,16.0678
49254,Juranš?ina,Krapinsko-Zagorska,Belec,46.1311,16.1358
49255,Kuzminec/dio/,Krapinsko-Zagorska,Novi Golubovec,46.1917,16.0167
49282,Jelovec,Krapinsko-Zagorska,Konjš?ina,46.05,16.1833
49283,Gornji Kraljevec,Krapinsko-Zagorska,Hraš?ina-Trgoviš?e,46.1333,16.2167
49284,Pece,Krapinsko-Zagorska,Budinš?ina,46.2189,16.2458
49290,Gorkovec,Krapinsko-Zagorska,Klanjec,45.9462,15.7906
49294,Pušava,Krapinsko-Zagorska,Kraljevec na Sutli,45.9902,15.7339
49295,Razvor,Krapinsko-Zagorska,Kumrovec,46.0775,15.6756
49296,Poljana Sultanska,Krapinsko-Zagorska,Zagorska Sela,46.0844,15.6556
51000,Rijeka,Primorsko-Goranska,Rijeka,44.3983,15.6233
51211,Mihoti?i,Primorsko-Goranska,Matulji,45.3621,14.3097
51212,Žejane,Primorsko-Goranska,Vele Mune,45.4394,14.1953
51213,Mu?i?i,Primorsko-Goranska,Jurdani,45.4008,14.3086
51214,Rupa,Primorsko-Goranska,Šapjane,45.4783,14.2864
51215,Spin?i?i,Primorsko-Goranska,Kastav,45.3711,14.3483
51216,Kosi,Primorsko-Goranska,Viškovo,45.3806,14.3917
51217,Klana,Primorsko-Goranska,Klana,45.4469,14.3769
51218,Trnovica,Primorsko-Goranska,Dražice,45.3907,14.4559
51219,Pod?udni?,Primorsko-Goranska,?avle,45.3562,14.4853
51221,Randi?i,Primorsko-Goranska,Kostrena,45.1341,14.5023
51222,Bakar-dio,Primorsko-Goranska,Bakar,45.2335,14.578
51223,Škrljevo,Primorsko-Goranska,Škrljevo,45.33,14.5183
51224,Krasica,Primorsko-Goranska,Krasica,45.3097,14.5556
51225,Praputnjak,Primorsko-Goranska,Praputnjak,45.2989,14.5736
51226,Hreljin,Primorsko-Goranska,Hreljin,45.2825,14.5992
51241,Križiš?e,Primorsko-Goranska,Križiš?e,45.2689,14.6072
51242,Ba?i?i,Primorsko-Goranska,Drivenik,43.6701,15.9361
51243,Bašunje Male,Primorsko-Goranska,Tribalj,45.2236,14.6768
51244,Miroši,Primorsko-Goranska,Grižane,45.2321,14.694
51250,Novi Vinodolski,Primorsko-Goranska,Novi Vinodolski,45.1281,14.7889
51251,Breze,Primorsko-Goranska,Ledenice,45.1432,14.8319
51252,Jakov Polje,Primorsko-Goranska,Klenovica,45.0851,14.8924
51253,Podugrinac,Primorsko-Goranska,Bribir,45.0558,14.7073
51260,Crikvenica,Primorsko-Goranska,Crikvenica,45.1772,14.6928
51261,Bakarac,Primorsko-Goranska,Bakarac,45.2814,14.5836
51262,Kraljevica,Primorsko-Goranska,Kraljevica,45.2697,14.5708
51263,Šmrika,Primorsko-Goranska,Šmrika,45.2497,14.6017
51264,Smokovo,Primorsko-Goranska,Jadranovo,45.22,14.6419
51265,Dramalj,Primorsko-Goranska,Dramalj,45.2177,14.5662
51266,Selce,Primorsko-Goranska,Selce,45.1564,14.7211
51280,Barbat na Rabu,Primorsko-Goranska,Rab,44.7311,14.8139
51281,Lopar,Primorsko-Goranska,Lopar,44.8325,14.7303
51300,Raskrižje Tihovo,Primorsko-Goranska,Delnice,45.3979,14.8048
51301,?edanj,Primorsko-Goranska,Brod na Kupi,45.4303,14.7424
51302,Suhor,Primorsko-Goranska,Kuželj,45.497,14.7707
51303,Mandli,Primorsko-Goranska,Plešce,45.56,14.6947
51304,Hrib,Primorsko-Goranska,Gerovo,45.5172,14.6808
51305,Makov Hrib,Primorsko-Goranska,Trš?e,45.5641,14.631
51306,Tropeti,Primorsko-Goranska,?abar,45.5935,14.6428
51307,Kranjci,Primorsko-Goranska,Prezid,45.6269,14.5708
51311,Podslemski Lazi,Primorsko-Goranska,Skrad,45.4317,14.9338
51312,Goršeti,Primorsko-Goranska,Brod Moravice,45.4321,15.0457
51313,Leskova Draga,Primorsko-Goranska,Kupjak,45.3856,14.8867
51314,Stara Sušica,Primorsko-Goranska,Ravna Gora,45.3747,14.995
51315,Tuk Mrkopaljski,Primorsko-Goranska,Mrkopalj,45.3128,14.8478
51316,Homer,Primorsko-Goranska,Lokve,45.3608,14.7281
51317,Gornja Kraši?evica,Primorsko-Goranska,Crni Lug,45.3781,14.786
51321,Belo Selo,Primorsko-Goranska,Vrata,45.3292,14.7394
51322,Fužine,Primorsko-Goranska,Fužine,45.3053,14.7156
51323,Banovina,Primorsko-Goranska,Li?,45.2844,14.7236
51324,Zlobin,Primorsko-Goranska,Zlobin,45.2939,14.6528
51325,Petrovi?i,Primorsko-Goranska,Moravice,45.2242,15.7997
51326,Tuk,Primorsko-Goranska,Vrbovsko,45.3875,15.1028
51327,Gomirje,Primorsko-Goranska,Gomirje,45.3333,15.1333
51328,Gorenci,Primorsko-Goranska,Lukovdol,45.4506,15.1009
51329,Smišljak,Primorsko-Goranska,Severin na Kupi,45.3764,15.2629
51410,Opatija,Primorsko-Goranska,Opatija,45.1712,14.3878
51414,Vela U?ka,Primorsko-Goranska,I?i?i,45.3019,14.1997
51415,Liganj,Primorsko-Goranska,Lovran,45.2769,14.2603
51417,Obrš,Primorsko-Goranska,Moš?eni?ka Draga,45.1244,14.3412
51418,Zagore,Primorsko-Goranska,Brse?,45.1838,14.2303
51500,Skrb?i?i,Primorsko-Goranska,Krk,45.0489,14.495
51511,Malinska,Primorsko-Goranska,Malinska,45.1253,14.5281
51512,Njivice,Primorsko-Goranska,Njivice,45.1581,14.5386
51513,Omišalj,Primorsko-Goranska,Omišalj,45.2089,14.5564
51514,Klimno,Primorsko-Goranska,Dobrinj,45.1511,14.6133
51515,Županje,Primorsko-Goranska,Šilo,45.1403,14.6328
51516,Risika,Primorsko-Goranska,Vrbnik,45.1056,14.6433
51517,Lakmartin,Primorsko-Goranska,Korni?,45.0517,14.5872
51521,Stara Baška,Primorsko-Goranska,Punat,44.9581,14.6917
51522,Draga Baš?anska,Primorsko-Goranska,Draga Baš?anska,44.9833,14.7167
51523,Jurandvor,Primorsko-Goranska,Baška,44.98,14.7375
51550,Male Srakane,Primorsko-Goranska,Mali Lošinj,44.5656,14.3272
51551,Veli Lošinj,Primorsko-Goranska,Veli Lošinj,44.5167,14.5167
51552,Ilovik,Primorsko-Goranska,Ilovik,44.4597,14.5453
51554,Osor,Primorsko-Goranska,Nerezine,44.6956,14.3933
51555,Belej,Primorsko-Goranska,Belej,44.7792,14.4225
51556,Martinš?ica,Primorsko-Goranska,Martinš?ica,44.8203,14.355
51557,Porozina,Primorsko-Goranska,Cres,45.1306,14.2886
51559,Sveti Petar,Primorsko-Goranska,Beli,45.0903,14.3547
51561,Susak,Primorsko-Goranska,Susak,44.51,14.3028
51562,Unije,Primorsko-Goranska,Unije,44.6347,14.2478
51564,?unski,Primorsko-Goranska,?unski,44.5886,14.4064
52000,Heki,Istarska,Pazin,45.2164,13.8897
52100,Banjole,Istarska,Pula,44.825,13.8661
52203,Ližnjan,Istarska,Medulin,44.8283,13.9569
52206,Mar?ana,Istarska,Mar?ana,44.9553,13.9539
52207,Kožljani,Istarska,Barban,45.0635,13.9709
52208,Veliki Vareški,Istarska,Krnica,44.9394,13.9908
52210,Rovinjsko Selo,Istarska,Rovinj (Rovigno),45.1064,13.7156
52211,Bale,Istarska,Bale (Valle),45.0406,13.7836
52212,Štinjan,Istarska,Fažana,44.8936,13.8147
52215,Vodnjan,Istarska,Vodnjan (Dignano),44.9594,13.8517
52216,Galižana,Istarska,Galižana (Gallesano),44.9317,13.8686
52220,Marceljani,Istarska,Labin,45.1518,14.0811
52221,Rabac,Istarska,Rabac,45.0794,14.1575
52222,Škvaransko,Istarska,Koroma?no,44.9878,14.1126
52223,Raša,Istarska,Raša,45.0803,14.0789
52224,Trget,Istarska,Trget,45.0225,14.0561
52231,Jurazini,Istarska,Nedeš?ina,45.138,14.059
52232,Kršan,Istarska,Kršan,45.1733,14.1386
52233,Jasenovik,Istarska,Šušnjevica,45.2331,14.135
52234,Plomin Luka,Istarska,Plomin,45.1532,14.1895
52332,Sveta Katarina,Istarska,Pi?an,45.2061,14.0428
52333,Zajci,Istarska,Podpi?an,45.2124,14.0806
52341,Dolica,Istarska,Žminj,45.1401,13.9179
52342,Bri?anci,Istarska,Svetvin?enat,45.0813,13.8779
52352,Golaš,Istarska,Kanfanar,45.0808,13.7686
52402,Cerovlje,Istarska,Cerovlje,45.2781,14.0122
52403,Mandalen?i?i,Istarska,Gra?iš?e,45.2262,14.0206
52404,Zabrežani,Istarska,Sveti Petar u šumi,45.1836,13.8683
52420,Vodice,Istarska,Buzet,45.0053,14.3969
52422,Rašpor,Istarska,Laniš?e,45.4394,14.0769
52423,Karojba,Istarska,Karojba,45.3008,13.8231
52424,Kaldir,Istarska,Motovun,45.3142,13.8503
52425,Gornja Nugla,Istarska,Ro?,45.4119,14.0283
52426,Lupoglav,Istarska,Lupoglav,45.3511,14.1044
52427,Golubi?i,Istarska,Livade,45.3636,13.8531
52428,Šorgi,Istarska,Oprtalj (Portole),45.3795,13.9124
52429,Makovci,Istarska,Grožnjan (Grisignana),45.3922,13.7803
52434,Vranja,Istarska,Boljun,45.3197,14.1453
52440,Vrani?i kod Pore?a,Istarska,Pore?,45.2085,13.6656
52444,Jakovici,Istarska,Tinjan,45.2112,13.8146
52445,Banki,Istarska,Baderna,45.2073,13.7638
52446,Dekovi?i,Istarska,Nova Vas,45.2579,13.8993
52447,Žudeti?i,Istarska,Vižinada,45.1881,14.1246
52448,Jurcani,Istarska,Sveti Lovre?,45.1012,13.8576
52449,?rvar,Istarska,?ervar Porat,45.2633,13.5925
52450,Gradina,Istarska,Vrsar,45.1492,13.6053
52452,Funtana,Istarska,Funtana,45.1747,13.605
52460,Lozari,Istarska,Buje (Buie),45.4173,13.6614
52462,Momjan,Istarska,Momjan (Momiano),45.4386,13.7111
52463,Radoši kod Višnjana,Istarska,Višnjan,45.2617,13.6833
52464,Brnobi?i,Istarska,Kaštelir,45.3304,13.7043
52465,Tar,Istarska,Tar,45.3008,13.6253
52466,Bužinija,Istarska,Novigrad (Cittanova),45.3417,13.5883
52470,Materada,Istarska,Umag (Umago),45.4033,13.6069
52474,Kršete,Istarska,Brtonigla (Verteneglio),45.3972,13.6172
52475,Savudrija,Istarska,Savudrija (Salvore),45.4914,13.5067
53000,Debelo Brdo I,Li?ko-Senjska,Gospi?,44.5137,15.3918
53201,Budak,Li?ko-Senjska,Li?ki Osik,44.5878,15.3947
53202,Peruši?,Li?ko-Senjska,Peruši?,44.6494,15.3833
53203,Rudinka,Li?ko-Senjska,Kosinj,44.7731,15.1867
53205,Vrebac,Li?ko-Senjska,Medak,44.5269,15.5056
53206,Rizvanuša,Li?ko-Senjska,Brušane,44.4917,15.3033
53211,Smiljan,Li?ko-Senjska,Smiljan,44.5639,15.3181
53212,Aleksinica,Li?ko-Senjska,Klanac,44.6397,15.2508
53213,Donje Pazarište,Li?ko-Senjska,Donje Pazarište,44.6497,15.1967
53220,Oto?ac,Li?ko-Senjska,Oto?ac,44.8694,15.2375
53221,Škare,Li?ko-Senjska,Škare,44.8914,15.3122
53222,Dabar,Li?ko-Senjska,Dabar,44.955,15.31
53223,Gornji Babin Potok,Li?ko-Senjska,Vrhovine,44.8392,15.5264
53224,Sinac,Li?ko-Senjska,Li?ko Leš?e,44.8294,15.3322
53225,Gori?i,Li?ko-Senjska,Švica,44.8547,15.1392
53226,Brlog,Li?ko-Senjska,Kompolje,44.9336,15.1361
53230,Homoljac,Li?ko-Senjska,Korenica,44.7714,15.6269
53231,Serti? Poljana,Li?ko-Senjska,Plitvi?ka Jezera,44.9258,15.5661
53233,Željava,Li?ko-Senjska,Li?ko Petrovo Selo,44.8547,15.74
53234,Komi?,Li?ko-Senjska,Udbina,44.4531,15.7439
53235,Pe?ane,Li?ko-Senjska,Buni?,44.6469,15.7239
53236,Jagodnje,Li?ko-Senjska,Podlapa?a,44.6069,15.5953
53244,Kik,Li?ko-Senjska,Lovinac,44.4344,15.6333
53250,Buševi?,Li?ko-Senjska,Donji Lapac,44.5476,15.9758
53251,Donji Štrbci,Li?ko-Senjska,Nebljusi,44.6444,15.9858
53252,Brezovac Dobroselski,Li?ko-Senjska,Doljani,44.4467,16.0353
53260,Brinje,Li?ko-Senjska,Brinje,45,15.1308
53261,Lipice,Li?ko-Senjska,Križpolje,45.0167,15.2667
53262,Jezerane,Li?ko-Senjska,Jezerane,45.0481,15.2064
53270,Senj,Li?ko-Senjska,Senj,44.9894,14.9058
53271,Veljun Primorski,Li?ko-Senjska,Krivi Put,45.0061,14.9597
53273,Crni Kal,Li?ko-Senjska,Vratnik,44.9194,15.0778
53274,Krasno,Li?ko-Senjska,Krasno,44.8231,15.0514
53284,Lukovo,Li?ko-Senjska,Sveti Juraj,44.8544,14.8944
53287,Prizna,Li?ko-Senjska,Jablanac,44.6419,15.0111
53288,Konjsko,Li?ko-Senjska,Karlobag,44.5125,15.1444
53289,Bari? Draga,Li?ko-Senjska,Lukovo Šugarje,44.3786,15.2686
53291,Stara Novalja,Li?ko-Senjska,Novalja,44.5981,14.8772
53294,Lun,Li?ko-Senjska,Lun,44.6869,14.7503
53296,Metajna,Li?ko-Senjska,Zubovi?i,44.5069,15.0119
