Postal Code,Place Name,State,State Abbreviation,Latitude,Longitude
7184,Lengyel,Baranya,BA,46.3786,18.4357
7300,Komló,Baranya,BA,46.2,18.2667
7301,Mecsekpölöske,Baranya,BA,46.2167,18.2167
7302,Mecsekpölöske,Baranya,BA,46.2167,18.2167
7303,Mecsekpölöske,Baranya,BA,46.2167,18.2167
7304,Mánfa,Baranya,BA,46.1667,18.25
7305,Mánfa,Baranya,BA,46.1667,18.25
7306,Mánfa,Baranya,BA,46.1667,18.25
7309,Mánfa,Baranya,BA,46.1667,18.25
7331,Liget,Baranya,BA,46.2333,18.2
7332,Magyaregregy,Baranya,BA,46.25,18.3167
7333,Vékény,Baranya,BA,46.2667,18.35
7334,Szalatnak,Baranya,BA,46.2833,18.2833
7342,Mágocs,Baranya,BA,46.35,18.2333
7343,Nagyhajmás,Baranya,BA,46.3278,18.2944
7344,Mekényes,Baranya,BA,46.3833,18.3333
7345,Alsómocsolád,Baranya,BA,46.3167,18.25
7346,Bikal,Baranya,BA,46.3333,18.2833
7347,Egyházaskozár,Baranya,BA,46.3333,18.3167
7348,Tóf?,Baranya,BA,46.3167,18.3667
7349,Szászvár,Baranya,BA,46.2667,18.3667
7351,Máza,Baranya,BA,46.2667,18.4
7362,Vásárosdombó,Baranya,BA,46.3,18.15
7370,Varga,Baranya,BA,46.2333,18.15
7381,Tékes,Baranya,BA,46.2833,18.1667
7383,Szágy,Baranya,BA,46.2333,17.95
7384,Baranyajen?,Baranya,BA,46.2667,18.05
7385,Gödre,Baranya,BA,46.2833,17.9833
7386,Gödre,Baranya,BA,46.2833,17.9833
7391,Kisbeszterce,Baranya,BA,46.2,18.0333
7393,Bakóca,Baranya,BA,46.2167,18
7394,Bodolyabér,Baranya,BA,46.2,18.1167
7396,Magyarszék,Baranya,BA,46.2,18.2
7600,Pécs,Baranya,BA,46.0967,18.2068
7601,Pécs,Baranya,BA,46.0967,18.2068
7602,Pécs,Baranya,BA,46.0967,18.2068
7603,Pécs,Baranya,BA,46.0967,18.2068
7604,Pécs,Baranya,BA,46.0967,18.2068
7605,Pécs,Baranya,BA,46.0967,18.2068
7606,Pécs,Baranya,BA,46.0967,18.2068
7607,Pécs,Baranya,BA,46.0967,18.2068
7608,Pécs,Baranya,BA,46.0967,18.2068
7610,Pécs,Baranya,BA,46.0967,18.2068
7611,Pécs,Baranya,BA,46.0967,18.2068
7612,Pécs,Baranya,BA,46.0967,18.2068
7613,Pécs,Baranya,BA,46.0967,18.2068
7614,Pécs,Baranya,BA,46.0967,18.2068
7615,Pécs,Baranya,BA,46.0967,18.2068
7616,Pécs,Baranya,BA,46.0967,18.2068
7617,Pécs,Baranya,BA,46.0967,18.2068
7618,Pécs,Baranya,BA,46.0967,18.2068
7619,Pécs,Baranya,BA,46.0967,18.2068
7621,Pécs,Baranya,BA,46.0967,18.2068
7622,Pécs,Baranya,BA,46.0967,18.2068
7623,Pécs,Baranya,BA,46.0967,18.2068
7624,Pécs,Baranya,BA,46.0967,18.2068
7625,Pécs,Baranya,BA,46.0967,18.2068
7626,Pécs,Baranya,BA,46.0967,18.2068
7627,Pécs,Baranya,BA,46.0967,18.2068
7628,Pécs,Baranya,BA,46.0967,18.2068
7629,Pécs,Baranya,BA,46.0967,18.2068
7630,Pécs,Baranya,BA,46.0967,18.2068
7631,Pécs,Baranya,BA,46.0967,18.2068
7632,Pécs,Baranya,BA,46.0967,18.2068
7633,Pécs,Baranya,BA,46.0967,18.2068
7634,Pécs,Baranya,BA,46.0967,18.2068
7635,Pécs,Baranya,BA,46.0967,18.2068
7636,Pécs,Baranya,BA,46.0967,18.2068
7639,Pécs,Baranya,BA,46.0967,18.2068
7643,Pécs,Baranya,BA,46.0967,18.2068
7644,Pécs,Baranya,BA,46.0967,18.2068
7645,Pécs,Baranya,BA,46.0967,18.2068
7646,Pécs,Baranya,BA,46.0967,18.2068
7647,Pécs,Baranya,BA,46.0967,18.2068
7648,Pécs,Baranya,BA,46.0967,18.2068
7650,Pécs,Baranya,BA,46.0967,18.2068
7661,Szell?,Baranya,BA,46.0667,18.4667
7663,Máriakéménd,Baranya,BA,46.0333,18.4667
7664,Szilágy,Baranya,BA,46.1,18.4167
7666,Pogány,Baranya,BA,45.98,18.26
7668,Keszü,Baranya,BA,46.0167,18.1833
7671,Zók,Baranya,BA,46,18.1
7672,Boda,Baranya,BA,46.0833,18.05
7673,Cserkút,Baranya,BA,46.0667,18.1333
7675,Bakonya,Baranya,BA,46.0833,18.0833
7677,Orf?,Baranya,BA,46.1333,18.15
7678,Abaliget,Baranya,BA,46.15,18.1167
7681,Szentkatalin,Baranya,BA,46.1667,18.05
7682,Bükkösd,Baranya,BA,46.1,17.9833
7683,Helesfa,Baranya,BA,46.0833,17.9833
7691,Dinnyeberki,Baranya,BA,46.0833,17.95
7693,Dinnyeberki,Baranya,BA,46.0833,17.95
7694,Hosszúhetény,Baranya,BA,46.15,18.35
7695,Ófalu,Baranya,BA,46.2167,18.5333
7696,Hidas,Baranya,BA,46.2667,18.5
7700,Mohács,Baranya,BA,45.9931,18.6831
7701,Mohács,Baranya,BA,45.9931,18.6831
7702,Mohács,Baranya,BA,45.9931,18.6831
7711,Bár,Baranya,BA,46.05,18.7167
7712,Dunaszekcs?,Baranya,BA,46.0833,18.7667
7714,Dunaszekcs?,Baranya,BA,46.0833,18.7667
7715,Dunaszekcs?,Baranya,BA,46.0833,18.7667
7716,Homorúd,Baranya,BA,45.9814,18.7922
7717,Kölked,Baranya,BA,45.9503,18.7078
7718,Udvar,Baranya,BA,45.9006,18.6597
7720,Apátvarasd,Baranya,BA,46.1833,18.4833
7723,Erd?smecske,Baranya,BA,46.1833,18.5167
7724,Feked,Baranya,BA,46.1667,18.5667
7725,Szebény,Baranya,BA,46.1333,18.6
7726,Véménd,Baranya,BA,46.15,18.6167
7727,Palotabozsok,Baranya,BA,46.1333,18.65
7728,Görcsönydoboka,Baranya,BA,46.0667,18.6333
7731,Nagypall,Baranya,BA,46.15,18.45
7732,Fazekasboda,Baranya,BA,46.1167,18.4833
7733,Geresdlak,Baranya,BA,46.1,18.5333
7735,Sz?r,Baranya,BA,46.1,18.5833
7737,Székelyszabar,Baranya,BA,46.05,18.6
7741,Bogád,Baranya,BA,46.0833,18.3333
7744,Ellend,Baranya,BA,46.05,18.3833
7745,Olasz,Baranya,BA,46.0167,18.4167
7747,Belvárdgyula,Baranya,BA,45.9722,18.4339
7751,Szederkény,Baranya,BA,45.9969,18.4578
7752,Versend,Baranya,BA,45.9953,18.5114
7753,Szajk,Baranya,BA,45.9906,18.5314
7754,Bóly,Baranya,BA,45.9672,18.5183
7755,Töttös,Baranya,BA,45.9156,18.5422
7756,Borjád,Baranya,BA,45.9339,18.4672
7757,Babarc,Baranya,BA,45.9981,18.5547
7759,Kisnyárád,Baranya,BA,46.0333,18.5667
7761,Kozármisleny,Baranya,BA,46.0333,18.3
7762,Pécsudvard,Baranya,BA,46.0167,18.2833
7763,Szemely,Baranya,BA,46.0167,18.3333
7766,Újpetre,Baranya,BA,45.9367,18.3625
7768,Vokány,Baranya,BA,45.9094,18.3361
7771,Palkonya,Baranya,BA,45.8967,18.3897
7772,Villánykövesd,Baranya,BA,45.8822,18.4253
7773,Villány,Baranya,BA,45.8689,18.4539
7774,Márok,Baranya,BA,45.8736,18.5086
7775,Illocska,Baranya,BA,45.8003,18.5225
7781,Ivándárda,Baranya,BA,45.8306,18.5903
7782,Bezedek,Baranya,BA,45.8647,18.5864
7783,Majs,Baranya,BA,45.9092,18.6003
7784,Nagynyárád,Baranya,BA,45.9433,18.5781
7785,Sátorhely,Baranya,BA,45.9408,18.6344
7800,Kisharsány,Baranya,BA,45.8586,18.3642
7801,Nagytótfalu,Baranya,BA,45.8639,18.3453
7802,Nagytótfalu,Baranya,BA,45.8639,18.3453
7811,Csarnóta,Baranya,BA,45.8953,18.2147
7812,Garé,Baranya,BA,45.9189,18.1933
7813,Szava,Baranya,BA,45.9022,18.1761
7814,Ócsárd,Baranya,BA,45.9342,18.1519
7815,Harkány,Baranya,BA,45.8478,18.2375
7817,Márfa,Baranya,BA,45.86,18.1853
7822,Nagyharsány,Baranya,BA,45.8464,18.3922
7823,Kistapolca,Baranya,BA,45.8219,18.3847
7824,Egyházasharaszti,Baranya,BA,45.8094,18.3336
7826,Alsószentmárton,Baranya,BA,45.7892,18.3056
7827,Beremend,Baranya,BA,45.7853,18.4347
7831,Pellérd,Baranya,BA,46.0333,18.15
7833,Sz?ke,Baranya,BA,45.96,18.1858
7834,Téseny,Baranya,BA,45.9399,18.0885
7836,Ózdfalu,Baranya,BA,45.9292,18.0217
7837,Hegyszentmárton,Baranya,BA,45.9039,18.09
7838,Vajszló,Baranya,BA,45.8633,17.9761
7839,Zaláta,Baranya,BA,45.8167,17.8833
7841,Baranyahidvég,Baranya,BA,45.8464,18.0233
7843,Tésenfa,Baranya,BA,45.8131,18.1183
7846,Drávacsepely,Baranya,BA,45.8292,18.1386
7847,Ipacsfa,Baranya,BA,45.8347,18.2033
7851,Drávacsehi,Baranya,BA,45.8128,18.1672
7853,Gordisa,Baranya,BA,45.7964,18.2333
7854,Matty,Baranya,BA,45.7981,18.2661
7900,Szigetvár,Baranya,BA,46.05,17.8
7901,Csert?,Baranya,BA,46.1,17.8167
7912,Nagyváty,Baranya,BA,46.0667,17.9333
7913,Szentdénes,Baranya,BA,46,17.9333
7914,Katádfa,Baranya,BA,46,17.8667
7915,Szentegát,Baranya,BA,45.9667,17.8333
7921,Somogyhatvan,Baranya,BA,46.1167,17.7167
7922,Basal,Baranya,BA,46.0667,17.7833
7925,Somogyhárságy,Baranya,BA,46.1667,17.7833
7926,Vásárosbéc,Baranya,BA,46.1833,17.7333
7932,Almáskeresztúr,Baranya,BA,46.1167,17.9
7934,Almamellék,Baranya,BA,46.15,17.8833
7935,Ibafa,Baranya,BA,46.15,17.9167
7936,Szentlászló,Baranya,BA,46.15,17.8333
7937,Boldogasszonyfa,Baranya,BA,46.1833,17.8333
7940,Szentl?rinc,Baranya,BA,46.05,17.9833
7951,Velény,Baranya,BA,45.9803,18.0533
7953,Királyegyháza,Baranya,BA,46,17.9667
7954,Magyarmecske,Baranya,BA,45.95,17.9667
7957,Okorág,Baranya,BA,45.9167,17.8833
7958,Kákics,Baranya,BA,45.9025,17.8528
7960,Marócsa,Baranya,BA,45.9167,17.8167
7964,Csányoszró,Baranya,BA,45.8819,17.9019
7966,Bogdása,Baranya,BA,45.8833,17.8
7967,Drávafok,Baranya,BA,45.8864,17.76
7968,Fels?szentmárton,Baranya,BA,45.8522,17.7
7971,Hobol,Baranya,BA,46.0167,17.7667
7972,Gyöngyösmellék,Baranya,BA,45.9833,17.7
7973,Teklafalu,Baranya,BA,45.95,17.7333
7975,Kétújfalu,Baranya,BA,45.9669,17.705
7976,Zádor,Baranya,BA,45.9667,17.6653
7981,Kistamási,Baranya,BA,46.0167,17.7333
7985,Nagydobsza,Baranya,BA,46.0333,17.6667
5500,Gyomaendr?d,Békés,BE,46.9333,20.8333
5501,Gyomaendr?d,Békés,BE,46.9333,20.8333
5502,Gyomaendr?d,Békés,BE,46.9333,20.8333
5510,Dévaványa,Békés,BE,47.0333,20.9667
5515,Ecsegfalva,Békés,BE,47.15,20.9167
5516,Körösladány,Békés,BE,46.9667,21.0833
5520,Szeghalom,Békés,BE,47.0333,21.1667
5521,Szeghalom,Békés,BE,47.0333,21.1667
5525,Füzesgyarmat,Békés,BE,47.1,21.2167
5526,Kertészsziget,Békés,BE,47.15,21.0667
5527,Bucsa,Békés,BE,47.2,21
5530,Vészt?,Békés,BE,46.9167,21.2667
5534,Okány,Békés,BE,46.9,21.35
5536,Körösújfalu,Békés,BE,46.9667,21.4
5537,Zsadány,Békés,BE,46.9167,21.5
5538,Biharugra,Békés,BE,46.9667,21.6
5539,Körösnagyharsány,Békés,BE,47,21.65
5540,Szarvas,Békés,BE,46.8667,20.55
5541,Szarvas,Békés,BE,46.8667,20.55
5551,Csabacs?d,Békés,BE,46.8333,20.65
5552,Kardos,Békés,BE,46.8167,20.7708
5553,Kondoros,Békés,BE,46.7667,20.8
5555,Hunya,Békés,BE,46.8167,20.85
5556,Örménykút,Békés,BE,46.85,20.7833
5561,Békésszentandrás,Békés,BE,46.8667,20.4833
5600,Békéscsaba,Békés,BE,46.6833,21.1
5601,Békéscsaba,Békés,BE,46.6833,21.1
5602,Békéscsaba,Békés,BE,46.6833,21.1
5603,Békéscsaba,Békés,BE,46.6833,21.1
5604,Békéscsaba,Békés,BE,46.6833,21.1
5605,Békéscsaba,Békés,BE,46.6833,21.1
5609,Csabaszabadi,Békés,BE,46.6833,21.0833
5621,Csárdaszállás,Békés,BE,46.8667,20.9333
5622,Köröstarcsa,Békés,BE,46.8833,21.0333
5623,Köröstarcsa,Békés,BE,46.8833,21.0333
5624,Doboz,Békés,BE,46.7333,21.25
5630,Békés,Békés,BE,46.7667,21.1333
5631,Békés,Békés,BE,46.7667,21.1333
5641,Tarhos,Békés,BE,46.8167,21.2167
5643,Bélmegyer,Békés,BE,46.8667,21.1833
5650,Mez?berény,Békés,BE,46.8167,21.0333
5661,Újkígyós,Békés,BE,46.5833,21.0333
5662,Csanádapáca,Békés,BE,46.55,20.8833
5663,Medgyesbodzás,Békés,BE,46.5167,20.9667
5664,Medgyesbodzás,Békés,BE,46.5167,20.9667
5665,Pusztaottlaka,Békés,BE,46.55,20.9833
5666,Medgyesegyháza,Békés,BE,46.5,21.0333
5667,Magyarbánhegyes,Békés,BE,46.45,20.9667
5668,Nagybánhegyes,Békés,BE,46.4667,20.9
5671,Nagybánhegyes,Békés,BE,46.4667,20.9
5672,Murony,Békés,BE,46.7667,21.05
5673,Kamut,Békés,BE,46.7667,20.9833
5674,Kétsoprony,Békés,BE,46.7167,20.8667
5675,Telekgerendás,Békés,BE,46.65,20.9667
5700,Gyula,Békés,BE,46.6474,21.2773
5701,Gyula,Békés,BE,46.65,21.2833
5702,Gyula,Békés,BE,46.65,21.2833
5703,Gyula,Békés,BE,46.65,21.2833
5711,Gyula,Békés,BE,46.65,21.2833
5712,Szabadkígyós,Békés,BE,46.6167,21.1
5720,Sarkad,Békés,BE,46.75,21.3833
5721,Sarkad,Békés,BE,46.75,21.3833
5722,Sarkad,Békés,BE,46.75,21.3833
5725,Kötegyán,Békés,BE,46.7333,21.4833
5726,Méhkerék,Békés,BE,46.7833,21.45
5727,Újszalonta,Békés,BE,46.8,21.5
5731,Sarkadkeresztúr,Békés,BE,46.8,21.3833
5732,Mez?gyán,Békés,BE,46.8667,21.5333
5734,Geszt,Békés,BE,46.8833,21.5833
5741,Kétegyháza,Békés,BE,46.5333,21.1833
5742,Elek,Békés,BE,46.5333,21.25
5743,L?kösháza,Békés,BE,46.4333,21.2333
5744,Kevermes,Békés,BE,46.4167,21.1833
5745,Dombiratos,Békés,BE,46.4167,21.1167
5746,Kunágota,Békés,BE,46.4333,21.05
5747,Almáskamarás,Békés,BE,46.4667,21.1
5751,Nagykamarás,Békés,BE,46.4667,21.1167
5752,Nagykamarás,Békés,BE,46.4667,21.1167
5800,Mez?kovácsháza,Békés,BE,46.4,20.9167
5801,Mez?kovácsháza,Békés,BE,46.4,20.9167
5802,Mez?kovácsháza,Békés,BE,46.4,20.9167
5811,Végegyháza,Békés,BE,46.3833,20.8667
5820,Mez?hegyes,Békés,BE,46.3167,20.8167
5830,Battonya,Békés,BE,46.2833,21.0167
5836,Dombegyház,Békés,BE,46.3333,21.1333
5837,Kisdombegyház,Békés,BE,46.3667,21.1
5838,Magyardombegyház,Békés,BE,46.3833,21.0667
5900,Orosháza,Békés,BE,46.5667,20.6667
5901,Orosháza,Békés,BE,46.5667,20.6667
5902,Orosháza,Békés,BE,46.5667,20.6667
5903,Orosháza,Békés,BE,46.5667,20.6667
5904,Orosháza,Békés,BE,46.5667,20.6667
5905,Orosháza,Békés,BE,46.5667,20.6667
5919,Pusztaföldvár,Békés,BE,46.5333,20.8
5920,Csorvás,Békés,BE,46.6333,20.8333
5925,Gerendás,Békés,BE,46.6,20.8667
5931,Nagyszénás,Békés,BE,46.6833,20.6667
5932,Gádoros,Békés,BE,46.6667,20.6
5940,Tótkomlós,Békés,BE,46.4167,20.7333
5945,Kardoskút,Békés,BE,46.4833,20.6667
5946,Békéssámson,Békés,BE,46.4167,20.6333
5948,Kaszaper,Békés,BE,46.4667,20.8333
6000,Kecskemét,Bács-Kiskun,BK,46.9,19.7833
6001,Kecskemét,Bács-Kiskun,BK,46.9,19.7833
6002,Kecskemét,Bács-Kiskun,BK,46.9,19.7833
6003,Kecskemét,Bács-Kiskun,BK,46.9,19.7833
6004,Kecskemét,Bács-Kiskun,BK,46.9,19.7833
6005,Kecskemét,Bács-Kiskun,BK,46.9,19.7833
6006,Kecskemét,Bács-Kiskun,BK,46.9,19.7833
6007,Kecskemét,Bács-Kiskun,BK,46.9,19.7833
6010,Kecskemét,Bács-Kiskun,BK,46.9,19.7833
6031,Szentkirály,Bács-Kiskun,BK,46.9167,19.9333
6032,Nyárl?rinc,Bács-Kiskun,BK,46.8622,19.8733
6033,Városföld,Bács-Kiskun,BK,46.8167,19.7667
6034,Helvécia,Bács-Kiskun,BK,46.8333,19.6167
6035,Ballószög,Bács-Kiskun,BK,46.8667,19.5833
6041,Kerekegyháza,Bács-Kiskun,BK,46.9372,19.4781
6042,Fülöpháza,Bács-Kiskun,BK,46.8833,19.4167
6043,Kunbaracs,Bács-Kiskun,BK,46.9833,19.4167
6044,Kunbaracs,Bács-Kiskun,BK,46.9833,19.4167
6045,Ladánybene,Bács-Kiskun,BK,47.0333,19.45
6050,Lajosmizse,Bács-Kiskun,BK,47.0167,19.55
6055,Fels?lajos,Bács-Kiskun,BK,47.0667,19.5167
6060,Tiszakécske,Bács-Kiskun,BK,46.9333,20.1
6061,Tiszakécske,Bács-Kiskun,BK,46.9333,20.1
6062,Tiszakécske,Bács-Kiskun,BK,46.9333,20.1
6063,Tiszakécske,Bács-Kiskun,BK,46.9333,20.1
6065,Lakitelek,Bács-Kiskun,BK,46.8761,19.9889
6066,Tiszaalpár,Bács-Kiskun,BK,46.8217,19.9842
6067,Tiszaalpár,Bács-Kiskun,BK,46.8217,19.9842
6070,Izsák,Bács-Kiskun,BK,46.8014,19.3547
6075,Páhi,Bács-Kiskun,BK,46.7167,19.4
6076,Ágasegyháza,Bács-Kiskun,BK,46.8333,19.45
6077,Orgovány,Bács-Kiskun,BK,46.7486,19.4736
6078,Jakabszállás,Bács-Kiskun,BK,46.7603,19.6072
6080,Szabadszállás,Bács-Kiskun,BK,46.8728,19.2242
6085,Fülöpszállás,Bács-Kiskun,BK,46.8178,19.2386
6086,Szalkszentmárton,Bács-Kiskun,BK,46.9742,19.02
6087,Dunavecse,Bács-Kiskun,BK,46.9167,18.9833
6088,Apostag,Bács-Kiskun,BK,46.8833,18.95
6090,Kunszentmiklós,Bács-Kiskun,BK,47.0333,19.1333
6093,Kunszentmiklós,Bács-Kiskun,BK,47.0333,19.1333
6096,Kunpeszér,Bács-Kiskun,BK,47.0667,19.2833
6097,Kunadacs,Bács-Kiskun,BK,46.95,19.3167
6098,Tass,Bács-Kiskun,BK,47.0167,19.0333
6100,Kiskunfélegyháza,Bács-Kiskun,BK,46.7136,19.8522
6101,Kiskunfélegyháza,Bács-Kiskun,BK,46.7136,19.8522
6102,Kiskunfélegyháza,Bács-Kiskun,BK,46.7136,19.8522
6111,Gátér,Bács-Kiskun,BK,46.6833,19.9667
6112,Pálmonostora,Bács-Kiskun,BK,46.6278,19.9422
6113,Pet?fiszállás,Bács-Kiskun,BK,46.6167,19.8333
6114,Bugacpusztaháza,Bács-Kiskun,BK,46.6889,19.6794
6115,Kunszállás,Bács-Kiskun,BK,46.7667,19.75
6116,Fülöpjakab,Bács-Kiskun,BK,46.6767,19.8343
6120,Kiskunmajsa,Bács-Kiskun,BK,46.4903,19.74
6131,Szank,Bács-Kiskun,BK,46.5544,19.6722
6132,Móricgát,Bács-Kiskun,BK,46.4915,19.7487
6133,Jászszentlászló,Bács-Kiskun,BK,46.5681,19.7611
6134,Kömpöc,Bács-Kiskun,BK,46.4667,19.8667
6135,Csólyospálos,Bács-Kiskun,BK,46.4183,19.8436
6136,Harkakötöny,Bács-Kiskun,BK,46.45,19.6
6200,Kisk?rös,Bács-Kiskun,BK,46.6206,19.2886
6201,Kisk?rös,Bács-Kiskun,BK,46.6206,19.2886
6211,Kaskantyú,Bács-Kiskun,BK,46.6667,19.4
6221,Akasztó,Bács-Kiskun,BK,46.6917,19.2081
6222,Cseng?d,Bács-Kiskun,BK,46.7167,19.2667
6223,Soltszentimre,Bács-Kiskun,BK,46.7697,19.2831
6224,Tabdi,Bács-Kiskun,BK,46.6833,19.3
6230,Soltvadkert,Bács-Kiskun,BK,46.5781,19.3958
6235,Bócsa,Bács-Kiskun,BK,46.6,19.5
6236,Tázlár,Bács-Kiskun,BK,46.5486,19.5203
6237,Kecel,Bács-Kiskun,BK,46.5253,19.2519
6238,Imrehegy,Bács-Kiskun,BK,46.4833,19.3167
6239,Császártöltés,Bács-Kiskun,BK,46.4219,19.1836
6300,Kalocsa,Bács-Kiskun,BK,46.5339,18.9861
6301,Kalocsa,Bács-Kiskun,BK,46.5264,18.9858
6311,Öregcsert?,Bács-Kiskun,BK,46.5139,19.1117
6320,Solt,Bács-Kiskun,BK,46.7997,19.0161
6321,Újsolt,Bács-Kiskun,BK,46.8667,19.1167
6323,Dunaegyháza,Bács-Kiskun,BK,46.8333,18.95
6325,Dunatetétlen,Bács-Kiskun,BK,46.75,19.1167
6326,Harta,Bács-Kiskun,BK,46.6936,19.0314
6327,Harta,Bács-Kiskun,BK,46.6936,19.0314
6328,Dunapataj,Bács-Kiskun,BK,46.64,19.0022
6331,Fokt?,Bács-Kiskun,BK,46.5167,18.9167
6332,Uszód,Bács-Kiskun,BK,46.5667,18.9167
6333,Dunaszentbenedek,Bács-Kiskun,BK,46.6,18.9
6334,Géderlak,Bács-Kiskun,BK,46.6167,18.9167
6335,Ordas,Bács-Kiskun,BK,46.6333,18.95
6336,Szakmár,Bács-Kiskun,BK,46.5522,19.0742
6337,Újtelek,Bács-Kiskun,BK,46.59,19.0586
6341,Homokmégy,Bács-Kiskun,BK,46.4869,19.0744
6342,Drágszél,Bács-Kiskun,BK,46.4667,19.05
6343,Miske,Bács-Kiskun,BK,46.4417,19.0322
6344,Hajós,Bács-Kiskun,BK,46.3986,19.1206
6345,Nemesnádudvar,Bács-Kiskun,BK,46.3356,19.0531
6346,Sükösd,Bács-Kiskun,BK,46.2833,19
6347,Érsekcsanád,Bács-Kiskun,BK,46.25,18.9833
6348,Érsekhalma,Bács-Kiskun,BK,46.35,19.1167
6351,Bátya,Bács-Kiskun,BK,46.4833,18.95
6352,Fajsz,Bács-Kiskun,BK,46.4167,18.9167
6353,Dusnok,Bács-Kiskun,BK,46.3833,18.9667
6400,Kiskunhalas,Bács-Kiskun,BK,46.4314,19.4875
6401,Kiskunhalas,Bács-Kiskun,BK,46.4314,19.4875
6402,Kiskunhalas,Bács-Kiskun,BK,46.4314,19.4875
6411,Zsana,Bács-Kiskun,BK,46.4167,19.6833
6412,Balotaszállás,Bács-Kiskun,BK,46.35,19.5333
6413,Kunfehértó,Bács-Kiskun,BK,46.35,19.4167
6414,Pirtó,Bács-Kiskun,BK,46.5167,19.4333
6421,Kisszállás,Bács-Kiskun,BK,46.2783,19.4961
6422,Tompa,Bács-Kiskun,BK,46.2178,19.5422
6423,Kelebia,Bács-Kiskun,BK,46.1939,19.6119
6424,Csikéria,Bács-Kiskun,BK,46.1222,19.4789
6425,Bácssz?l?s,Bács-Kiskun,BK,46.15,19.45
6430,Bácsalmás,Bács-Kiskun,BK,46.1253,19.3361
6435,Kunbaja,Bács-Kiskun,BK,46.0836,19.4278
6440,Jánoshalma,Bács-Kiskun,BK,46.2986,19.3258
6444,Kéleshalom,Bács-Kiskun,BK,46.3667,19.25
6445,Borota,Bács-Kiskun,BK,46.2631,19.2253
6446,Rém,Bács-Kiskun,BK,46.2431,19.1461
6447,Fels?szentiván,Bács-Kiskun,BK,46.195,19.1903
6448,Csávoly,Bács-Kiskun,BK,46.1892,19.1467
6449,Mélykút,Bács-Kiskun,BK,46.2111,19.3869
6451,Tataháza,Bács-Kiskun,BK,46.1742,19.3061
6452,Mátételke,Bács-Kiskun,BK,46.1667,19.2833
6453,Bácsbokod,Bács-Kiskun,BK,46.1219,19.1589
6454,Bácsborsód,Bács-Kiskun,BK,46.0964,19.1581
6455,Katymár,Bács-Kiskun,BK,46.0322,19.2108
6456,Madaras,Bács-Kiskun,BK,46.055,19.2667
6500,Baja,Bács-Kiskun,BK,46.1833,18.9667
6501,Baja,Bács-Kiskun,BK,46.1833,18.9667
6502,Baja,Bács-Kiskun,BK,46.1833,18.9667
6503,Baja,Bács-Kiskun,BK,46.1833,18.9667
6511,Bácsszentgyörgy,Bács-Kiskun,BK,45.9722,19.0389
6512,Szeremle,Bács-Kiskun,BK,46.15,18.8833
6513,Dunafalva,Bács-Kiskun,BK,46.0611,18.9611
6521,Vaskút,Bács-Kiskun,BK,46.1167,18.9833
6522,Gara,Bács-Kiskun,BK,46.0319,19.0428
6523,Csátalja,Bács-Kiskun,BK,46.0333,18.95
6524,Dávod,Bács-Kiskun,BK,45.995,18.9172
6525,Hercegszántó,Bács-Kiskun,BK,45.95,18.9392
6527,Nagybaracska,Bács-Kiskun,BK,46.05,18.9
6528,Bátmonostor,Bács-Kiskun,BK,46.1,18.9333
1011,Budapest,Budapest,BU,47.5011,19.0469
1012,Budapest,Budapest,BU,47.5,19.0833
1013,Budapest,Budapest,BU,47.4961,19.0309
1014,Budapest,Budapest,BU,47.5034,19.0349
1015,Budapest,Budapest,BU,47.5,19.0833
1016,Budapest,Budapest,BU,47.48,19.02
1021,Budapest,Budapest,BU,47.496,19.0771
1022,Budapest,Budapest,BU,47.5,19.0833
1023,Budapest,Budapest,BU,47.521,19.0347
1024,Budapest,Budapest,BU,47.507,19.0569
1025,Budapest,Budapest,BU,47.403,19.0915
1026,Budapest,Budapest,BU,47.5117,19.0131
1027,Budapest,Budapest,BU,47.5083,19.0386
1028,Budapest,Budapest,BU,47.5,19.0833
1029,Budapest,Budapest,BU,47.5,19.0833
1031,Budapest,Budapest,BU,47.5729,19.0538
1032,Budapest,Budapest,BU,47.5,19.0833
1033,Budapest,Budapest,BU,47.5,19.0833
1034,Budapest,Budapest,BU,47.5,19.0833
1035,Budapest,Budapest,BU,47.5,19.0833
1036,Budapest,Budapest,BU,47.5328,19.0419
1037,Budapest,Budapest,BU,47.5,19.0833
1038,Budapest,Budapest,BU,47.5915,19.0486
1039,Budapest,Budapest,BU,47.5562,19.0684
1041,Budapest,Budapest,BU,47.5,19.0833
1042,Budapest,Budapest,BU,47.5,19.0833
1043,Budapest,Budapest,BU,47.5,19.0833
1044,Budapest,Budapest,BU,47.5,19.0833
1045,Budapest,Budapest,BU,47.5,19.0833
1046,Budapest,Budapest,BU,47.5,19.0833
1047,Budapest,Budapest,BU,47.5,19.0833
1048,Budapest,Budapest,BU,47.5,19.0833
1051,Budapest,Budapest,BU,47.4986,19.0499
1052,Budapest,Budapest,BU,47.4968,19.0555
1053,Budapest,Budapest,BU,47.4839,19.0597
1054,Budapest,Budapest,BU,47.5068,19.0526
1055,Budapest,Budapest,BU,47.5,19.0833
1056,Budapest,Budapest,BU,47.4926,19.0516
1061,Budapest,Budapest,BU,47.4996,19.0574
1062,Budapest,Budapest,BU,47.525,19.0766
1063,Budapest,Budapest,BU,47.5102,19.0702
1064,Budapest,Budapest,BU,47.5062,19.069
1065,Budapest,Budapest,BU,47.4767,19.0851
1066,Budapest,Budapest,BU,47.5075,19.0589
1067,Budapest,Budapest,BU,47.5077,19.0602
1068,Budapest,Budapest,BU,47.5096,19.0717
1071,Budapest,Budapest,BU,47.5,19.0833
1072,Budapest,Budapest,BU,47.4997,19.0716
1073,Budapest,Budapest,BU,47.4992,19.0718
1074,Budapest,Budapest,BU,47.4768,19.071
1075,Budapest,Budapest,BU,47.4971,19.0566
1076,Budapest,Budapest,BU,47.5,19.0833
1077,Budapest,Budapest,BU,47.5007,19.0786
1078,Budapest,Budapest,BU,47.5034,19.0821
1081,Budapest,Budapest,BU,47.4946,19.0776
1082,Budapest,Budapest,BU,47.514,19.0788
1083,Budapest,Budapest,BU,47.5,19.0833
1084,Budapest,Budapest,BU,47.5,19.0833
1085,Budapest,Budapest,BU,47.497,19.0756
1086,Budapest,Budapest,BU,47.5,19.0833
1087,Budapest,Budapest,BU,47.4996,19.0817
1088,Budapest,Budapest,BU,47.4902,19.0905
1089,Budapest,Budapest,BU,47.4935,19.0882
1091,Budapest,Budapest,BU,47.5,19.0833
1092,Budapest,Budapest,BU,47.5,19.0833
1093,Budapest,Budapest,BU,47.4919,19.0691
1094,Budapest,Budapest,BU,47.481,19.0724
1095,Budapest,Budapest,BU,47.4845,19.0492
1096,Budapest,Budapest,BU,47.5,19.0833
1097,Budapest,Budapest,BU,47.4892,19.074
1098,Budapest,Budapest,BU,47.5,19.0833
1101,Budapest,Budapest,BU,47.5,19.0833
1102,Budapest,Budapest,BU,47.5,19.0833
1103,Budapest,Budapest,BU,47.5,19.0833
1104,Budapest,Budapest,BU,47.5,19.0833
1105,Budapest,Budapest,BU,47.5,19.0833
1106,Budapest,Budapest,BU,47.5032,19.1367
1107,Budapest,Budapest,BU,47.5,19.0833
1108,Budapest,Budapest,BU,47.5,19.0833
1111,Budapest,Budapest,BU,47.482,19.0536
1112,Budapest,Budapest,BU,47.4734,19.0076
1113,Budapest,Budapest,BU,47.4748,19.037
1114,Budapest,Budapest,BU,47.5,19.0833
1115,Budapest,Budapest,BU,47.5,19.0833
1116,Budapest,Budapest,BU,47.444,19.041
1117,Budapest,Budapest,BU,47.501,19.038
1118,Budapest,Budapest,BU,47.4846,19.0334
1119,Budapest,Budapest,BU,47.4571,19.0402
1121,Budapest,Budapest,BU,47.5014,19.0078
1122,Budapest,Budapest,BU,47.5,19.0833
1123,Budapest,Budapest,BU,47.4942,19.024
1124,Budapest,Budapest,BU,47.5,19.0833
1125,Budapest,Budapest,BU,47.5,19.0833
1126,Budapest,Budapest,BU,47.5,19.0833
1131,Budapest,Budapest,BU,47.5,19.0833
1132,Budapest,Budapest,BU,47.4968,19.0776
1133,Budapest,Budapest,BU,47.5223,19.0564
1134,Budapest,Budapest,BU,47.5243,19.0647
1135,Budapest,Budapest,BU,47.5354,19.0818
1136,Budapest,Budapest,BU,47.5,19.0833
1137,Budapest,Budapest,BU,47.5086,19.0624
1138,Budapest,Budapest,BU,47.5239,19.0455
1139,Budapest,Budapest,BU,47.5,19.0833
1141,Budapest,Budapest,BU,47.4992,19.0688
1142,Budapest,Budapest,BU,47.515,19.0936
1143,Budapest,Budapest,BU,47.5139,19.1268
1144,Budapest,Budapest,BU,47.5,19.0833
1145,Budapest,Budapest,BU,47.5141,19.1038
1146,Budapest,Budapest,BU,47.5067,19.0836
1147,Budapest,Budapest,BU,47.5,19.0833
1148,Budapest,Budapest,BU,47.504,19.1192
1149,Budapest,Budapest,BU,47.5139,19.1268
1151,Budapest,Budapest,BU,47.5,19.0833
1152,Budapest,Budapest,BU,47.5481,19.1306
1153,Budapest,Budapest,BU,47.5,19.0833
1154,Budapest,Budapest,BU,47.5,19.0833
1155,Budapest,Budapest,BU,47.5,19.0833
1156,Budapest,Budapest,BU,47.5,19.0833
1157,Budapest,Budapest,BU,47.5,19.0833
1158,Budapest,Budapest,BU,47.5,19.0833
1161,Budapest,Budapest,BU,47.5,19.0833
1162,Budapest,Budapest,BU,47.5,19.0833
1163,Budapest,Budapest,BU,47.5,19.0833
1164,Budapest,Budapest,BU,47.5,19.0833
1165,Budapest,Budapest,BU,47.5,19.0833
1171,Budapest,Budapest,BU,47.5,19.0833
1172,Budapest,Budapest,BU,47.5,19.0833
1173,Budapest,Budapest,BU,47.5231,19.0554
1174,Budapest,Budapest,BU,47.5,19.0833
1181,Budapest,Budapest,BU,47.5,19.0833
1182,Budapest,Budapest,BU,47.5,19.0833
1183,Budapest,Budapest,BU,47.5,19.0833
1184,Budapest,Budapest,BU,47.5,19.0833
1185,Budapest,Budapest,BU,47.5,19.0833
1186,Budapest,Budapest,BU,47.5,19.0833
1188,Budapest,Budapest,BU,47.5,19.0833
1191,Budapest,Budapest,BU,47.5,19.0833
1192,Budapest,Budapest,BU,47.5,19.0833
1193,Budapest,Budapest,BU,47.5,19.0833
1194,Budapest,Budapest,BU,47.5,19.0833
1195,Budapest,Budapest,BU,47.5,19.0833
1196,Budapest,Budapest,BU,47.5,19.0833
1201,Budapest,Budapest,BU,47.5,19.0833
1202,Budapest,Budapest,BU,47.5,19.0833
1203,Budapest,Budapest,BU,47.5,19.0833
1204,Budapest,Budapest,BU,47.5,19.0833
1205,Budapest,Budapest,BU,47.5,19.0833
1211,Budapest,Budapest,BU,47.5,19.0833
1212,Budapest,Budapest,BU,47.484,19.123
1213,Budapest,Budapest,BU,47.5,19.0833
1214,Budapest,Budapest,BU,47.5,19.0833
1215,Budapest,Budapest,BU,47.5,19.0833
1221,Budapest,Budapest,BU,47.5,19.0833
1222,Budapest,Budapest,BU,47.5,19.0833
1223,Budapest,Budapest,BU,47.5,19.0833
1224,Budapest,Budapest,BU,47.5,19.0833
1225,Budapest,Budapest,BU,47.5,19.0833
1237,Budapest,Budapest,BU,47.5,19.0833
1238,Budapest,Budapest,BU,47.5,19.0833
1239,Budapest,Budapest,BU,47.5,19.0833
1529,Budapest,Budapest,BU,47.5,19.0833
3400,Mez?kövesd,Borsod-Abaúj-Zemplén,BZ,47.8167,20.5833
3401,Mez?kövesd,Borsod-Abaúj-Zemplén,BZ,47.8167,20.5833
3402,Mez?kövesd,Borsod-Abaúj-Zemplén,BZ,47.8167,20.5833
3411,Szomolya,Borsod-Abaúj-Zemplén,BZ,47.9,20.5
3412,Bogács,Borsod-Abaúj-Zemplén,BZ,47.9,20.5333
3413,Cserépfalu,Borsod-Abaúj-Zemplén,BZ,47.9333,20.5333
3414,Bükkzsérc,Borsod-Abaúj-Zemplén,BZ,47.9667,20.5
3416,Tard,Borsod-Abaúj-Zemplén,BZ,47.8833,20.6167
3417,Cserépváralja,Borsod-Abaúj-Zemplén,BZ,47.9333,20.5667
3418,Szentistván,Borsod-Abaúj-Zemplén,BZ,47.7667,20.6667
3421,Mez?nyárád,Borsod-Abaúj-Zemplén,BZ,47.8667,20.6833
3422,Bükkábrány,Borsod-Abaúj-Zemplén,BZ,47.8833,20.6833
3423,Tibolddaróc,Borsod-Abaúj-Zemplén,BZ,47.9167,20.6333
3424,Kács,Borsod-Abaúj-Zemplén,BZ,47.95,20.6167
3425,Sály,Borsod-Abaúj-Zemplén,BZ,47.95,20.6667
3426,Borsodgeszt,Borsod-Abaúj-Zemplén,BZ,47.95,20.7
3431,Vatta,Borsod-Abaúj-Zemplén,BZ,47.9167,20.75
3432,Em?d,Borsod-Abaúj-Zemplén,BZ,47.9333,20.8167
3433,Nyékládháza,Borsod-Abaúj-Zemplén,BZ,47.9833,20.8333
3434,Mályi,Borsod-Abaúj-Zemplén,BZ,48.0167,20.8333
3435,Mályi,Borsod-Abaúj-Zemplén,BZ,48.0167,20.8333
3441,Mez?keresztes,Borsod-Abaúj-Zemplén,BZ,47.8333,20.7
3442,Csincse,Borsod-Abaúj-Zemplén,BZ,47.8833,20.7667
3443,Mez?nagymihály,Borsod-Abaúj-Zemplén,BZ,47.8167,20.7333
3444,Gelej,Borsod-Abaúj-Zemplén,BZ,47.8333,20.7833
3450,Mez?csát,Borsod-Abaúj-Zemplén,BZ,47.8167,20.9167
3458,Tiszakeszi,Borsod-Abaúj-Zemplén,BZ,47.7833,21
3459,Igrici,Borsod-Abaúj-Zemplén,BZ,47.8667,20.8833
3461,Egerlöv?,Borsod-Abaúj-Zemplén,BZ,47.7167,20.6333
3462,Borsodivánka,Borsod-Abaúj-Zemplén,BZ,47.7,20.6667
3463,Négyes,Borsod-Abaúj-Zemplén,BZ,47.7,20.7167
3464,Tiszavalk,Borsod-Abaúj-Zemplén,BZ,47.6833,20.75
3465,Tiszabábolna,Borsod-Abaúj-Zemplén,BZ,47.6833,20.8167
3466,Tiszadorogma,Borsod-Abaúj-Zemplén,BZ,47.6833,20.8667
3467,Árokt?,Borsod-Abaúj-Zemplén,BZ,47.7333,20.95
3500,Miskolc,Borsod-Abaúj-Zemplén,BZ,47.9804,20.9354
3501,Miskolc,Borsod-Abaúj-Zemplén,BZ,47.9804,20.9354
3502,Miskolc,Borsod-Abaúj-Zemplén,BZ,47.9804,20.9354
3503,Miskolc,Borsod-Abaúj-Zemplén,BZ,47.9804,20.9354
3504,Miskolc,Borsod-Abaúj-Zemplén,BZ,47.9804,20.9354
3505,Miskolc,Borsod-Abaúj-Zemplén,BZ,47.9804,20.9354
3506,Miskolc,Borsod-Abaúj-Zemplén,BZ,47.9804,20.9354
3507,Miskolc,Borsod-Abaúj-Zemplén,BZ,47.9804,20.9354
3508,Miskolc,Borsod-Abaúj-Zemplén,BZ,47.9804,20.9354
3509,Miskolc,Borsod-Abaúj-Zemplén,BZ,47.9804,20.9354
3510,Miskolc,Borsod-Abaúj-Zemplén,BZ,47.9804,20.9354
3511,Miskolc,Borsod-Abaúj-Zemplén,BZ,47.9804,20.9354
3513,Miskolc,Borsod-Abaúj-Zemplén,BZ,47.9804,20.9354
3514,Miskolc,Borsod-Abaúj-Zemplén,BZ,47.9804,20.9354
3515,Miskolc,Borsod-Abaúj-Zemplén,BZ,47.9804,20.9354
3516,Miskolc,Borsod-Abaúj-Zemplén,BZ,47.9804,20.9354
3517,Miskolc,Borsod-Abaúj-Zemplén,BZ,47.9804,20.9354
3518,Miskolc,Borsod-Abaúj-Zemplén,BZ,47.9804,20.9354
3519,Miskolc,Borsod-Abaúj-Zemplén,BZ,47.9804,20.9354
3521,Miskolc,Borsod-Abaúj-Zemplén,BZ,47.9804,20.9354
3523,Miskolc,Borsod-Abaúj-Zemplén,BZ,47.9804,20.9354
3524,Miskolc,Borsod-Abaúj-Zemplén,BZ,47.9804,20.9354
3525,Miskolc,Borsod-Abaúj-Zemplén,BZ,47.9804,20.9354
3526,Miskolc,Borsod-Abaúj-Zemplén,BZ,47.9804,20.9354
3527,Miskolc,Borsod-Abaúj-Zemplén,BZ,47.9804,20.9354
3528,Miskolc,Borsod-Abaúj-Zemplén,BZ,47.9804,20.9354
3529,Miskolc,Borsod-Abaúj-Zemplén,BZ,47.9804,20.9354
3530,Miskolc,Borsod-Abaúj-Zemplén,BZ,47.9804,20.9354
3531,Miskolc,Borsod-Abaúj-Zemplén,BZ,47.9804,20.9354
3532,Miskolc,Borsod-Abaúj-Zemplén,BZ,47.9804,20.9354
3533,Miskolc,Borsod-Abaúj-Zemplén,BZ,47.9804,20.9354
3534,Miskolc,Borsod-Abaúj-Zemplén,BZ,47.9804,20.9354
3535,Miskolc,Borsod-Abaúj-Zemplén,BZ,47.9804,20.9354
3542,Miskolc,Borsod-Abaúj-Zemplén,BZ,47.9804,20.9354
3543,Miskolc,Borsod-Abaúj-Zemplén,BZ,47.9804,20.9354
3544,Miskolc,Borsod-Abaúj-Zemplén,BZ,47.9804,20.9354
3545,Miskolc,Borsod-Abaúj-Zemplén,BZ,47.9804,20.9354
3546,Miskolc,Borsod-Abaúj-Zemplén,BZ,47.9804,20.9354
3547,Miskolc,Borsod-Abaúj-Zemplén,BZ,47.9804,20.9354
3548,Miskolc,Borsod-Abaúj-Zemplén,BZ,47.9804,20.9354
3549,Miskolc,Borsod-Abaúj-Zemplén,BZ,47.9804,20.9354
3551,Ónod,Borsod-Abaúj-Zemplén,BZ,48,20.9167
3552,Muhi,Borsod-Abaúj-Zemplén,BZ,47.9833,20.9333
3553,Kistokaj,Borsod-Abaúj-Zemplén,BZ,48.05,20.85
3554,Bükkaranyos,Borsod-Abaúj-Zemplén,BZ,47.9833,20.7833
3555,Harsány,Borsod-Abaúj-Zemplén,BZ,47.9667,20.75
3556,Kisgy?r,Borsod-Abaúj-Zemplén,BZ,48.0167,20.7
3557,Bükkszentkereszt,Borsod-Abaúj-Zemplén,BZ,48.0667,20.6333
3559,Répáshuta,Borsod-Abaúj-Zemplén,BZ,48.05,20.5333
3561,Fels?zsolca,Borsod-Abaúj-Zemplén,BZ,48.1,20.8667
3562,Onga,Borsod-Abaúj-Zemplén,BZ,48.1167,20.9167
3563,Hernádkak,Borsod-Abaúj-Zemplén,BZ,48.0833,20.9667
3564,Hernádnémeti,Borsod-Abaúj-Zemplén,BZ,48.0667,20.9833
3565,Tiszalúc,Borsod-Abaúj-Zemplén,BZ,48.0333,21.0833
3571,Alsózsolca,Borsod-Abaúj-Zemplén,BZ,48.0667,20.8833
3572,Sajólád,Borsod-Abaúj-Zemplén,BZ,48.05,20.9
3573,Sajópetri,Borsod-Abaúj-Zemplén,BZ,48.0333,20.9
3574,B?cs,Borsod-Abaúj-Zemplén,BZ,48.05,20.9667
3575,Berzék,Borsod-Abaúj-Zemplén,BZ,48.0167,20.95
3576,Sajóhidvég,Borsod-Abaúj-Zemplén,BZ,48,20.95
3577,Köröm,Borsod-Abaúj-Zemplén,BZ,47.9833,20.95
3578,Girincs,Borsod-Abaúj-Zemplén,BZ,47.9667,20.9833
3579,Kesznyéten,Borsod-Abaúj-Zemplén,BZ,47.9667,21.05
3580,Tiszaújváros,Borsod-Abaúj-Zemplén,BZ,47.9333,21.0833
3581,Tiszaújváros,Borsod-Abaúj-Zemplén,BZ,47.9333,21.0833
3582,Tiszaújváros,Borsod-Abaúj-Zemplén,BZ,47.9333,21.0833
3585,Tiszaújváros,Borsod-Abaúj-Zemplén,BZ,47.9333,21.0833
3586,Sajóörös,Borsod-Abaúj-Zemplén,BZ,47.95,21.0333
3587,Tiszapalkonya,Borsod-Abaúj-Zemplén,BZ,47.8833,21.0667
3588,Hej?kürt,Borsod-Abaúj-Zemplén,BZ,47.8667,21
3589,Tiszatarján,Borsod-Abaúj-Zemplén,BZ,47.8333,21.0167
3591,Oszlár,Borsod-Abaúj-Zemplén,BZ,47.8833,21.0333
3592,Nemesbikk,Borsod-Abaúj-Zemplén,BZ,47.8833,20.9667
3593,Hej?bába,Borsod-Abaúj-Zemplén,BZ,47.9,20.95
3594,Hej?papi,Borsod-Abaúj-Zemplén,BZ,47.9,20.9167
3595,Hej?szalonta,Borsod-Abaúj-Zemplén,BZ,47.9333,20.8833
3596,Szakáld,Borsod-Abaúj-Zemplén,BZ,47.95,20.9167
3597,Hej?keresztúr,Borsod-Abaúj-Zemplén,BZ,47.9667,20.8833
3598,Nagycsécs,Borsod-Abaúj-Zemplén,BZ,47.9667,20.95
3599,Sajószöged,Borsod-Abaúj-Zemplén,BZ,47.95,21
3600,Ózd,Borsod-Abaúj-Zemplén,BZ,48.2167,20.3
3601,Ózd,Borsod-Abaúj-Zemplén,BZ,48.2167,20.3
3603,Ózd,Borsod-Abaúj-Zemplén,BZ,48.2167,20.3
3604,Ózd,Borsod-Abaúj-Zemplén,BZ,48.2167,20.3
3607,Ózd,Borsod-Abaúj-Zemplén,BZ,48.2167,20.3
3608,Ózd,Borsod-Abaúj-Zemplén,BZ,48.2167,20.3
3621,Ózd,Borsod-Abaúj-Zemplén,BZ,48.2167,20.3
3622,Uppony,Borsod-Abaúj-Zemplén,BZ,48.2167,20.4333
3623,Borsodszentgyörgy,Borsod-Abaúj-Zemplén,BZ,48.1833,20.2
3625,Borsodszentgyörgy,Borsod-Abaúj-Zemplén,BZ,48.1833,20.2
3626,Hangony,Borsod-Abaúj-Zemplén,BZ,48.2333,20.2
3627,Kissikátor,Borsod-Abaúj-Zemplén,BZ,48.2,20.1333
3630,Putnok,Borsod-Abaúj-Zemplén,BZ,48.3,20.4333
3635,Dubicsány,Borsod-Abaúj-Zemplén,BZ,48.2833,20.5
3636,Sajógalgóc,Borsod-Abaúj-Zemplén,BZ,48.3,20.5333
3641,Nagybarca,Borsod-Abaúj-Zemplén,BZ,48.25,20.5333
3642,Bánhorváti,Borsod-Abaúj-Zemplén,BZ,48.2333,20.5167
3643,Dédestapolcsány,Borsod-Abaúj-Zemplén,BZ,48.1833,20.4833
3644,Tardona,Borsod-Abaúj-Zemplén,BZ,48.1667,20.5333
3645,Mályinka,Borsod-Abaúj-Zemplén,BZ,48.15,20.5
3646,Nekézseny,Borsod-Abaúj-Zemplén,BZ,48.1667,20.4333
3647,Csokvaomány,Borsod-Abaúj-Zemplén,BZ,48.1667,20.3833
3648,Csernely,Borsod-Abaúj-Zemplén,BZ,48.15,20.35
3651,Lénárddaróc,Borsod-Abaúj-Zemplén,BZ,48.15,20.3833
3652,Sajónémeti,Borsod-Abaúj-Zemplén,BZ,48.2667,20.3833
3653,Sajópüspöki,Borsod-Abaúj-Zemplén,BZ,48.2833,20.35
3654,Bánréve,Borsod-Abaúj-Zemplén,BZ,48.3,20.3667
3655,Hét,Borsod-Abaúj-Zemplén,BZ,48.2833,20.3833
3656,Sajóvelezd,Borsod-Abaúj-Zemplén,BZ,48.2667,20.4667
3657,Királd,Borsod-Abaúj-Zemplén,BZ,48.25,20.4
3658,Borsodbóta,Borsod-Abaúj-Zemplén,BZ,48.2167,20.4
3659,Sáta,Borsod-Abaúj-Zemplén,BZ,48.1833,20.4
3661,Sáta,Borsod-Abaúj-Zemplén,BZ,48.1833,20.4
3662,Sáta,Borsod-Abaúj-Zemplén,BZ,48.1833,20.4
3663,Arló,Borsod-Abaúj-Zemplén,BZ,48.1833,20.2667
3664,Járdánháza,Borsod-Abaúj-Zemplén,BZ,48.15,20.25
3671,Borsodnádasd,Borsod-Abaúj-Zemplén,BZ,48.1167,20.25
3672,Borsodnádasd,Borsod-Abaúj-Zemplén,BZ,48.1167,20.25
3700,Kazincbarcika,Borsod-Abaúj-Zemplén,BZ,48.25,20.6333
3701,Kazincbarcika,Borsod-Abaúj-Zemplén,BZ,48.25,20.6333
3702,Kazincbarcika,Borsod-Abaúj-Zemplén,BZ,48.25,20.6333
3703,Kazincbarcika,Borsod-Abaúj-Zemplén,BZ,48.25,20.6333
3704,Kazincbarcika,Borsod-Abaúj-Zemplén,BZ,48.25,20.6333
3705,Kazincbarcika,Borsod-Abaúj-Zemplén,BZ,48.25,20.6333
3711,Szirmabeseny?,Borsod-Abaúj-Zemplén,BZ,48.15,20.8
3712,Sajóvámos,Borsod-Abaúj-Zemplén,BZ,48.1833,20.85
3713,Arnót,Borsod-Abaúj-Zemplén,BZ,48.1333,20.8667
3714,Sajópálfala,Borsod-Abaúj-Zemplén,BZ,48.1667,20.85
3715,Gesztely,Borsod-Abaúj-Zemplén,BZ,48.1,20.9667
3716,Sóstófalva,Borsod-Abaúj-Zemplén,BZ,48.15,21
3717,Alsódobsza,Borsod-Abaúj-Zemplén,BZ,48.1833,21
3718,Megyaszó,Borsod-Abaúj-Zemplén,BZ,48.1833,21.05
3720,Sajókaza,Borsod-Abaúj-Zemplén,BZ,48.2833,20.5833
3721,Dövény,Borsod-Abaúj-Zemplén,BZ,48.35,20.55
3722,Fels?kelecsény,Borsod-Abaúj-Zemplén,BZ,48.3667,20.6
3723,Zubogy,Borsod-Abaúj-Zemplén,BZ,48.3833,20.5833
3724,Imola,Borsod-Abaúj-Zemplén,BZ,48.4167,20.55
3726,Zádorfalva,Borsod-Abaúj-Zemplén,BZ,48.3833,20.4833
3728,Kelemér,Borsod-Abaúj-Zemplén,BZ,48.35,20.4333
3729,Serényfalva,Borsod-Abaúj-Zemplén,BZ,48.3167,20.4
3731,Szuhakálló,Borsod-Abaúj-Zemplén,BZ,48.2833,20.6667
3732,Kurityán,Borsod-Abaúj-Zemplén,BZ,48.3167,20.6333
3733,Rudabánya,Borsod-Abaúj-Zemplén,BZ,48.3833,20.6333
3734,Szuhogy,Borsod-Abaúj-Zemplén,BZ,48.3833,20.6833
3735,Fels?telekes,Borsod-Abaúj-Zemplén,BZ,48.4,20.6333
3741,Izsófalva,Borsod-Abaúj-Zemplén,BZ,48.3,20.6667
3742,Rudolftelep,Borsod-Abaúj-Zemplén,BZ,48.3167,20.6833
3743,Ormosbánya,Borsod-Abaúj-Zemplén,BZ,48.35,20.65
3744,Múcsony,Borsod-Abaúj-Zemplén,BZ,48.2667,20.6833
3751,Szendr?lád,Borsod-Abaúj-Zemplén,BZ,48.35,20.75
3752,Galvács,Borsod-Abaúj-Zemplén,BZ,48.4167,20.7833
3753,Abod,Borsod-Abaúj-Zemplén,BZ,48.4,20.8
3754,Meszes,Borsod-Abaúj-Zemplén,BZ,48.4333,20.8
3755,Martonyi,Borsod-Abaúj-Zemplén,BZ,48.4667,20.7667
3756,Perkupa,Borsod-Abaúj-Zemplén,BZ,48.4667,20.7
3757,Égerszög,Borsod-Abaúj-Zemplén,BZ,48.45,20.5833
3758,Jósvaf?,Borsod-Abaúj-Zemplén,BZ,48.4833,20.5667
3759,Aggtelek,Borsod-Abaúj-Zemplén,BZ,48.4667,20.5167
3761,Szinpetri,Borsod-Abaúj-Zemplén,BZ,48.4833,20.6333
3762,Szögliget,Borsod-Abaúj-Zemplén,BZ,48.5167,20.6833
3763,Bódvaszilas,Borsod-Abaúj-Zemplén,BZ,48.5333,20.7333
3764,Bódvarákó,Borsod-Abaúj-Zemplén,BZ,48.5167,20.75
3765,Komjáti,Borsod-Abaúj-Zemplén,BZ,48.55,20.7667
3767,Tornanádaska,Borsod-Abaúj-Zemplén,BZ,48.5667,20.7833
3768,Hidvégardó,Borsod-Abaúj-Zemplén,BZ,48.5667,20.85
3769,Tornaszentjakab,Borsod-Abaúj-Zemplén,BZ,48.5167,20.8833
3770,Sajószentpéter,Borsod-Abaúj-Zemplén,BZ,48.2167,20.7167
3773,Sajókápolna,Borsod-Abaúj-Zemplén,BZ,48.2,20.7
3775,Kondó,Borsod-Abaúj-Zemplén,BZ,48.2,20.65
3776,Radostyán,Borsod-Abaúj-Zemplén,BZ,48.1833,20.6667
3777,Parasznya,Borsod-Abaúj-Zemplén,BZ,48.1667,20.65
3778,Varbó,Borsod-Abaúj-Zemplén,BZ,48.1667,20.6333
3779,Alacska,Borsod-Abaúj-Zemplén,BZ,48.2167,20.65
3780,Edelény,Borsod-Abaúj-Zemplén,BZ,48.3,20.7333
3783,Ládbeseny?,Borsod-Abaúj-Zemplén,BZ,48.3,20.7333
3786,Hegymeg,Borsod-Abaúj-Zemplén,BZ,48.3333,20.8667
3787,Tomor,Borsod-Abaúj-Zemplén,BZ,48.3333,20.8833
3791,Sajókeresztúr,Borsod-Abaúj-Zemplén,BZ,48.1667,20.7833
3792,Sajóbábony,Borsod-Abaúj-Zemplén,BZ,48.1667,20.7333
3793,Sajóecseg,Borsod-Abaúj-Zemplén,BZ,48.2,20.7833
3794,Ziliz,Borsod-Abaúj-Zemplén,BZ,48.25,20.8
3795,Nyomár,Borsod-Abaúj-Zemplén,BZ,48.2833,20.8167
3796,Borsodszirák,Borsod-Abaúj-Zemplén,BZ,48.2667,20.7667
3800,Szikszó,Borsod-Abaúj-Zemplén,BZ,48.2,20.9333
3809,Abaújszolnok,Borsod-Abaúj-Zemplén,BZ,48.3667,20.9833
3811,Alsóvadász,Borsod-Abaúj-Zemplén,BZ,48.25,20.9167
3812,Homrogd,Borsod-Abaúj-Zemplén,BZ,48.2833,20.9167
3813,Kupa,Borsod-Abaúj-Zemplén,BZ,48.3333,20.9167
3814,Fels?vadász,Borsod-Abaúj-Zemplén,BZ,48.3667,20.9333
3815,Gadna,Borsod-Abaúj-Zemplén,BZ,48.4,20.9333
3816,Gagyvendégi,Borsod-Abaúj-Zemplén,BZ,48.4333,20.9833
3817,Gagybátor,Borsod-Abaúj-Zemplén,BZ,48.4333,20.95
3821,Perecse,Borsod-Abaúj-Zemplén,BZ,48.5,21
3825,Viszló,Borsod-Abaúj-Zemplén,BZ,48.5,20.9
3826,Rakacaszend,Borsod-Abaúj-Zemplén,BZ,48.4667,20.85
3831,Kázsmárk,Borsod-Abaúj-Zemplén,BZ,48.2833,20.9833
3832,Léh,Borsod-Abaúj-Zemplén,BZ,48.2833,20.9833
3833,Rásonysápberencs,Borsod-Abaúj-Zemplén,BZ,48.3167,21
3834,Detek,Borsod-Abaúj-Zemplén,BZ,48.3333,21.0333
3836,Baktakék,Borsod-Abaúj-Zemplén,BZ,48.3833,21.0333
3837,Gagyapáti,Borsod-Abaúj-Zemplén,BZ,48.4167,21
3841,Aszaló,Borsod-Abaúj-Zemplén,BZ,48.2167,20.9667
3842,Halmaj,Borsod-Abaúj-Zemplén,BZ,48.25,21
3843,Kiskinizs,Borsod-Abaúj-Zemplén,BZ,48.25,21.05
3844,Nagykinizs,Borsod-Abaúj-Zemplén,BZ,48.2333,21.0333
3846,Hernádkércs,Borsod-Abaúj-Zemplén,BZ,48.25,21.05
3847,Fels?dobsza,Borsod-Abaúj-Zemplén,BZ,48.2667,21.0667
3848,Csobád,Borsod-Abaúj-Zemplén,BZ,48.2833,21.0333
3849,Forró,Borsod-Abaúj-Zemplén,BZ,48.3167,21.0833
3851,Ináncs,Borsod-Abaúj-Zemplén,BZ,48.2833,21.0667
3852,Hernádszentandrás,Borsod-Abaúj-Zemplén,BZ,48.2833,21.1
3853,Hernádb?d,Borsod-Abaúj-Zemplén,BZ,48.3,21.1333
3854,Hernádb?d,Borsod-Abaúj-Zemplén,BZ,48.3,21.1333
3855,Fancsal,Borsod-Abaúj-Zemplén,BZ,48.35,21.0667
3860,Encs,Borsod-Abaúj-Zemplén,BZ,48.3333,21.1333
3861,Encs,Borsod-Abaúj-Zemplén,BZ,48.3333,21.1333
3863,Szalaszend,Borsod-Abaúj-Zemplén,BZ,48.3833,21.1333
3864,Fulókércs,Borsod-Abaúj-Zemplén,BZ,48.4333,21.1167
3865,Fáj,Borsod-Abaúj-Zemplén,BZ,48.4167,21.0833
3866,Szemere,Borsod-Abaúj-Zemplén,BZ,48.4667,21.1
3871,Méra,Borsod-Abaúj-Zemplén,BZ,48.35,21.15
3872,Novajidrány,Borsod-Abaúj-Zemplén,BZ,48.4,21.1833
3873,Garadna,Borsod-Abaúj-Zemplén,BZ,48.4167,21.1833
3874,Hernádvécse,Borsod-Abaúj-Zemplén,BZ,48.45,21.1667
3875,Hernádszurdok,Borsod-Abaúj-Zemplén,BZ,48.4833,21.2167
3876,Hidasnémeti,Borsod-Abaúj-Zemplén,BZ,48.5,21.2333
3877,Tornyosnémeti,Borsod-Abaúj-Zemplén,BZ,48.5167,21.2667
3881,Sima,Borsod-Abaúj-Zemplén,BZ,48.3,21.3
3882,Abaújalpár,Borsod-Abaúj-Zemplén,BZ,48.3167,21.2333
3884,Boldogk?újfalu,Borsod-Abaúj-Zemplén,BZ,48.3167,21.25
3885,Arka,Borsod-Abaúj-Zemplén,BZ,48.35,21.25
3886,Korlát,Borsod-Abaúj-Zemplén,BZ,48.3833,21.25
3887,Hernádcéce,Borsod-Abaúj-Zemplén,BZ,48.35,21.2
3888,Vizsoly,Borsod-Abaúj-Zemplén,BZ,48.3833,21.2167
3891,Vilmány,Borsod-Abaúj-Zemplén,BZ,48.4167,21.2333
3892,Hejce,Borsod-Abaúj-Zemplén,BZ,48.4333,21.2833
3893,Mogyoróska,Borsod-Abaúj-Zemplén,BZ,48.3833,21.3333
3894,Göncruszka,Borsod-Abaúj-Zemplén,BZ,48.45,21.25
3895,Gönc,Borsod-Abaúj-Zemplén,BZ,48.4667,21.2833
3896,Telkibánya,Borsod-Abaúj-Zemplén,BZ,48.4833,21.3667
3897,Zsujta,Borsod-Abaúj-Zemplén,BZ,48.5,21.2833
3898,Pányok,Borsod-Abaúj-Zemplén,BZ,48.5333,21.3667
3899,Kéked,Borsod-Abaúj-Zemplén,BZ,48.55,21.35
3900,Szerencs,Borsod-Abaúj-Zemplén,BZ,48.1667,21.2
3901,Szerencs,Borsod-Abaúj-Zemplén,BZ,48.1667,21.2
3903,Bekecs,Borsod-Abaúj-Zemplén,BZ,48.15,21.1833
3904,Legyesbénye,Borsod-Abaúj-Zemplén,BZ,48.1667,21.15
3905,Monok,Borsod-Abaúj-Zemplén,BZ,48.2167,21.15
3906,Golop,Borsod-Abaúj-Zemplén,BZ,48.2333,21.2
3907,Tállya,Borsod-Abaúj-Zemplén,BZ,48.2333,21.2333
3908,Rátka,Borsod-Abaúj-Zemplén,BZ,48.2167,21.2333
3909,Mád,Borsod-Abaúj-Zemplén,BZ,48.2,21.2833
3910,Tokaj,Borsod-Abaúj-Zemplén,BZ,48.1167,21.4167
3911,Tokaj,Borsod-Abaúj-Zemplén,BZ,48.1167,21.4167
3915,Tarcal,Borsod-Abaúj-Zemplén,BZ,48.1333,21.35
3916,Bodrogkeresztúr,Borsod-Abaúj-Zemplén,BZ,48.1667,21.3667
3917,Bodrogkisfalud,Borsod-Abaúj-Zemplén,BZ,48.1833,21.3667
3918,Szegilong,Borsod-Abaúj-Zemplén,BZ,48.2167,21.4
3921,Taktaszada,Borsod-Abaúj-Zemplén,BZ,48.1167,21.1833
3922,Taktaharkány,Borsod-Abaúj-Zemplén,BZ,48.0833,21.1333
3923,Taktaharkány,Borsod-Abaúj-Zemplén,BZ,48.0833,21.1333
3924,Taktakenéz,Borsod-Abaúj-Zemplén,BZ,48.05,21.2167
3925,Prügy,Borsod-Abaúj-Zemplén,BZ,48.0833,21.25
3926,Taktabáj,Borsod-Abaúj-Zemplén,BZ,48.0667,21.3167
3927,Csobaj,Borsod-Abaúj-Zemplén,BZ,48.05,21.35
3928,Tiszatardos,Borsod-Abaúj-Zemplén,BZ,48.05,21.3833
3929,Tiszaladány,Borsod-Abaúj-Zemplén,BZ,48.0667,21.4167
3931,Mez?zombor,Borsod-Abaúj-Zemplén,BZ,48.15,21.2667
3932,Erd?bénye,Borsod-Abaúj-Zemplén,BZ,48.2667,21.3667
3933,Olaszliszka,Borsod-Abaúj-Zemplén,BZ,48.25,21.4333
3934,Tolcsva,Borsod-Abaúj-Zemplén,BZ,48.2833,21.45
3935,Erd?horváti,Borsod-Abaúj-Zemplén,BZ,48.3167,21.4333
3936,Háromhuta,Borsod-Abaúj-Zemplén,BZ,48.3833,21.4333
3937,Komlóska,Borsod-Abaúj-Zemplén,BZ,48.3333,21.4667
3941,Vámosújfalu,Borsod-Abaúj-Zemplén,BZ,48.2667,21.4667
3942,Sárazsadány,Borsod-Abaúj-Zemplén,BZ,48.2667,21.5
3943,Bodrogolaszi,Borsod-Abaúj-Zemplén,BZ,48.2833,21.5167
3944,Bodrogolaszi,Borsod-Abaúj-Zemplén,BZ,48.2833,21.5167
3945,Bodrogolaszi,Borsod-Abaúj-Zemplén,BZ,48.2833,21.5167
3950,Sárospatak,Borsod-Abaúj-Zemplén,BZ,48.3167,21.5833
3954,Györgytarló,Borsod-Abaúj-Zemplén,BZ,48.2,21.6667
3955,Kenézl?,Borsod-Abaúj-Zemplén,BZ,48.2,21.5333
3956,Viss,Borsod-Abaúj-Zemplén,BZ,48.2167,21.5167
3957,Zalkod,Borsod-Abaúj-Zemplén,BZ,48.1833,21.4667
3958,Hercegkút,Borsod-Abaúj-Zemplén,BZ,48.3333,21.5333
3959,Makkoshotyka,Borsod-Abaúj-Zemplén,BZ,48.35,21.5167
3961,Vajdácska,Borsod-Abaúj-Zemplén,BZ,48.3167,21.6667
3962,Karos,Borsod-Abaúj-Zemplén,BZ,48.3333,21.75
3963,Karcsa,Borsod-Abaúj-Zemplén,BZ,48.3167,21.8
3964,Pácin,Borsod-Abaúj-Zemplén,BZ,48.3333,21.8333
3965,Kisrozvágy,Borsod-Abaúj-Zemplén,BZ,48.35,21.95
3967,Lácacséke,Borsod-Abaúj-Zemplén,BZ,48.3667,22
3971,Tiszakarád,Borsod-Abaúj-Zemplén,BZ,48.2,21.7167
3972,Tiszacsermely,Borsod-Abaúj-Zemplén,BZ,48.2333,21.7833
3973,Cigánd,Borsod-Abaúj-Zemplén,BZ,48.25,21.9
3974,Ricse,Borsod-Abaúj-Zemplén,BZ,48.3333,21.9667
3976,Révleányvár,Borsod-Abaúj-Zemplén,BZ,48.3167,22.05
3977,Zemplénagárd,Borsod-Abaúj-Zemplén,BZ,48.35,22.0833
3978,Dámóc,Borsod-Abaúj-Zemplén,BZ,48.3667,22.0333
3980,Sátoraljaújhely,Borsod-Abaúj-Zemplén,BZ,48.4,21.6667
3981,Sátoraljaújhely,Borsod-Abaúj-Zemplén,BZ,48.4,21.6667
3985,Alsóberecki,Borsod-Abaúj-Zemplén,BZ,48.35,21.7
3987,Bodroghalom,Borsod-Abaúj-Zemplén,BZ,48.3,21.7167
3988,Bodroghalom,Borsod-Abaúj-Zemplén,BZ,48.3,21.7167
3989,Alsóregmec,Borsod-Abaúj-Zemplén,BZ,48.4667,21.6167
3991,Vilyvitány,Borsod-Abaúj-Zemplén,BZ,48.5,21.5667
3992,Kovácsvágás,Borsod-Abaúj-Zemplén,BZ,48.45,21.5333
3993,Füzérradvány,Borsod-Abaúj-Zemplén,BZ,48.4833,21.5333
3994,Kishuta,Borsod-Abaúj-Zemplén,BZ,48.45,21.4833
3995,Pusztafalu,Borsod-Abaúj-Zemplén,BZ,48.55,21.5
3996,Füzér,Borsod-Abaúj-Zemplén,BZ,48.55,21.4667
3997,Nyíri,Borsod-Abaúj-Zemplén,BZ,48.5,21.45
3999,Hollóháza,Borsod-Abaúj-Zemplén,BZ,48.55,21.4167
6600,Szentes,Csongrád,CS,46.65,20.2667
6601,Szentes,Csongrád,CS,46.65,20.2667
6602,Szentes,Csongrád,CS,46.65,20.2667
6603,Szentes,Csongrád,CS,46.65,20.2667
6612,Nagyt?ke,Csongrád,CS,46.7,20.2833
6621,Derekegyház,Csongrád,CS,46.5833,20.3667
6622,Nagymágocs,Csongrád,CS,46.5833,20.5
6623,Árpádhalom,Csongrád,CS,46.6167,20.55
6624,Eperjes,Csongrád,CS,46.6833,20.5667
6625,Fábiánsebestyén,Csongrád,CS,46.6833,20.4667
6630,Mindszent,Csongrád,CS,46.5333,20.2
6635,Szegvár,Csongrád,CS,46.5833,20.2333
6636,Mártély,Csongrád,CS,46.4833,20.2167
6640,Csongrád,Csongrád,CS,46.7,20.15
6641,Csongrád,Csongrád,CS,46.7,20.15
6642,Csongrád,Csongrád,CS,46.7,20.15
6645,Felgy?,Csongrád,CS,46.65,20.1
6646,Tömörkény,Csongrád,CS,46.6167,20.0333
6647,Csanytelek,Csongrád,CS,46.6,20.1167
6648,Csanytelek,Csongrád,CS,46.6,20.1167
6700,Szeged,Csongrád,CS,46.318,20.027
6701,Szeged,Csongrád,CS,46.318,20.027
6702,Szeged,Csongrád,CS,46.318,20.027
6703,Szeged,Csongrád,CS,46.318,20.027
6704,Szeged,Csongrád,CS,46.318,20.027
6705,Szeged,Csongrád,CS,46.318,20.027
6706,Szeged,Csongrád,CS,46.318,20.027
6707,Szeged,Csongrád,CS,46.318,20.027
6708,Szeged,Csongrád,CS,46.318,20.027
6709,Szeged,Csongrád,CS,46.318,20.027
6710,Szeged,Csongrád,CS,46.318,20.027
6712,Szeged,Csongrád,CS,46.318,20.027
6713,Szeged,Csongrád,CS,46.318,20.027
6717,Szeged,Csongrád,CS,46.318,20.027
6718,Szeged,Csongrád,CS,46.318,20.027
6719,Szeged,Csongrád,CS,46.318,20.027
6720,Szeged,Csongrád,CS,46.318,20.027
6721,Szeged,Csongrád,CS,46.318,20.027
6722,Szeged,Csongrád,CS,46.318,20.027
6723,Szeged,Csongrád,CS,46.318,20.027
6724,Szeged,Csongrád,CS,46.318,20.027
6725,Szeged,Csongrád,CS,46.318,20.027
6726,Szeged,Csongrád,CS,46.318,20.027
6727,Szeged,Csongrád,CS,46.318,20.027
6728,Szeged,Csongrád,CS,46.318,20.027
6729,Szeged,Csongrád,CS,46.318,20.027
6740,Szeged,Csongrád,CS,46.318,20.027
6741,Szeged,Csongrád,CS,46.318,20.027
6742,Szeged,Csongrád,CS,46.318,20.027
6743,Szeged,Csongrád,CS,46.318,20.027
6744,Szeged,Csongrád,CS,46.318,20.027
6745,Szeged,Csongrád,CS,46.318,20.027
6746,Szeged,Csongrád,CS,46.318,20.027
6747,Szeged,Csongrád,CS,46.318,20.027
6748,Szeged,Csongrád,CS,46.318,20.027
6750,Szeged,Csongrád,CS,46.17,20.17
6753,Szeged,Csongrád,CS,46.17,20.17
6754,Újszentiván,Csongrád,CS,46.1833,20.1833
6755,Kübekháza,Csongrád,CS,46.15,20.2833
6756,Tiszasziget,Csongrád,CS,46.1667,20.1667
6757,Tiszasziget,Csongrád,CS,46.1667,20.1667
6758,Röszke,Csongrád,CS,46.1833,20.05
6760,Kistelek,Csongrád,CS,46.4725,19.9797
6762,Sándorfalva,Csongrád,CS,46.3667,20.1
6763,Szatymaz,Csongrád,CS,46.35,20.05
6764,Balástya,Csongrád,CS,46.4167,20.0167
6765,Csengele,Csongrád,CS,46.5333,19.8667
6766,Dóc,Csongrád,CS,46.4333,20.1333
6767,Ópusztaszer,Csongrád,CS,46.4833,20.0833
6768,Baks,Csongrád,CS,46.55,20.1
6769,Pusztaszer,Csongrád,CS,46.55,19.9833
6771,Szeged,Csongrád,CS,46.55,19.9833
6772,Deszk,Csongrád,CS,46.2167,20.25
6773,Klárafalva,Csongrád,CS,46.2167,20.3333
6774,Ferencszállás,Csongrád,CS,46.2167,20.35
6775,Kiszombor,Csongrád,CS,46.1833,20.4333
6781,Domaszék,Csongrád,CS,46.2492,20.0111
6782,Mórahalom,Csongrád,CS,46.2194,19.8911
6783,Ásotthalom,Csongrád,CS,46.2006,19.7906
6784,Öttömös,Csongrád,CS,46.2833,19.6833
6785,Pusztamérges,Csongrád,CS,46.3333,19.6833
6786,Ruzsa,Csongrád,CS,46.2897,19.7544
6787,Zákányszék,Csongrád,CS,46.2667,19.9167
6791,Zákányszék,Csongrád,CS,46.2667,19.9167
6792,Zsombó,Csongrád,CS,46.3333,19.9833
6793,Forráskút,Csongrád,CS,46.3667,19.9167
6794,Üllés,Csongrád,CS,46.3381,19.8519
6795,Bordány,Csongrád,CS,46.3217,19.925
6800,Hódmez?vásárhely,Csongrád,CS,46.4167,20.3333
6801,Hódmez?vásárhely,Csongrád,CS,46.4167,20.3333
6802,Hódmez?vásárhely,Csongrád,CS,46.4167,20.3333
6803,Hódmez?vásárhely,Csongrád,CS,46.4167,20.3333
6804,Hódmez?vásárhely,Csongrád,CS,46.4167,20.3333
6806,Hódmez?vásárhely,Csongrád,CS,46.4167,20.3333
6808,Hódmez?vásárhely,Csongrád,CS,46.4167,20.3333
6811,Hódmez?vásárhely,Csongrád,CS,46.4167,20.3333
6821,Székkutas,Csongrád,CS,46.5,20.5333
6900,Makó,Csongrád,CS,46.2167,20.4833
6901,Makó,Csongrád,CS,46.2167,20.4833
6902,Makó,Csongrád,CS,46.2167,20.4833
6911,Királyhegyes,Csongrád,CS,46.2667,20.6167
6912,Kövegy,Csongrád,CS,46.2167,20.6833
6913,Csanádpalota,Csongrád,CS,46.25,20.7333
6914,Pitvaros,Csongrád,CS,46.2972,20.7028
6915,Csanádalberti,Csongrád,CS,46.3333,20.7167
6916,Ambrózfalva,Csongrád,CS,46.35,20.7333
6917,Nagyér,Csongrád,CS,46.3667,20.7333
6921,Maroslele,Csongrád,CS,46.2667,20.35
6922,Földeák,Csongrád,CS,46.3167,20.5
6923,Óföldeák,Csongrád,CS,46.3,20.45
6931,Apátfalva,Csongrád,CS,46.1667,20.5833
6932,Magyarcsanád,Csongrád,CS,46.1667,20.6167
6933,Nagylak,Csongrád,CS,46.1667,20.7167
2060,Bicske,Fejér,FE,47.4833,18.6333
2061,Bicske,Fejér,FE,47.4833,18.6333
2063,Bicske,Fejér,FE,47.4833,18.6333
2064,Csabdi,Fejér,FE,47.5167,18.6167
2065,Mány,Fejér,FE,47.5333,18.6667
2066,Szár,Fejér,FE,47.4833,18.5167
2067,Szárliget,Fejér,FE,47.4952,18.6095
2091,Etyek,Fejér,FE,47.45,18.75
2400,Dunaújváros,Fejér,FE,46.9833,18.9333
2401,Dunaújváros,Fejér,FE,46.9833,18.9333
2402,Dunaújváros,Fejér,FE,46.9833,18.9333
2403,Dunaújváros,Fejér,FE,46.9833,18.9333
2404,Dunaújváros,Fejér,FE,46.9833,18.9333
2405,Dunaújváros,Fejér,FE,46.9833,18.9333
2406,Dunaújváros,Fejér,FE,46.9833,18.9333
2407,Dunaújváros,Fejér,FE,46.9833,18.9333
2408,Dunaújváros,Fejér,FE,46.9833,18.9333
2421,Nagyvenyim,Fejér,FE,46.9667,18.85
2422,Mez?falva,Fejér,FE,46.9333,18.7667
2423,Daruszentmiklós,Fejér,FE,46.8952,18.8452
2424,El?szállás,Fejér,FE,46.8333,18.8167
2425,Nagykarácsony,Fejér,FE,46.8667,18.7833
2426,Baracs,Fejér,FE,46.8833,18.8833
2427,Baracs,Fejér,FE,46.8833,18.8833
2428,Kisapostag,Fejér,FE,46.9,18.9333
2431,Perkáta,Fejér,FE,47.05,18.8
2432,Szabadegyháza,Fejér,FE,47.0667,18.6833
2433,Sárosd,Fejér,FE,47.05,18.65
2434,Hantos,Fejér,FE,47,18.7
2435,Nagylók,Fejér,FE,46.9667,18.6667
2451,Ercsi,Fejér,FE,47.25,18.9
2453,Ercsi,Fejér,FE,47.25,18.9
2454,Iváncsa,Fejér,FE,47.15,18.8167
2455,Beloiannisz,Fejér,FE,47.1667,18.8333
2456,Besny?,Fejér,FE,47.1833,18.8167
2457,Adony,Fejér,FE,47.1167,18.8667
2458,Kulcs,Fejér,FE,47.05,18.9167
2459,Rácalmás,Fejér,FE,47.0167,18.95
2462,Martonvásár,Fejér,FE,47.3167,18.7833
2463,Tordas,Fejér,FE,47.35,18.75
2464,Gyúró,Fejér,FE,47.3833,18.7333
2465,Ráckeresztúr,Fejér,FE,47.2667,18.8333
2471,Baracska,Fejér,FE,47.2833,18.7667
2472,Kajászó,Fejér,FE,47.3167,18.7333
2473,Vál,Fejér,FE,47.3667,18.6833
2475,Kápolnásnyék,Fejér,FE,47.2333,18.6833
2476,Pázmánd,Fejér,FE,47.2833,18.6667
2477,Vereb,Fejér,FE,47.3167,18.6167
2481,Velence,Fejér,FE,47.2333,18.65
2482,Velence,Fejér,FE,47.2333,18.65
2483,Gárdony,Fejér,FE,47.2,18.65
2484,Gárdony,Fejér,FE,47.2,18.65
2485,Gárdony,Fejér,FE,47.2,18.65
2490,Pusztaszabolcs,Fejér,FE,47.1333,18.7667
7000,Sárbogárd,Fejér,FE,46.8833,18.6333
7001,Sárbogárd,Fejér,FE,46.8833,18.6333
7002,Sárbogárd,Fejér,FE,46.8833,18.6333
7003,Sárbogárd,Fejér,FE,46.8833,18.6333
7011,Alap,Fejér,FE,46.8,18.7
7012,Alsószentiván,Fejér,FE,46.7833,18.7333
7013,Cece,Fejér,FE,46.7667,18.65
7014,Sáregres,Fejér,FE,46.7833,18.6
7015,Igar,Fejér,FE,46.7833,18.5167
7016,Igar,Fejér,FE,46.7833,18.5167
7017,Mez?szilas,Fejér,FE,46.8167,18.4833
7018,Mez?szilas,Fejér,FE,46.8167,18.4833
7019,Mez?szilas,Fejér,FE,46.8167,18.4833
7041,Vajta,Fejér,FE,46.7167,18.6667
8000,Székesfehérvár,Fejér,FE,47.2,18.4166
8001,Székesfehérvár,Fejér,FE,47.2,18.4167
8002,Székesfehérvár,Fejér,FE,47.2,18.4167
8003,Székesfehérvár,Fejér,FE,47.2,18.4167
8004,Székesfehérvár,Fejér,FE,47.2,18.4167
8005,Székesfehérvár,Fejér,FE,47.2,18.4167
8006,Székesfehérvár,Fejér,FE,47.2,18.4167
8007,Székesfehérvár,Fejér,FE,47.2,18.4167
8008,Székesfehérvár,Fejér,FE,47.2,18.4167
8011,Székesfehérvár,Fejér,FE,47.2,18.4167
8019,Székesfehérvár,Fejér,FE,47.2,18.4167
8020,Székesfehérvár,Fejér,FE,47.2,18.4167
8041,Csór,Fejér,FE,47.2,18.2667
8042,Moha,Fejér,FE,47.25,18.3333
8043,Iszkaszentgyörgy,Fejér,FE,47.2333,18.3
8044,Kincsesbánya,Fejér,FE,47.25,18.2667
8045,Isztimér,Fejér,FE,47.2833,18.2
8046,Bakonykúti,Fejér,FE,47.25,18.2
8051,Sárkeresztes,Fejér,FE,47.25,18.35
8052,Fehérvárcsurgó,Fejér,FE,47.3,18.2667
8053,Bodajk,Fejér,FE,47.3167,18.2333
8054,Bodajk,Fejér,FE,47.3167,18.2333
8055,Balinka,Fejér,FE,47.3167,18.1833
8056,Bakonycsernye,Fejér,FE,47.3167,18.0833
8060,Mór,Fejér,FE,47.3833,18.2
8061,Mór,Fejér,FE,47.3833,18.2
8062,Mór,Fejér,FE,47.3833,18.2
8065,Nagyveleg,Fejér,FE,47.3667,18.1167
8066,Pusztavám,Fejér,FE,47.4333,18.2333
8071,Magyaralmás,Fejér,FE,47.3,18.3333
8072,Söréd,Fejér,FE,47.3167,18.2833
8073,Csákberény,Fejér,FE,47.35,18.3333
8074,Csókak?,Fejér,FE,47.35,18.2667
8080,Bodmér,Fejér,FE,47.45,18.55
8081,Zámoly,Fejér,FE,47.3167,18.4167
8082,Gánt,Fejér,FE,47.3833,18.4
8083,Csákvár,Fejér,FE,47.4,18.45
8084,Csákvár,Fejér,FE,47.4,18.45
8085,Vértesboglár,Fejér,FE,47.4333,18.5333
8086,Felcsút,Fejér,FE,47.45,18.5833
8087,Alcsútdoboz,Fejér,FE,47.4167,18.6167
8088,Tabajd,Fejér,FE,47.4,18.6333
8089,Vértesacsa,Fejér,FE,47.3667,18.5833
8092,Pátka,Fejér,FE,47.2833,18.5
8093,Lovasberény,Fejér,FE,47.3,18.55
8095,Pákozd,Fejér,FE,47.2167,18.55
8096,Sukoró,Fejér,FE,47.2333,18.6167
8097,Nadap,Fejér,FE,47.2667,18.6167
8111,Seregélyes,Fejér,FE,47.1,18.5833
8112,Zichyújfalu,Fejér,FE,47.1333,18.6833
8121,Tác,Fejér,FE,47.0833,18.4
8122,Cs?sz,Fejér,FE,47.0333,18.4167
8123,Soponya,Fejér,FE,47.0167,18.45
8124,Káloz,Fejér,FE,46.95,18.4833
8125,Sárkeresztúr,Fejér,FE,47,18.55
8126,Sárszentágota,Fejér,FE,46.9667,18.5667
8127,Aba,Fejér,FE,47.0333,18.5167
8130,Enying,Fejér,FE,46.9333,18.25
8131,Enying,Fejér,FE,46.9333,18.25
8132,Lepsény,Fejér,FE,47,18.25
8133,Mez?szentgyörgy,Fejér,FE,47,18.2833
8134,Mátyásdomb,Fejér,FE,46.9167,18.35
8135,Dég,Fejér,FE,46.8667,18.45
8136,Lajoskomárom,Fejér,FE,46.85,18.35
8137,Mez?komárom,Fejér,FE,46.8333,18.2833
8138,Szabadhidvég,Fejér,FE,46.8167,18.2833
8142,Úrhida,Fejér,FE,47.1333,18.3333
8143,Sárszentmihály,Fejér,FE,47.15,18.3333
8144,Sárkeszi,Fejér,FE,47.1667,18.2833
8145,Nádasdladány,Fejér,FE,47.1333,18.25
8146,Jen?,Fejér,FE,47.1,18.25
8151,Szabadbattyán,Fejér,FE,47.1167,18.3833
8152,K?szárhegy,Fejér,FE,47.1,18.3333
8153,K?szárhegy,Fejér,FE,47.1,18.3333
8154,Polgárdi,Fejér,FE,47.05,18.3
8156,Kisláng,Fejér,FE,46.9667,18.3833
8157,Füle,Fejér,FE,47.05,18.25
8534,Csikvánd,Gy?r-Moson-Sopron,GS,47.4667,17.45
8544,Szerecseny,Gy?r-Moson-Sopron,GS,47.4667,17.55
8545,Gyarmat,Gy?r-Moson-Sopron,GS,47.4667,17.5
9000,Gy?r,Gy?r-Moson-Sopron,GS,47.6076,17.7819
9001,Gy?r,Gy?r-Moson-Sopron,GS,47.6076,17.7819
9002,Gy?r,Gy?r-Moson-Sopron,GS,47.6076,17.7819
9003,Gy?r,Gy?r-Moson-Sopron,GS,47.6076,17.7819
9004,Gy?r,Gy?r-Moson-Sopron,GS,47.6076,17.7819
9005,Gy?r,Gy?r-Moson-Sopron,GS,47.6076,17.7819
9006,Gy?r,Gy?r-Moson-Sopron,GS,47.6076,17.7819
9007,Gy?r,Gy?r-Moson-Sopron,GS,47.6076,17.7819
9008,Gy?r,Gy?r-Moson-Sopron,GS,47.6076,17.7819
9009,Gy?r,Gy?r-Moson-Sopron,GS,47.6076,17.7819
9010,Gy?r,Gy?r-Moson-Sopron,GS,47.6076,17.7819
9011,Gy?r,Gy?r-Moson-Sopron,GS,47.6076,17.7819
9012,Gy?r,Gy?r-Moson-Sopron,GS,47.6076,17.7819
9013,Gy?r,Gy?r-Moson-Sopron,GS,47.6076,17.7819
9019,Gy?r,Gy?r-Moson-Sopron,GS,47.6076,17.7819
9020,Gy?r,Gy?r-Moson-Sopron,GS,47.6076,17.7819
9021,Gy?r,Gy?r-Moson-Sopron,GS,47.6076,17.7819
9022,Gy?r,Gy?r-Moson-Sopron,GS,47.6076,17.7819
9023,Gy?r,Gy?r-Moson-Sopron,GS,47.6076,17.7819
9024,Gy?r,Gy?r-Moson-Sopron,GS,47.6076,17.7819
9025,Gy?r,Gy?r-Moson-Sopron,GS,47.6076,17.7819
9026,Gy?r,Gy?r-Moson-Sopron,GS,47.6076,17.7819
9027,Gy?r,Gy?r-Moson-Sopron,GS,47.6076,17.7819
9028,Gy?r,Gy?r-Moson-Sopron,GS,47.6076,17.7819
9029,Gy?r,Gy?r-Moson-Sopron,GS,47.6076,17.7819
9030,Gy?r,Gy?r-Moson-Sopron,GS,47.6076,17.7819
9061,Vámosszabadi,Gy?r-Moson-Sopron,GS,47.7667,17.65
9062,Kisbajcs,Gy?r-Moson-Sopron,GS,47.75,17.6833
9063,Nagybajcs,Gy?r-Moson-Sopron,GS,47.7667,17.7
9071,Göny?,Gy?r-Moson-Sopron,GS,47.7333,17.8333
9072,Nagyszentjános,Gy?r-Moson-Sopron,GS,47.7167,17.8833
9073,B?ny,Gy?r-Moson-Sopron,GS,47.65,17.8667
9074,Rétalap,Gy?r-Moson-Sopron,GS,47.6,17.9167
9081,Gy?rújbarát,Gy?r-Moson-Sopron,GS,47.6,17.65
9082,Nyúl,Gy?r-Moson-Sopron,GS,47.5833,17.6833
9083,Écs,Gy?r-Moson-Sopron,GS,47.55,17.7167
9084,Gy?rság,Gy?r-Moson-Sopron,GS,47.5667,17.75
9085,Pázmándfalu,Gy?r-Moson-Sopron,GS,47.5667,17.7833
9086,Töltéstava,Gy?r-Moson-Sopron,GS,47.6167,17.7333
9090,Pannonhalma,Gy?r-Moson-Sopron,GS,47.55,17.75
9091,Ravazd,Gy?r-Moson-Sopron,GS,47.5167,17.75
9092,Tarjánpuszta,Gy?r-Moson-Sopron,GS,47.5,17.7833
9093,Gy?rasszonyfa,Gy?r-Moson-Sopron,GS,47.5,17.8
9094,Tápszentmiklós,Gy?r-Moson-Sopron,GS,47.5,17.85
9095,Táp,Gy?r-Moson-Sopron,GS,47.5167,17.8333
9096,Nyalka,Gy?r-Moson-Sopron,GS,47.55,17.8167
9097,Mez?örs,Gy?r-Moson-Sopron,GS,47.5667,17.8833
9098,Mez?örs,Gy?r-Moson-Sopron,GS,47.5667,17.8833
9099,Pér,Gy?r-Moson-Sopron,GS,47.6167,17.8
9100,Tét,Gy?r-Moson-Sopron,GS,47.5167,17.5167
9111,Tény?,Gy?r-Moson-Sopron,GS,47.5333,17.65
9112,Sokorópátka,Gy?r-Moson-Sopron,GS,47.4833,17.7
9113,Koroncó,Gy?r-Moson-Sopron,GS,47.6,17.5333
9121,Gy?rszemere,Gy?r-Moson-Sopron,GS,47.55,17.5667
9122,Felpéc,Gy?r-Moson-Sopron,GS,47.5167,17.6
9123,Kajárpéc,Gy?r-Moson-Sopron,GS,47.4833,17.6333
9124,Gyömöre,Gy?r-Moson-Sopron,GS,47.5,17.5667
9131,Mórichida,Gy?r-Moson-Sopron,GS,47.5167,17.4167
9132,Árpás,Gy?r-Moson-Sopron,GS,47.5167,17.4
9133,Rábaszentmiklós,Gy?r-Moson-Sopron,GS,47.5333,17.4167
9134,Bodonhely,Gy?r-Moson-Sopron,GS,47.5667,17.4
9135,Rábaszentmihály,Gy?r-Moson-Sopron,GS,47.5833,17.4333
9136,Mérges,Gy?r-Moson-Sopron,GS,47.6,17.45
9141,Ikrény,Gy?r-Moson-Sopron,GS,47.65,17.5333
9142,Rábapatona,Gy?r-Moson-Sopron,GS,47.6333,17.4833
9143,Enese,Gy?r-Moson-Sopron,GS,47.65,17.4167
9144,Kóny,Gy?r-Moson-Sopron,GS,47.6333,17.3667
9145,Bágyogszovát,Gy?r-Moson-Sopron,GS,47.5833,17.3667
9146,Rábapordány,Gy?r-Moson-Sopron,GS,47.5667,17.3333
9147,Dör,Gy?r-Moson-Sopron,GS,47.6,17.3
9151,Abda,Gy?r-Moson-Sopron,GS,47.7,17.55
9152,Börcs,Gy?r-Moson-Sopron,GS,47.6833,17.5
9153,Öttevény,Gy?r-Moson-Sopron,GS,47.7333,17.4833
9154,Mosonszentmiklós,Gy?r-Moson-Sopron,GS,47.7333,17.3833
9155,Lébény,Gy?r-Moson-Sopron,GS,47.7333,17.3833
9161,Gy?rsövényház,Gy?r-Moson-Sopron,GS,47.7,17.3667
9162,Bezi,Gy?r-Moson-Sopron,GS,47.6667,17.4
9163,Fehértó,Gy?r-Moson-Sopron,GS,47.6833,17.35
9164,Markotabödöge,Gy?r-Moson-Sopron,GS,47.6833,17.3167
9165,Cakóháza,Gy?r-Moson-Sopron,GS,47.7,17.2833
9167,B?sárkány,Gy?r-Moson-Sopron,GS,47.6833,17.25
9168,Acsalag,Gy?r-Moson-Sopron,GS,47.6833,17.2
9169,Barbacs,Gy?r-Moson-Sopron,GS,47.65,17.3
9171,Gy?rújfalu,Gy?r-Moson-Sopron,GS,47.7167,17.6167
9172,Gy?rzámoly,Gy?r-Moson-Sopron,GS,47.7333,17.5833
9173,Gy?rladamér,Gy?r-Moson-Sopron,GS,47.75,17.5667
9174,Dunaszeg,Gy?r-Moson-Sopron,GS,47.7667,17.55
9175,Dunaszentpál,Gy?r-Moson-Sopron,GS,47.7833,17.5
9176,Mecsér,Gy?r-Moson-Sopron,GS,47.8,17.4833
9177,Ásványráró,Gy?r-Moson-Sopron,GS,47.8333,17.5
9178,Hédervár,Gy?r-Moson-Sopron,GS,47.8333,17.4667
9181,Kimle,Gy?r-Moson-Sopron,GS,47.8333,17.3667
9182,Károlyháza,Gy?r-Moson-Sopron,GS,47.6333,17.5833
9183,Károlyháza,Gy?r-Moson-Sopron,GS,47.6333,17.5833
9184,Kunsziget,Gy?r-Moson-Sopron,GS,47.7333,17.5167
9200,Mosonmagyaróvár,Gy?r-Moson-Sopron,GS,47.8667,17.2833
9201,Mosonmagyaróvár,Gy?r-Moson-Sopron,GS,47.8667,17.2833
9202,Mosonmagyaróvár,Gy?r-Moson-Sopron,GS,47.8667,17.2833
9203,Mosonmagyaróvár,Gy?r-Moson-Sopron,GS,47.8667,17.2833
9211,Feketeerd?,Gy?r-Moson-Sopron,GS,47.9333,17.2833
9221,Levél,Gy?r-Moson-Sopron,GS,47.9,17.2
9222,Hegyeshalom,Gy?r-Moson-Sopron,GS,47.9167,17.1667
9223,Bezenye,Gy?r-Moson-Sopron,GS,47.9667,17.2167
9224,Rajka,Gy?r-Moson-Sopron,GS,48,17.2
9225,Dunakiliti,Gy?r-Moson-Sopron,GS,47.9667,17.2833
9226,Dunasziget,Gy?r-Moson-Sopron,GS,47.9333,17.3667
9228,Halászi,Gy?r-Moson-Sopron,GS,47.8833,17.3333
9231,Máriakálnok,Gy?r-Moson-Sopron,GS,47.8667,17.3167
9232,Darnózseli,Gy?r-Moson-Sopron,GS,47.85,17.4333
9233,Lipót,Gy?r-Moson-Sopron,GS,47.8667,17.4667
9234,Kisbodak,Gy?r-Moson-Sopron,GS,47.9,17.4167
9235,Dunaremete,Gy?r-Moson-Sopron,GS,47.8833,17.4333
9241,Jánossomorja,Gy?r-Moson-Sopron,GS,47.8,17.1167
9242,Jánossomorja,Gy?r-Moson-Sopron,GS,47.8,17.1167
9243,Várbalog,Gy?r-Moson-Sopron,GS,47.85,17.0833
9244,Újrónaf?,Gy?r-Moson-Sopron,GS,47.8,17.2
9245,Mosonszolnok,Gy?r-Moson-Sopron,GS,47.85,17.1833
9300,Csorna,Gy?r-Moson-Sopron,GS,47.6167,17.25
9301,Csorna,Gy?r-Moson-Sopron,GS,47.6167,17.25
9311,Pásztori,Gy?r-Moson-Sopron,GS,47.55,17.2667
9312,Szilsárkány,Gy?r-Moson-Sopron,GS,47.55,17.2667
9313,Rábacsanak,Gy?r-Moson-Sopron,GS,47.5333,17.3
9314,Egyed,Gy?r-Moson-Sopron,GS,47.5167,17.35
9315,Sobor,Gy?r-Moson-Sopron,GS,47.4833,17.3833
9316,Rábaszentandrás,Gy?r-Moson-Sopron,GS,47.45,17.3333
9317,Szany,Gy?r-Moson-Sopron,GS,47.4667,17.3
9321,Farád,Gy?r-Moson-Sopron,GS,47.6,17.2
9322,Rábatamási,Gy?r-Moson-Sopron,GS,47.5833,17.1667
9323,Jobaháza,Gy?r-Moson-Sopron,GS,47.5833,17.2
9324,Bogyoszló,Gy?r-Moson-Sopron,GS,47.5667,17.1833
9325,Sopronnémeti,Gy?r-Moson-Sopron,GS,47.5333,17.2167
9326,Szil,Gy?r-Moson-Sopron,GS,47.5,17.2333
9327,Rábasebes,Gy?r-Moson-Sopron,GS,47.4333,17.2333
9330,Kapuvár,Gy?r-Moson-Sopron,GS,47.6,17.0333
9331,Kapuvár,Gy?r-Moson-Sopron,GS,47.6,17.0333
9332,Kapuvár,Gy?r-Moson-Sopron,GS,47.6,17.0333
9339,Kapuvár,Gy?r-Moson-Sopron,GS,47.6,17.0333
9341,Kisfalud,Gy?r-Moson-Sopron,GS,47.5167,17.1
9342,Mihályi,Gy?r-Moson-Sopron,GS,47.5167,17.1
9343,Beled,Gy?r-Moson-Sopron,GS,47.4667,17.1
9344,Rábakecöl,Gy?r-Moson-Sopron,GS,47.4333,17.1167
9345,Páli,Gy?r-Moson-Sopron,GS,47.4667,17.1667
9346,Zsebeháza,Gy?r-Moson-Sopron,GS,47.5167,17.2
9351,Babót,Gy?r-Moson-Sopron,GS,47.5667,17.0833
9352,Veszkény,Gy?r-Moson-Sopron,GS,47.6,17.0833
9353,Szárföld,Gy?r-Moson-Sopron,GS,47.6,17.1167
9354,Osli,Gy?r-Moson-Sopron,GS,47.6333,17.0833
9361,Hövej,Gy?r-Moson-Sopron,GS,47.55,17.0167
9362,Himod,Gy?r-Moson-Sopron,GS,47.5167,17.0167
9363,Gyóró,Gy?r-Moson-Sopron,GS,47.5,17.0167
9364,Cirák,Gy?r-Moson-Sopron,GS,47.4667,17.0333
9365,Dénesfa,Gy?r-Moson-Sopron,GS,47.45,17.0333
9371,Vitnyéd,Gy?r-Moson-Sopron,GS,47.5833,16.9833
9372,Csapod,Gy?r-Moson-Sopron,GS,47.5167,16.9167
9373,Pusztacsalád,Gy?r-Moson-Sopron,GS,47.4833,16.9
9374,Iván,Gy?r-Moson-Sopron,GS,47.45,16.9167
9375,Répceszemere,Gy?r-Moson-Sopron,GS,47.4333,16.9833
9400,Sopron,Gy?r-Moson-Sopron,GS,47.672,16.5852
9401,Sopron,Gy?r-Moson-Sopron,GS,47.6833,16.6
9402,Sopron,Gy?r-Moson-Sopron,GS,47.6833,16.6
9403,Sopron,Gy?r-Moson-Sopron,GS,47.6833,16.6
9404,Sopron,Gy?r-Moson-Sopron,GS,47.6833,16.6
9405,Sopron,Gy?r-Moson-Sopron,GS,47.6833,16.6
9406,Sopron,Gy?r-Moson-Sopron,GS,47.6833,16.6
9407,Sopron,Gy?r-Moson-Sopron,GS,47.6833,16.6
9408,Sopron,Gy?r-Moson-Sopron,GS,47.6833,16.6
9409,Sopron,Gy?r-Moson-Sopron,GS,47.6833,16.6
9421,Fert?rákos,Gy?r-Moson-Sopron,GS,47.7167,16.65
9422,Harka,Gy?r-Moson-Sopron,GS,47.6333,16.6
9423,Ágfalva,Gy?r-Moson-Sopron,GS,47.6833,16.5167
9431,Fert?d,Gy?r-Moson-Sopron,GS,47.6167,16.8667
9433,Fert?d,Gy?r-Moson-Sopron,GS,47.6167,16.8667
9434,Fert?d,Gy?r-Moson-Sopron,GS,47.6167,16.8667
9435,Sarród,Gy?r-Moson-Sopron,GS,47.6333,16.8667
9436,Fert?széplak,Gy?r-Moson-Sopron,GS,47.6167,16.8333
9437,Hegyk?,Gy?r-Moson-Sopron,GS,47.6167,16.8
9441,Agyagosszergény,Gy?r-Moson-Sopron,GS,47.6167,16.95
9442,Fert?endréd,Gy?r-Moson-Sopron,GS,47.6,16.9167
9443,Pet?háza,Gy?r-Moson-Sopron,GS,47.6,16.9
9444,Fert?szentmiklós,Gy?r-Moson-Sopron,GS,47.5833,16.8833
9451,Röjtökmuzsaj,Gy?r-Moson-Sopron,GS,47.55,16.8333
9461,Löv?,Gy?r-Moson-Sopron,GS,47.5,16.7833
9462,Völcsej,Gy?r-Moson-Sopron,GS,47.4833,16.7667
9463,Sopronhorpács,Gy?r-Moson-Sopron,GS,47.4833,16.7333
9464,Und,Gy?r-Moson-Sopron,GS,47.4833,16.7
9471,Nemeskér,Gy?r-Moson-Sopron,GS,47.4833,16.8
9472,Újkér,Gy?r-Moson-Sopron,GS,47.4667,16.8167
9473,Egyházasfalu,Gy?r-Moson-Sopron,GS,47.4667,16.7667
9474,Gyalóka,Gy?r-Moson-Sopron,GS,47.45,16.7
9475,Répcevis,Gy?r-Moson-Sopron,GS,47.45,16.6833
9476,Zsira,Gy?r-Moson-Sopron,GS,47.45,16.6833
9481,Pinnye,Gy?r-Moson-Sopron,GS,47.5833,16.7667
9482,Nagylózs,Gy?r-Moson-Sopron,GS,47.5667,16.7833
9483,Sopronkövesd,Gy?r-Moson-Sopron,GS,47.55,16.75
9484,Pereszteg,Gy?r-Moson-Sopron,GS,47.6,16.7333
9485,Nagycenk,Gy?r-Moson-Sopron,GS,47.6,16.7
9491,Hidegség,Gy?r-Moson-Sopron,GS,47.6333,16.75
9492,Fert?homok,Gy?r-Moson-Sopron,GS,47.6167,16.7667
9493,Fert?boz,Gy?r-Moson-Sopron,GS,47.6333,16.7
9494,Fert?boz,Gy?r-Moson-Sopron,GS,47.6333,16.7
9495,Kópháza,Gy?r-Moson-Sopron,GS,47.6333,16.65
4000,Debrecen,Hajdú-Bihar,HB,47.7675,21.24
4001,Debrecen,Hajdú-Bihar,HB,47.7675,21.24
4002,Debrecen,Hajdú-Bihar,HB,47.7675,21.24
4003,Debrecen,Hajdú-Bihar,HB,47.7675,21.24
4004,Debrecen,Hajdú-Bihar,HB,47.7675,21.24
4005,Debrecen,Hajdú-Bihar,HB,47.7675,21.24
4006,Debrecen,Hajdú-Bihar,HB,47.7675,21.24
4007,Debrecen,Hajdú-Bihar,HB,47.7675,21.24
4008,Debrecen,Hajdú-Bihar,HB,47.7675,21.24
4009,Debrecen,Hajdú-Bihar,HB,47.7675,21.24
4010,Debrecen,Hajdú-Bihar,HB,47.7675,21.24
4011,Debrecen,Hajdú-Bihar,HB,47.7675,21.24
4012,Debrecen,Hajdú-Bihar,HB,47.7675,21.24
4013,Debrecen,Hajdú-Bihar,HB,47.7675,21.24
4014,Debrecen,Hajdú-Bihar,HB,47.7675,21.24
4015,Debrecen,Hajdú-Bihar,HB,47.7675,21.24
4017,Debrecen,Hajdú-Bihar,HB,47.7675,21.24
4021,Debrecen,Hajdú-Bihar,HB,47.7675,21.24
4022,Debrecen,Hajdú-Bihar,HB,47.7675,21.24
4024,Debrecen,Hajdú-Bihar,HB,47.7675,21.24
4025,Debrecen,Hajdú-Bihar,HB,47.7675,21.24
4026,Debrecen,Hajdú-Bihar,HB,47.7675,21.24
4027,Debrecen,Hajdú-Bihar,HB,47.7675,21.24
4028,Debrecen,Hajdú-Bihar,HB,47.7675,21.24
4029,Debrecen,Hajdú-Bihar,HB,47.7675,21.24
4030,Debrecen,Hajdú-Bihar,HB,47.7675,21.24
4031,Debrecen,Hajdú-Bihar,HB,47.7675,21.24
4032,Debrecen,Hajdú-Bihar,HB,47.7675,21.24
4033,Debrecen,Hajdú-Bihar,HB,47.7675,21.24
4034,Debrecen,Hajdú-Bihar,HB,47.7675,21.24
4040,Debrecen,Hajdú-Bihar,HB,47.7675,21.24
4041,Debrecen,Hajdú-Bihar,HB,47.7675,21.24
4042,Debrecen,Hajdú-Bihar,HB,47.7675,21.24
4044,Debrecen,Hajdú-Bihar,HB,47.7675,21.24
4045,Debrecen,Hajdú-Bihar,HB,47.7675,21.24
4046,Debrecen,Hajdú-Bihar,HB,47.7675,21.24
4047,Debrecen,Hajdú-Bihar,HB,47.7675,21.24
4048,Debrecen,Hajdú-Bihar,HB,47.7675,21.24
4060,Balmazújváros,Hajdú-Bihar,HB,47.6167,21.35
4063,Balmazújváros,Hajdú-Bihar,HB,47.6167,21.35
4064,Nagyhegyes,Hajdú-Bihar,HB,47.5167,21.4167
4065,Újszentmargita,Hajdú-Bihar,HB,47.7333,21.1
4066,Tiszacsege,Hajdú-Bihar,HB,47.7,21
4067,Tiszacsege,Hajdú-Bihar,HB,47.7,21
4069,Egyek,Hajdú-Bihar,HB,47.6333,20.9
4071,Hortobágy,Hajdú-Bihar,HB,47.5833,21.1667
4074,Tarnalelesz,Hajdú-Bihar,HB,47.7708,21.2167
4075,Görbeháza,Hajdú-Bihar,HB,47.8333,21.2333
4078,Görbeháza,Hajdú-Bihar,HB,47.8333,21.2333
4079,Görbeháza,Hajdú-Bihar,HB,47.8333,21.2333
4080,Hajdúnánás,Hajdú-Bihar,HB,47.85,21.4333
4081,Hajdúnánás,Hajdú-Bihar,HB,47.85,21.4333
4085,Hajdúnánás,Hajdú-Bihar,HB,47.85,21.4333
4086,Hajdúnánás,Hajdú-Bihar,HB,47.85,21.4333
4087,Hajdúdorog,Hajdú-Bihar,HB,47.8167,21.5
4090,Polgár,Hajdú-Bihar,HB,47.8667,21.1167
4096,Újtikos,Hajdú-Bihar,HB,47.9167,21.1833
4097,Tiszagyulaháza,Hajdú-Bihar,HB,47.95,21.15
4100,Berettyóújfalu,Hajdú-Bihar,HB,47.2167,21.55
4101,Berettyóújfalu,Hajdú-Bihar,HB,47.2167,21.55
4103,Berettyóújfalu,Hajdú-Bihar,HB,47.2167,21.55
4110,Biharkeresztes,Hajdú-Bihar,HB,47.1333,21.7167
4114,Bojt,Hajdú-Bihar,HB,47.2,21.7333
4115,Ártánd,Hajdú-Bihar,HB,47.1167,21.7667
4116,Berekböszörmény,Hajdú-Bihar,HB,47.0667,21.6833
4117,Told,Hajdú-Bihar,HB,47.1167,21.65
4118,Mez?peterd,Hajdú-Bihar,HB,47.1667,21.6167
4119,Váncsod,Hajdú-Bihar,HB,47.2,21.65
4121,Szentpéterszeg,Hajdú-Bihar,HB,47.2333,21.6167
4122,Gáborján,Hajdú-Bihar,HB,47.2333,21.6667
4123,Hencida,Hajdú-Bihar,HB,47.25,21.7
4124,Esztár,Hajdú-Bihar,HB,47.2833,21.7833
4125,Pocsaj,Hajdú-Bihar,HB,47.2833,21.8167
4126,Kismarja,Hajdú-Bihar,HB,47.25,21.8333
4127,Nagykereki,Hajdú-Bihar,HB,47.1833,21.8
4128,Bed?,Hajdú-Bihar,HB,47.1667,21.75
4130,Derecske,Hajdú-Bihar,HB,47.35,21.5667
4131,Derecske,Hajdú-Bihar,HB,47.35,21.5667
4132,Tépe,Hajdú-Bihar,HB,47.3167,21.5833
4133,Konyár,Hajdú-Bihar,HB,47.3167,21.6667
4134,Mez?sas,Hajdú-Bihar,HB,47.1167,21.5667
4135,Körösszegapáti,Hajdú-Bihar,HB,47.0333,21.6333
4136,Körösszakál,Hajdú-Bihar,HB,47.0167,21.6
4137,Magyarhomorog,Hajdú-Bihar,HB,47.0167,21.55
4138,Komádi,Hajdú-Bihar,HB,47,21.5
4141,Furta,Hajdú-Bihar,HB,47.1333,21.4667
4142,Zsáka,Hajdú-Bihar,HB,47.1333,21.4333
4143,Vekerd,Hajdú-Bihar,HB,47.1,21.4
4144,Darvas,Hajdú-Bihar,HB,47.1,21.35
4145,Csökm?,Hajdú-Bihar,HB,47.0333,21.3
4146,Újiráz,Hajdú-Bihar,HB,46.9833,21.3667
4150,Püspökladány,Hajdú-Bihar,HB,47.3167,21.1167
4151,Püspökladány,Hajdú-Bihar,HB,47.3167,21.1167
4152,Püspökladány,Hajdú-Bihar,HB,47.3167,21.1167
4155,Püspökladány,Hajdú-Bihar,HB,47.3167,21.1167
4161,Báránd,Hajdú-Bihar,HB,47.3,21.2333
4162,Báránd,Hajdú-Bihar,HB,47.3,21.2333
4163,Szerep,Hajdú-Bihar,HB,47.2333,21.15
4164,Bakonszeg,Hajdú-Bihar,HB,47.1833,21.45
4171,Sárrétudvari,Hajdú-Bihar,HB,47.2333,21.2
4172,Biharnagybajom,Hajdú-Bihar,HB,47.2167,21.2333
4173,Nagyrábé,Hajdú-Bihar,HB,47.2,21.3333
4174,Bihartorda,Hajdú-Bihar,HB,47.2167,21.3667
4175,Bihardancsháza,Hajdú-Bihar,HB,47.2333,21.3167
4176,Sáp,Hajdú-Bihar,HB,47.25,21.3667
4177,Földes,Hajdú-Bihar,HB,47.3,21.3667
4181,Nádudvar,Hajdú-Bihar,HB,47.4167,21.1667
4183,Kaba,Hajdú-Bihar,HB,47.35,21.2833
4184,Tetétlen,Hajdú-Bihar,HB,47.3167,21.3
4200,Hajdúszoboszló,Hajdú-Bihar,HB,47.4467,21.3924
4201,Hajdúszoboszló,Hajdú-Bihar,HB,47.45,21.4
4202,Hajdúszoboszló,Hajdú-Bihar,HB,47.45,21.4
4211,Ebes,Hajdú-Bihar,HB,47.4667,21.5
4212,Hajdúszovát,Hajdú-Bihar,HB,47.3833,21.4833
4220,Hajdúböszörmény,Hajdú-Bihar,HB,47.6667,21.5167
4221,Hajdúböszörmény,Hajdú-Bihar,HB,47.6667,21.5167
4224,Hajdúböszörmény,Hajdú-Bihar,HB,47.6667,21.5167
4225,Hajdúböszörmény,Hajdú-Bihar,HB,47.6667,21.5167
4241,Bocskaikert,Hajdú-Bihar,HB,47.4333,21.9167
4242,Hajdúhadház,Hajdú-Bihar,HB,47.6833,21.6667
4243,Téglás,Hajdú-Bihar,HB,47.7167,21.6833
4251,Hajdúsámson,Hajdú-Bihar,HB,47.6,21.7667
4252,Hajdúsámson,Hajdú-Bihar,HB,47.6,21.7667
4253,Hajdúsámson,Hajdú-Bihar,HB,47.6,21.7667
4254,Nyíradony,Hajdú-Bihar,HB,47.6833,21.9167
4262,Nyíracsád,Hajdú-Bihar,HB,47.6,21.9833
4263,Nyírmártonfalva,Hajdú-Bihar,HB,47.5833,21.9
4264,Nyírábrány,Hajdú-Bihar,HB,47.55,22.0333
4266,Fülöp,Hajdú-Bihar,HB,47.6,22.0667
4271,Mikepércs,Hajdú-Bihar,HB,47.45,21.6333
4272,Sáránd,Hajdú-Bihar,HB,47.4,21.6333
4273,Hajdúbagos,Hajdú-Bihar,HB,47.4,21.6667
4274,Hosszúpályi,Hajdú-Bihar,HB,47.4,21.75
4275,Monostorpályi,Hajdú-Bihar,HB,47.4,21.7833
4281,Létavértes,Hajdú-Bihar,HB,47.3833,21.9
4283,Létavértes,Hajdú-Bihar,HB,47.3833,21.9
4284,Kokad,Hajdú-Bihar,HB,47.4,21.95
4285,Álmosd,Hajdú-Bihar,HB,47.4167,21.9833
4286,Bagamér,Hajdú-Bihar,HB,47.45,22
4287,Vámospércs,Hajdú-Bihar,HB,47.5333,21.9
4288,Újléta,Hajdú-Bihar,HB,47.4667,21.8833
3000,Hatvan,Heves,HE,47.6667,19.6833
3001,Hatvan,Heves,HE,47.6667,19.6833
3002,Hatvan,Heves,HE,47.6667,19.6833
3003,Hatvan,Heves,HE,47.6667,19.6833
3009,Hatvan,Heves,HE,47.6667,19.6833
3011,Heréd,Heves,HE,47.7,19.6333
3012,Nagykökényes,Heves,HE,47.7333,19.6
3013,Ecséd,Heves,HE,47.7333,19.7833
3014,Hort,Heves,HE,47.7,19.7833
3015,Csány,Heves,HE,47.65,19.8333
3016,Boldog,Heves,HE,47.6,19.7
3021,L?rinci,Heves,HE,47.7333,19.6833
3022,L?rinci,Heves,HE,47.7333,19.6833
3023,Pet?fibánya,Heves,HE,47.7667,19.7167
3024,Pet?fibánya,Heves,HE,47.7667,19.7167
3031,Zagyvaszántó,Heves,HE,47.7833,19.6833
3032,Apc,Heves,HE,47.8,19.7
3033,Rózsaszentmárton,Heves,HE,47.7833,19.75
3034,Sz?csi,Heves,HE,47.8,19.7667
3035,Gyöngyöspata,Heves,HE,47.8167,19.8
3036,Gyöngyöstarján,Heves,HE,47.8,19.8667
3200,Gyöngyös,Heves,HE,47.7833,19.9333
3201,Gyöngyös,Heves,HE,47.7833,19.9333
3202,Gyöngyös,Heves,HE,47.7833,19.9333
3211,Gyöngyösoroszi,Heves,HE,47.8333,19.9
3212,Gyöngyöshalász,Heves,HE,47.7333,19.9333
3213,Atkár,Heves,HE,47.7167,19.9
3214,Nagyréde,Heves,HE,47.7667,19.85
3221,Nagyréde,Heves,HE,47.7667,19.85
3231,Gyöngyössolymos,Heves,HE,47.8167,19.9333
3232,Gyöngyössolymos,Heves,HE,47.8167,19.9333
3233,Gyöngyössolymos,Heves,HE,47.8167,19.9333
3234,Gyöngyössolymos,Heves,HE,47.8167,19.9333
3235,Mátraszentimre,Heves,HE,47.9167,19.8833
3240,Parád,Heves,HE,47.9167,20.0333
3242,Parádsasvár,Heves,HE,47.9167,19.9833
3243,Bodony,Heves,HE,47.95,20.0333
3244,Bodony,Heves,HE,47.95,20.0333
3245,Recsk,Heves,HE,47.9333,20.1167
3246,Mátraderecske,Heves,HE,47.95,20.0833
3247,Mátraballa,Heves,HE,47.9833,20.0333
3248,Ivád,Heves,HE,48.0167,20.0667
3250,Pétervására,Heves,HE,48.0167,20.1
3252,Erd?kövesd,Heves,HE,48.0333,20.1
3253,Istenmezeje,Heves,HE,48.0833,20.05
3254,Váraszó,Heves,HE,48.0333,20.1167
3255,Fedémes,Heves,HE,48.0333,20.2
3256,Kisfüzes,Heves,HE,47.9833,20.1333
3257,Bükkszenterzsébet,Heves,HE,48.05,20.1667
3258,Tarnalelesz,Heves,HE,48.05,20.1833
3259,Szentdomonkos,Heves,HE,48.0667,20.2
3261,Abasár,Heves,HE,47.8,20
3262,Markaz,Heves,HE,47.8167,20.0667
3263,Domoszló,Heves,HE,47.8333,20.1167
3264,Kisnána,Heves,HE,47.85,20.15
3265,Vécs,Heves,HE,47.8167,20.1667
3271,Visonta,Heves,HE,47.7833,20.0333
3272,Visonta,Heves,HE,47.7833,20.0333
3273,Halmajugra,Heves,HE,47.7667,20.0667
3274,Ludas,Heves,HE,47.7333,20.1
3275,Detk,Heves,HE,47.75,20.1
3281,Karácsond,Heves,HE,47.7333,20.0333
3282,Nagyfüged,Heves,HE,47.6833,20.1167
3283,Tarnazsadány,Heves,HE,47.6667,20.1667
3284,Tarnaméra,Heves,HE,47.65,20.1667
3291,Vámosgyörk,Heves,HE,47.6833,19.9333
3292,Adács,Heves,HE,47.7,19.9833
3293,Visznek,Heves,HE,47.65,20.0333
3294,Tarnaörs,Heves,HE,47.66,20.03
3295,Erk,Heves,HE,47.6167,20.0833
3296,Zaránk,Heves,HE,47.65,20.1167
3300,Eger,Heves,HE,47.9058,20.3709
3301,Eger,Heves,HE,47.9,20.3833
3302,Eger,Heves,HE,47.9,20.3833
3303,Eger,Heves,HE,47.9,20.3833
3304,Eger,Heves,HE,47.9,20.3833
3305,Eger,Heves,HE,47.9,20.3833
3321,Egerbakta,Heves,HE,47.9333,20.3
3322,Hevesaranyos,Heves,HE,48.0167,20.2333
3323,Szarvask?,Heves,HE,47.9,20.3833
3324,Fels?tárkány,Heves,HE,47.9667,20.4167
3325,Noszvaj,Heves,HE,47.9333,20.4833
3326,Ostoros,Heves,HE,47.8667,20.4333
3327,Novaj,Heves,HE,47.85,20.4833
3328,Egerszólát,Heves,HE,47.8833,20.2667
3331,Tarnaszentmária,Heves,HE,47.8833,20.2
3332,Sirok,Heves,HE,47.9333,20.2
3334,Szajla,Heves,HE,47.9667,20.15
3335,Bükkszék,Heves,HE,47.9833,20.1833
3336,Bátor,Heves,HE,47.9833,20.2667
3337,Egerbocs,Heves,HE,48.0333,20.2667
3341,Szúcs,Heves,HE,48.05,20.25
3343,Bekölce,Heves,HE,48.0833,20.2833
3344,Mikófalva,Heves,HE,48.05,20.3167
3345,Mónosbél,Heves,HE,48.0333,20.35
3346,Bélapátfalva,Heves,HE,48.05,20.3667
3347,Balaton,Heves,HE,48.1,20.3167
3348,Szilvásvárad,Heves,HE,48.1,20.4
3349,Nagyvisnyó,Heves,HE,48.1333,20.4333
3350,Kál,Heves,HE,47.7333,20.2667
3351,Verpelét,Heves,HE,47.85,20.2333
3352,Feldebr?,Heves,HE,47.8167,20.25
3353,Aldebr?,Heves,HE,47.8,20.2333
3354,Tófalu,Heves,HE,47.7833,20.25
3355,Kápolna,Heves,HE,47.7667,20.25
3356,Kompolt,Heves,HE,47.7333,20.25
3357,Nagyút,Heves,HE,47.7167,20.1667
3358,Erd?telek,Heves,HE,47.6833,20.3167
3359,Tenk,Heves,HE,47.65,20.35
3360,Heves,Heves,HE,47.6,20.2833
3368,Boconád,Heves,HE,47.6333,20.2
3369,Tarnabod,Heves,HE,47.6833,20.2333
3371,Átány,Heves,HE,47.6167,20.3667
3372,Köml?,Heves,HE,47.6,20.45
3373,Beseny?telek,Heves,HE,47.7,20.4333
3374,Dormánd,Heves,HE,47.7167,20.4167
3375,Mez?tárkány,Heves,HE,47.7167,20.4833
3377,Szihalom,Heves,HE,47.7667,20.4833
3378,Mez?szemere,Heves,HE,47.75,20.5333
3379,Egerfarmos,Heves,HE,47.7167,20.55
3381,Pély,Heves,HE,47.4833,20.35
3382,Tarnaszentmiklós,Heves,HE,47.5333,20.3833
3383,Hevesvezekény,Heves,HE,47.55,20.3667
3384,Kisköre,Heves,HE,47.5,20.5
3385,Tiszanána,Heves,HE,47.5667,20.5333
3386,Sarud,Heves,HE,47.5833,20.6
3387,Újl?rincfalva,Heves,HE,47.6333,20.6
3388,Poroszló,Heves,HE,47.65,20.6667
3390,Füzesabony,Heves,HE,47.75,20.4167
3392,Füzesabony,Heves,HE,47.75,20.4167
3393,Füzesabony,Heves,HE,47.75,20.4167
3394,Egerszalók,Heves,HE,47.8667,20.3333
3395,Demjén,Heves,HE,47.8333,20.3333
3396,Kerecsend,Heves,HE,47.8,20.35
3397,Maklár,Heves,HE,47.8,20.4167
3398,Nagytálya,Heves,HE,47.8167,20.4167
3399,Andornaktálya,Heves,HE,47.85,20.4167
5000,Szolnok,Jász-Nagykun-Szolnok,JN,47.1833,20.2
5001,Szolnok,Jász-Nagykun-Szolnok,JN,47.1833,20.2
5002,Szolnok,Jász-Nagykun-Szolnok,JN,47.1833,20.2
5003,Szolnok,Jász-Nagykun-Szolnok,JN,47.1833,20.2
5004,Szolnok,Jász-Nagykun-Szolnok,JN,47.1833,20.2
5005,Szolnok,Jász-Nagykun-Szolnok,JN,47.1833,20.2
5006,Szolnok,Jász-Nagykun-Szolnok,JN,47.1833,20.2
5007,Szolnok,Jász-Nagykun-Szolnok,JN,47.1833,20.2
5008,Szolnok,Jász-Nagykun-Szolnok,JN,47.1833,20.2
5009,Szolnok,Jász-Nagykun-Szolnok,JN,47.1833,20.2
5051,Zagyvarékas,Jász-Nagykun-Szolnok,JN,47.2667,20.1333
5052,Újszász,Jász-Nagykun-Szolnok,JN,47.3,20.0833
5053,Szászberek,Jász-Nagykun-Szolnok,JN,47.3167,20.1
5054,Jászalsószentgyörgy,Jász-Nagykun-Szolnok,JN,47.3667,20.1
5055,Jászladány,Jász-Nagykun-Szolnok,JN,47.3667,20.1667
5061,Tiszasüly,Jász-Nagykun-Szolnok,JN,47.3833,20.4
5062,K?telek,Jász-Nagykun-Szolnok,JN,47.3333,20.45
5063,Hunyadfalva,Jász-Nagykun-Szolnok,JN,47.3167,20.3833
5064,Csataszög,Jász-Nagykun-Szolnok,JN,47.2833,20.4
5065,Nagykör?,Jász-Nagykun-Szolnok,JN,47.2667,20.45
5071,Besenyszög,Jász-Nagykun-Szolnok,JN,47.3,20.2667
5081,Szajol,Jász-Nagykun-Szolnok,JN,47.1833,20.3
5082,Tiszateny?,Jász-Nagykun-Szolnok,JN,47.1333,20.3833
5083,Kengyel,Jász-Nagykun-Szolnok,JN,47.0833,20.3333
5084,Rákócziújfalu,Jász-Nagykun-Szolnok,JN,47.0667,20.2667
5085,Rákóczifalva,Jász-Nagykun-Szolnok,JN,47.0833,20.2333
5091,Tószeg,Jász-Nagykun-Szolnok,JN,47.1,20.15
5092,Tiszavárkony,Jász-Nagykun-Szolnok,JN,47.0667,20.1833
5093,Vezseny,Jász-Nagykun-Szolnok,JN,47.0333,20.2167
5094,Tiszajen?,Jász-Nagykun-Szolnok,JN,47.0333,20.15
5095,Tiszajen?,Jász-Nagykun-Szolnok,JN,47.0333,20.15
5100,Jászberény,Jász-Nagykun-Szolnok,JN,47.5,19.9167
5101,Jászberény,Jász-Nagykun-Szolnok,JN,47.5,19.9167
5102,Jászberény,Jász-Nagykun-Szolnok,JN,47.5,19.9167
5111,Jászfels?szentgyörgy,Jász-Nagykun-Szolnok,JN,47.5,19.8
5121,Jászjákóhalma,Jász-Nagykun-Szolnok,JN,47.5167,20
5122,Jászdózsa,Jász-Nagykun-Szolnok,JN,47.5667,20.0167
5123,Jászárokszállás,Jász-Nagykun-Szolnok,JN,47.6333,19.9833
5124,Jászágó,Jász-Nagykun-Szolnok,JN,47.6,19.8667
5125,Pusztamonostor,Jász-Nagykun-Szolnok,JN,47.55,19.8
5126,Jászfényszaru,Jász-Nagykun-Szolnok,JN,47.5667,19.7167
5130,Jászapáti,Jász-Nagykun-Szolnok,JN,47.5167,20.15
5131,Jászapáti,Jász-Nagykun-Szolnok,JN,47.5167,20.15
5135,Jászivány,Jász-Nagykun-Szolnok,JN,47.5333,20.25
5136,Jászszentandrás,Jász-Nagykun-Szolnok,JN,47.5833,20.1833
5137,Jászkisér,Jász-Nagykun-Szolnok,JN,47.45,20.2167
5141,Jásztelek,Jász-Nagykun-Szolnok,JN,47.4833,20
5142,Alattyán,Jász-Nagykun-Szolnok,JN,47.4333,20.05
5143,Jánoshida,Jász-Nagykun-Szolnok,JN,47.3833,20.0667
5144,Jászboldogháza,Jász-Nagykun-Szolnok,JN,47.3667,20
5152,Jászboldogháza,Jász-Nagykun-Szolnok,JN,47.3667,20
5200,Törökszentmiklós,Jász-Nagykun-Szolnok,JN,47.1833,20.4167
5201,Törökszentmiklós,Jász-Nagykun-Szolnok,JN,47.1833,20.4167
5211,Tiszapüspöki,Jász-Nagykun-Szolnok,JN,47.2167,20.3167
5212,Tiszapüspöki,Jász-Nagykun-Szolnok,JN,47.2167,20.3167
5213,Tiszapüspöki,Jász-Nagykun-Szolnok,JN,47.2167,20.3167
5222,Örményes,Jász-Nagykun-Szolnok,JN,47.2,20.5833
5231,Fegyvernek,Jász-Nagykun-Szolnok,JN,47.2667,20.5333
5232,Tiszab?,Jász-Nagykun-Szolnok,JN,47.3,20.4833
5233,Tiszagyenda,Jász-Nagykun-Szolnok,JN,47.3833,20.5167
5234,Tiszaroff,Jász-Nagykun-Szolnok,JN,47.4,20.45
5235,Tiszabura,Jász-Nagykun-Szolnok,JN,47.45,20.4667
5241,Abádszalók,Jász-Nagykun-Szolnok,JN,47.4667,20.6
5243,Tiszaderzs,Jász-Nagykun-Szolnok,JN,47.5167,20.65
5244,Tiszasz?l?s,Jász-Nagykun-Szolnok,JN,47.6167,20.7667
5300,Karcag,Jász-Nagykun-Szolnok,JN,47.3167,20.9333
5301,Karcag,Jász-Nagykun-Szolnok,JN,47.3167,20.9333
5302,Karcag,Jász-Nagykun-Szolnok,JN,47.3167,20.9333
5309,Berekfürd?,Jász-Nagykun-Szolnok,JN,47.3833,20.85
5310,Kisújszállás,Jász-Nagykun-Szolnok,JN,47.2167,20.7667
5311,Kisújszállás,Jász-Nagykun-Szolnok,JN,47.2167,20.7667
5321,Kunmadaras,Jász-Nagykun-Szolnok,JN,47.4333,20.8
5322,Tiszaszentimre,Jász-Nagykun-Szolnok,JN,47.4833,20.7333
5323,Tiszaszentimre,Jász-Nagykun-Szolnok,JN,47.4833,20.7333
5324,Tomajmonostora,Jász-Nagykun-Szolnok,JN,47.4333,20.7167
5331,Kenderes,Jász-Nagykun-Szolnok,JN,47.25,20.6833
5340,Kunhegyes,Jász-Nagykun-Szolnok,JN,47.3667,20.6333
5341,Kunhegyes,Jász-Nagykun-Szolnok,JN,47.3667,20.6333
5349,Kunhegyes,Jász-Nagykun-Szolnok,JN,47.3667,20.6333
5350,Tiszafüred,Jász-Nagykun-Szolnok,JN,47.6167,20.7667
5351,Tiszafüred,Jász-Nagykun-Szolnok,JN,47.6167,20.7667
5358,Tiszafüred,Jász-Nagykun-Szolnok,JN,47.6167,20.7667
5359,Tiszafüred,Jász-Nagykun-Szolnok,JN,47.6167,20.7667
5361,Tiszaigar,Jász-Nagykun-Szolnok,JN,47.5333,20.8
5362,Tiszaörs,Jász-Nagykun-Szolnok,JN,47.5167,20.8333
5363,Nagyiván,Jász-Nagykun-Szolnok,JN,47.4833,20.9333
5400,Mez?túr,Jász-Nagykun-Szolnok,JN,47,20.6333
5401,Mez?túr,Jász-Nagykun-Szolnok,JN,47,20.6333
5403,Mez?túr,Jász-Nagykun-Szolnok,JN,47,20.6333
5404,Mez?túr,Jász-Nagykun-Szolnok,JN,47,20.6333
5411,Kétpó,Jász-Nagykun-Szolnok,JN,47.0833,20.4667
5412,Kuncsorba,Jász-Nagykun-Szolnok,JN,47.1333,20.5667
5420,Túrkeve,Jász-Nagykun-Szolnok,JN,47.1,20.75
5421,Túrkeve,Jász-Nagykun-Szolnok,JN,47.1,20.75
5430,Tiszaföldvár,Jász-Nagykun-Szolnok,JN,46.9833,20.25
5431,Tiszaföldvár,Jász-Nagykun-Szolnok,JN,46.9833,20.25
5432,Tiszaföldvár,Jász-Nagykun-Szolnok,JN,46.9833,20.25
5435,Martf?,Jász-Nagykun-Szolnok,JN,47.0167,20.2833
5440,Kunszentmárton,Jász-Nagykun-Szolnok,JN,46.8333,20.2833
5441,Kunszentmárton,Jász-Nagykun-Szolnok,JN,46.8333,20.2833
5449,Kunszentmárton,Jász-Nagykun-Szolnok,JN,46.8333,20.2833
5451,Öcsöd,Jász-Nagykun-Szolnok,JN,46.9,20.4
5452,Mesterszállás,Jász-Nagykun-Szolnok,JN,46.95,20.4333
5453,Mez?hék,Jász-Nagykun-Szolnok,JN,47,20.4
5461,Mez?hék,Jász-Nagykun-Szolnok,JN,47,20.4
5462,Cibakháza,Jász-Nagykun-Szolnok,JN,46.9667,20.2
5463,Nagyrév,Jász-Nagykun-Szolnok,JN,46.95,20.15
5464,Tiszainoka,Jász-Nagykun-Szolnok,JN,46.9,20.15
5465,Cserkesz?l?,Jász-Nagykun-Szolnok,JN,46.8667,20.1833
5471,Tiszakürt,Jász-Nagykun-Szolnok,JN,46.8833,20.1167
5473,Tiszaug,Jász-Nagykun-Szolnok,JN,46.8333,20.1542
5474,Tiszasas,Jász-Nagykun-Szolnok,JN,46.8167,20.0833
5475,Csépa,Jász-Nagykun-Szolnok,JN,46.8,20.1333
5476,Szelevény,Jász-Nagykun-Szolnok,JN,46.8333,20.2833
2027,Dömös,Komárom-Esztergom,KE,47.7667,18.9167
2028,Pilismarót,Komárom-Esztergom,KE,47.7833,18.8833
2500,Esztergom,Komárom-Esztergom,KE,47.8,18.75
2501,Esztergom,Komárom-Esztergom,KE,47.8,18.75
2503,Esztergom,Komárom-Esztergom,KE,47.8,18.75
2509,Esztergom,Komárom-Esztergom,KE,47.8,18.75
2510,Dorog,Komárom-Esztergom,KE,47.7167,18.7333
2511,Dorog,Komárom-Esztergom,KE,47.7167,18.7333
2512,Dorog,Komárom-Esztergom,KE,47.7167,18.7333
2517,Kesztölc,Komárom-Esztergom,KE,47.7167,18.8
2518,Leányvár,Komárom-Esztergom,KE,47.6833,18.7833
2519,Piliscsév,Komárom-Esztergom,KE,47.6833,18.8167
2521,Csolnok,Komárom-Esztergom,KE,47.7,18.7167
2522,Dág,Komárom-Esztergom,KE,47.6667,18.7167
2523,Sárisáp,Komárom-Esztergom,KE,47.6833,18.6833
2524,Nagysáp,Komárom-Esztergom,KE,47.6833,18.6
2525,Bajna,Komárom-Esztergom,KE,47.65,18.6
2526,Epöl,Komárom-Esztergom,KE,47.65,18.65
2527,Máriahalom,Komárom-Esztergom,KE,47.6333,18.7167
2528,Úny,Komárom-Esztergom,KE,47.6333,18.7333
2529,Annavölgy,Komárom-Esztergom,KE,47.6625,18.6771
2531,Tokod,Komárom-Esztergom,KE,47.7167,18.6667
2532,Tokodaltáró,Komárom-Esztergom,KE,47.7444,18.5972
2533,Bajót,Komárom-Esztergom,KE,47.7333,18.5667
2534,Tát,Komárom-Esztergom,KE,47.75,18.65
2535,Mogyorósbánya,Komárom-Esztergom,KE,47.7333,18.6
2536,Nyergesújfalu,Komárom-Esztergom,KE,47.7667,18.55
2537,Nyergesújfalu,Komárom-Esztergom,KE,47.7667,18.55
2541,Lábatlan,Komárom-Esztergom,KE,47.75,18.5
2542,Lábatlan,Komárom-Esztergom,KE,47.75,18.5
2543,Sütt?,Komárom-Esztergom,KE,47.75,18.45
2544,Neszmély,Komárom-Esztergom,KE,47.7333,18.3667
2545,Dunaalmás,Komárom-Esztergom,KE,47.7333,18.3333
2800,Tatabánya,Komárom-Esztergom,KE,47.5667,18.4167
2801,Tatabánya,Komárom-Esztergom,KE,47.5667,18.4167
2802,Tatabánya,Komárom-Esztergom,KE,47.5667,18.4167
2803,Tatabánya,Komárom-Esztergom,KE,47.5667,18.4167
2804,Tatabánya,Komárom-Esztergom,KE,47.5667,18.4167
2805,Tatabánya,Komárom-Esztergom,KE,47.5667,18.4167
2806,Tatabánya,Komárom-Esztergom,KE,47.5667,18.4167
2807,Tatabánya,Komárom-Esztergom,KE,47.5667,18.4167
2808,Tatabánya,Komárom-Esztergom,KE,47.5667,18.4167
2809,Tatabánya,Komárom-Esztergom,KE,47.5667,18.4167
2821,Gyermely,Komárom-Esztergom,KE,47.6,18.65
2822,Szomor,Komárom-Esztergom,KE,47.5833,18.6667
2823,Vértessomló,Komárom-Esztergom,KE,47.5167,18.3667
2824,Várgesztes,Komárom-Esztergom,KE,47.4667,18.4
2831,Tarján,Komárom-Esztergom,KE,47.6167,18.5167
2832,Héreg,Komárom-Esztergom,KE,47.65,18.5167
2833,Vértestolna,Komárom-Esztergom,KE,47.6333,18.45
2834,Tardos,Komárom-Esztergom,KE,47.6667,18.45
2835,Tardos,Komárom-Esztergom,KE,47.6667,18.45
2836,Baj,Komárom-Esztergom,KE,47.65,18.3667
2837,Vértessz?l?s,Komárom-Esztergom,KE,47.6167,18.3833
2840,Oroszlány,Komárom-Esztergom,KE,47.4833,18.3167
2841,Oroszlány,Komárom-Esztergom,KE,47.4833,18.3167
2842,Oroszlány,Komárom-Esztergom,KE,47.4833,18.3167
2851,Környe,Komárom-Esztergom,KE,47.55,18.3333
2852,Kecskéd,Komárom-Esztergom,KE,47.5167,18.3167
2853,Köml?d,Komárom-Esztergom,KE,47.55,18.2667
2854,Dad,Komárom-Esztergom,KE,47.5167,18.2333
2855,Bokod,Komárom-Esztergom,KE,47.5,18.25
2856,Szákszend,Komárom-Esztergom,KE,47.55,18.1667
2858,Császár,Komárom-Esztergom,KE,47.5,18.15
2859,Vérteskethely,Komárom-Esztergom,KE,47.4833,18.0833
2861,Bakonysárkány,Komárom-Esztergom,KE,47.45,18.1
2862,Aka,Komárom-Esztergom,KE,47.4,18.0667
2870,Kisbér,Komárom-Esztergom,KE,47.5,18.0333
2879,Kisbér,Komárom-Esztergom,KE,47.5,18.0333
2881,Ászár,Komárom-Esztergom,KE,47.5042,18
2882,Kerékteleki,Komárom-Esztergom,KE,47.5167,17.9333
2883,Bársonyos,Komárom-Esztergom,KE,47.5167,17.9167
2884,Bakonyszombathely,Komárom-Esztergom,KE,47.4667,17.9667
2885,Bakonybánk,Komárom-Esztergom,KE,47.4667,17.9
2886,Réde,Komárom-Esztergom,KE,47.4333,17.9167
2887,Ácsteszér,Komárom-Esztergom,KE,47.4,18.0167
2888,Csatka,Komárom-Esztergom,KE,47.3667,17.9833
2889,Súr,Komárom-Esztergom,KE,47.3667,18.0333
2890,Tata,Komárom-Esztergom,KE,47.65,18.3167
2891,Tata,Komárom-Esztergom,KE,47.65,18.3167
2892,Tata,Komárom-Esztergom,KE,47.65,18.3167
2893,Tata,Komárom-Esztergom,KE,47.65,18.3167
2894,Tata,Komárom-Esztergom,KE,47.65,18.3167
2896,Szomód,Komárom-Esztergom,KE,47.6833,18.35
2897,Dunaszentmiklós,Komárom-Esztergom,KE,47.7,18.3833
2898,Kocs,Komárom-Esztergom,KE,47.6,18.2167
2899,Naszály,Komárom-Esztergom,KE,47.7,18.2667
2900,Komárom,Komárom-Esztergom,KE,47.7333,18.1167
2901,Komárom,Komárom-Esztergom,KE,47.7333,18.1167
2902,Komárom,Komárom-Esztergom,KE,47.7333,18.1167
2903,Komárom,Komárom-Esztergom,KE,47.7333,18.1167
2904,Komárom,Komárom-Esztergom,KE,47.7333,18.1167
2911,Mocsa,Komárom-Esztergom,KE,47.6667,18.1833
2921,Mocsa,Komárom-Esztergom,KE,47.6667,18.1833
2922,Mocsa,Komárom-Esztergom,KE,47.6667,18.1833
2931,Almásfüzit?,Komárom-Esztergom,KE,47.7167,18.2667
2932,Almásfüzit?,Komárom-Esztergom,KE,47.7167,18.2667
2941,Ács,Komárom-Esztergom,KE,47.7,18.0167
2942,Nagyigmánd,Komárom-Esztergom,KE,47.6333,18.0833
2943,Bábolna,Komárom-Esztergom,KE,47.6333,17.9833
2944,Bana,Komárom-Esztergom,KE,47.65,17.9167
2945,Tárkány,Komárom-Esztergom,KE,47.5833,18
2946,Csép,Komárom-Esztergom,KE,47.5833,18.0667
2947,Ete,Komárom-Esztergom,KE,47.5,18.0333
2948,Kisigmánd,Komárom-Esztergom,KE,47.65,18.1
2949,Csém,Komárom-Esztergom,KE,47.6833,18.1
2175,Kálló,Nógrád,NO,47.75,19.5
2176,Erd?kürt,Nógrád,NO,47.7667,19.4667
2177,Erd?tarcsa,Nógrád,NO,47.7667,19.55
2610,N?tincs,Nógrád,NO,47.8833,19.15
2611,Fels?petény,Nógrád,NO,47.8833,19.2
2616,?sagárd,Nógrád,NO,47.8667,19.2
2617,Alsópetény,Nógrád,NO,47.8833,19.25
2618,Nézsa,Nógrád,NO,47.85,19.3
2619,Legénd,Nógrád,NO,47.8833,19.3167
2640,Szendehely,Nógrád,NO,47.85,19.1167
2641,Berkenye,Nógrád,NO,47.8833,19.0833
2642,Nógrád,Nógrád,NO,47.9167,19.05
2643,Diósjen?,Nógrád,NO,47.95,19.05
2644,Borsosberény,Nógrád,NO,47.9667,19.1167
2645,Nagyoroszi,Nógrád,NO,48,19.1
2646,Drégelypalánk,Nógrád,NO,48.05,19.05
2647,Hont,Nógrád,NO,48.05,19
2648,Patak,Nógrád,NO,48.0333,19.15
2649,Dejtár,Nógrád,NO,48.0333,19.1667
2651,Rétság,Nógrád,NO,47.9333,19.1333
2652,Tereske,Nógrád,NO,47.95,19.2
2653,Bánk,Nógrád,NO,47.9333,19.1833
2654,Romhány,Nógrád,NO,47.9333,19.2667
2655,Kisecset,Nógrád,NO,47.9333,19.3167
2656,Szátok,Nógrád,NO,47.95,19.2333
2657,Tolmács,Nógrád,NO,47.9333,19.1333
2658,Pusztaberki,Nógrád,NO,47.9667,19.1667
2659,Érsekvadkert,Nógrád,NO,48,19.2
2660,Balassagyarmat,Nógrád,NO,48.0833,19.3
2661,Balassagyarmat,Nógrád,NO,48.0833,19.3
2662,Balassagyarmat,Nógrád,NO,48.0833,19.3
2668,Patvarc,Nógrád,NO,48.0667,19.35
2669,Ipolyvece,Nógrád,NO,48.0667,19.1167
2671,?rhalom,Nógrád,NO,48.0833,19.4167
2672,Hugyag,Nógrád,NO,48.0833,19.4333
2673,Csitár,Nógrád,NO,48.05,19.4333
2675,Nógrádmarcal,Nógrád,NO,48.0333,19.4
2676,Cserhátsurány,Nógrád,NO,47.9833,19.4333
2677,Herencsény,Nógrád,NO,47.9833,19.4833
2678,Csesztve,Nógrád,NO,48.0167,19.2833
2685,Nógrádsáp,Nógrád,NO,47.8333,19.35
2686,Galgaguta,Nógrád,NO,47.85,19.4
2687,Bercel,Nógrád,NO,47.8667,19.4167
2688,Vanyarc,Nógrád,NO,47.8333,19.45
2691,Nógrádkövesd,Nógrád,NO,47.8667,19.3833
2692,Szécsénke,Nógrád,NO,47.9,19.3333
2693,Becske,Nógrád,NO,47.9167,19.3833
2694,Magyarnándor,Nógrád,NO,47.9667,19.35
2696,Terény,Nógrád,NO,47.95,19.45
2697,Szanda,Nógrád,NO,47.9333,19.45
2698,Mohora,Nógrád,NO,47.9833,19.3333
2699,Szügy,Nógrád,NO,48.0333,19.3333
3041,Héhalom,Nógrád,NO,47.8,19.6
3042,Palotás,Nógrád,NO,47.8,19.6
3043,Egyházasdengeleg,Nógrád,NO,47.8,19.5667
3044,Szirák,Nógrád,NO,47.8333,19.5333
3045,Bér,Nógrád,NO,47.8667,19.5
3046,Kisbágyon,Nógrád,NO,47.8167,19.5833
3047,Buják,Nógrád,NO,47.8833,19.55
3051,Szarvasgede,Nógrád,NO,47.8167,19.65
3052,Csécse,Nógrád,NO,47.8667,19.6333
3053,Kozárd,Nógrád,NO,47.9167,19.6167
3060,Pásztó,Nógrád,NO,47.9167,19.7
3061,Pásztó,Nógrád,NO,47.9167,19.7
3062,Pásztó,Nógrád,NO,47.9167,19.7
3063,Jobbágyi,Nógrád,NO,47.8333,19.6833
3064,Szurdokpüspöki,Nógrád,NO,47.85,19.6833
3065,Szurdokpüspöki,Nógrád,NO,47.85,19.6833
3066,Cserhátszentiván,Nógrád,NO,47.9333,19.5833
3067,Fels?told,Nógrád,NO,47.9667,19.6167
3068,Mátrasz?l?s,Nógrád,NO,47.9667,19.6833
3069,Alsótold,Nógrád,NO,47.95,19.6
3070,Bátonyterenye,Nógrád,NO,47.9667,19.8333
3071,Bátonyterenye,Nógrád,NO,47.9667,19.8333
3072,Bátonyterenye,Nógrád,NO,47.9667,19.8333
3073,Tar,Nógrád,NO,47.95,19.75
3074,Sámsonháza,Nógrád,NO,47.9833,19.7333
3075,Márkháza,Nógrád,NO,48.0167,19.7333
3077,Mátraverebély,Nógrád,NO,47.9833,19.7833
3078,Mátraverebély,Nógrád,NO,47.9833,19.7833
3082,Mátraverebély,Nógrád,NO,47.9833,19.7833
3100,Salgótarján,Nógrád,NO,48.1167,19.8167
3101,Salgótarján,Nógrád,NO,48.1167,19.8167
3102,Salgótarján,Nógrád,NO,48.1167,19.8167
3103,Salgótarján,Nógrád,NO,48.1167,19.8167
3104,Salgótarján,Nógrád,NO,48.1167,19.8167
3107,Salgótarján,Nógrád,NO,48.1167,19.8167
3109,Salgótarján,Nógrád,NO,48.1167,19.8167
3110,Salgótarján,Nógrád,NO,48.1167,19.8167
3121,Salgótarján,Nógrád,NO,48.1167,19.8167
3123,Cered,Nógrád,NO,48.15,19.9667
3124,Zabar,Nógrád,NO,48.1333,20.05
3125,Szilaspogony,Nógrád,NO,48.1167,20.0333
3126,Bárna,Nógrád,NO,48.1,19.9333
3127,Kazár,Nógrád,NO,48.05,19.8667
3128,Vizslás,Nógrád,NO,48.05,19.8167
3129,Lucfalva,Nógrád,NO,48.0333,19.7
3131,Sóshartyán,Nógrád,NO,48.0667,19.6833
3132,Nógrádmegyer,Nógrád,NO,48.0667,19.6333
3133,Magyargéc,Nógrád,NO,48.0833,19.6167
3134,Piliny,Nógrád,NO,48.15,19.6
3135,Szécsényfelfalu,Nógrád,NO,48.15,19.5667
3136,Etes,Nógrád,NO,48.1167,19.7167
3137,Karancsberény,Nógrád,NO,48.1833,19.75
3138,Ipolytarnóc,Nógrád,NO,48.2333,19.6333
3141,Ipolytarnóc,Nógrád,NO,48.2333,19.6333
3142,Mátraszele,Nógrád,NO,48.05,19.9
3143,Mátranovák,Nógrád,NO,48.0333,19.9833
3144,Mátranovák,Nógrád,NO,48.0333,19.9833
3145,Mátraterenye,Nógrád,NO,48.0333,19.95
3146,Mátraterenye,Nógrád,NO,48.0333,19.95
3147,Mátraterenye,Nógrád,NO,48.0333,19.95
3151,Rákóczibánya,Nógrád,NO,47.9875,19.9125
3152,Nemti,Nógrád,NO,48.0167,19.9
3153,Dorogháza,Nógrád,NO,47.9833,19.9
3154,Szuha,Nógrád,NO,47.9833,19.9167
3155,Mátramindszent,Nógrád,NO,47.9667,19.9333
3161,Kishartyán,Nógrád,NO,48.0833,19.7167
3162,Ságújfalu,Nógrád,NO,48.1,19.6833
3163,Szalmatercs,Nógrád,NO,48.1167,19.6333
3165,Endrefalva,Nógrád,NO,48.1333,19.5833
3170,Szécsény,Nógrád,NO,48.0833,19.5167
3175,Nagylóc,Nógrád,NO,48.0333,19.5833
3176,Hollók?,Nógrád,NO,48,19.6
3177,Rimóc,Nógrád,NO,48.0333,19.5333
3178,Varsány,Nógrád,NO,48.0333,19.5
3179,Nógrádsipek,Nógrád,NO,48.0167,19.5
3181,Karancsalja,Nógrád,NO,48.1333,19.75
3182,Karancslapujt?,Nógrád,NO,48.15,19.7333
3183,Karancskeszi,Nógrád,NO,48.1667,19.7
3184,Mihálygerge,Nógrád,NO,48.2,19.6333
3185,Egyházasgerge,Nógrád,NO,48.1833,19.65
3186,Litke,Nógrád,NO,48.2167,19.6
3187,Nógrádszakál,Nógrád,NO,48.1833,19.5333
3188,Ludányhalászi,Nógrád,NO,48.1333,19.5167
2000,Szentendre,Pest,PE,47.6667,19.0833
2001,Szentendre,Pest,PE,47.6667,19.0833
2002,Szentendre,Pest,PE,47.6667,19.0833
2003,Szentendre,Pest,PE,47.6667,19.0833
2009,Pilisszentlászló,Pest,PE,47.7167,19
2011,Budakalász,Pest,PE,47.6167,19.05
2012,Budakalász,Pest,PE,47.6167,19.05
2013,Budakalász,Pest,PE,47.6167,19.05
2014,Csobánka,Pest,PE,47.6333,18.9667
2015,Szigetmonostor,Pest,PE,47.6833,19.1167
2016,Leányfalu,Pest,PE,47.7167,19.0833
2017,Pócsmegyer,Pest,PE,47.7167,19.1
2019,Pomáz,Pest,PE,47.65,19.0333
2021,Tahitótfalu,Pest,PE,47.75,19.1
2022,Tahitótfalu,Pest,PE,47.75,19.1
2023,Dunabogdány,Pest,PE,47.7833,19.0333
2024,Kisoroszi,Pest,PE,47.8,19.0167
2025,Visegrád,Pest,PE,47.7833,18.9833
2026,Visegrád,Pest,PE,47.7833,18.9833
2030,Érd,Pest,PE,47.3667,18.9333
2031,Érd,Pest,PE,47.3667,18.9333
2032,Érd,Pest,PE,47.3667,18.9333
2033,Érd,Pest,PE,47.3667,18.9333
2035,Érd,Pest,PE,47.3667,18.9333
2036,Érd,Pest,PE,47.3667,18.9333
2038,Sóskút,Pest,PE,47.4,18.8333
2039,Pusztazámor,Pest,PE,47.4,18.7833
2040,Budaörs,Pest,PE,47.4531,18.9602
2041,Budaörs,Pest,PE,47.45,18.9667
2042,Budaörs,Pest,PE,47.45,18.9667
2043,Budaörs,Pest,PE,47.45,18.9667
2044,Budaörs,Pest,PE,47.45,18.9667
2045,Törökbálint,Pest,PE,47.4333,18.9167
2046,Törökbálint,Pest,PE,47.4333,18.9167
2047,Törökbálint,Pest,PE,47.4333,18.9167
2049,Diósd,Pest,PE,47.4,18.95
2050,Diósd,Pest,PE,47.4,18.95
2051,Biatorbágy,Pest,PE,47.4667,18.8167
2052,Biatorbágy,Pest,PE,47.4667,18.8167
2053,Herceghalom,Pest,PE,47.5,18.75
2055,Herceghalom,Pest,PE,47.5,18.75
2056,Herceghalom,Pest,PE,47.5,18.75
2071,Páty,Pest,PE,47.5167,18.8333
2072,Zsámbék,Pest,PE,47.55,18.7167
2073,Tök,Pest,PE,47.5667,18.7333
2074,Perbál,Pest,PE,47.6,18.7667
2080,Pilisjászfalu,Pest,PE,47.6042,18.8521
2081,Piliscsaba,Pest,PE,47.6167,18.8333
2082,Piliscsaba,Pest,PE,47.6167,18.8333
2083,Solymár,Pest,PE,47.5833,18.9333
2084,Pilisszentiván,Pest,PE,47.6167,18.9
2085,Pilisvörösvár,Pest,PE,47.6167,18.9167
2086,Tinnye,Pest,PE,47.6167,18.7833
2087,Tinnye,Pest,PE,47.6167,18.7833
2089,Telki,Pest,PE,47.55,18.8333
2090,Remetesz?l?s,Pest,PE,47.6,18.8981
2092,Budakeszi,Pest,PE,47.5167,18.9333
2093,Budajen?,Pest,PE,47.55,18.8
2094,Nagykovácsi,Pest,PE,47.5833,18.8833
2095,Pilisszántó,Pest,PE,47.6667,18.9
2096,Üröm,Pest,PE,47.6,19.0167
2097,Pilisborosjen?,Pest,PE,47.6167,19
2098,Pilisszentkereszt,Pest,PE,47.7,18.9
2099,Dobogók?,Pest,PE,47.7167,18.9
2100,Gödöll?,Pest,PE,47.6,19.3667
2101,Gödöll?,Pest,PE,47.6,19.3667
2102,Gödöll?,Pest,PE,47.6,19.3667
2103,Gödöll?,Pest,PE,47.6,19.3667
2105,Gödöll?,Pest,PE,47.6,19.3667
2111,Szada,Pest,PE,47.6333,19.3167
2112,Veresegyház,Pest,PE,47.65,19.2833
2113,Erd?kertes,Pest,PE,47.6667,19.3167
2114,Valkó,Pest,PE,47.5667,19.5167
2115,Vácszentlászló,Pest,PE,47.5833,19.5333
2116,Zsámbok,Pest,PE,47.55,19.6167
2117,Isaszeg,Pest,PE,47.5333,19.4
2118,Dány,Pest,PE,47.5167,19.55
2119,Pécel,Pest,PE,47.4833,19.35
2120,Dunakeszi,Pest,PE,47.6333,19.1333
2121,Dunakeszi,Pest,PE,47.6333,19.1333
2122,Dunakeszi,Pest,PE,47.6333,19.1333
2123,Dunakeszi,Pest,PE,47.6333,19.1333
2131,Göd,Pest,PE,47.7,19.1333
2132,Göd,Pest,PE,47.6976,19.1539
2133,Sz?dliget,Pest,PE,47.7333,19.15
2134,Sz?d,Pest,PE,47.7167,19.2
2135,Csörög,Pest,PE,47.7333,19.1833
2141,Csömör,Pest,PE,47.55,19.2333
2142,Nagytarcsa,Pest,PE,47.5333,19.2833
2143,Kistarcsa,Pest,PE,47.5333,19.2667
2144,Kerepes,Pest,PE,47.5333,19.2667
2145,Kerepes,Pest,PE,47.5333,19.2667
2146,Mogyoród,Pest,PE,47.6,19.25
2151,Fót,Pest,PE,47.6167,19.2
2152,Fót,Pest,PE,47.6167,19.2
2153,Fót,Pest,PE,47.6167,19.2
2161,Csomád,Pest,PE,47.6667,19.2333
2162,?rbottyán,Pest,PE,47.6833,19.2667
2163,Vácrátót,Pest,PE,47.7167,19.2333
2164,Váchartyán,Pest,PE,47.7333,19.2667
2165,Kisnémedi,Pest,PE,47.7333,19.3
2166,Püspökszilágy,Pest,PE,47.7333,19.3167
2167,Vácduka,Pest,PE,47.75,19.2167
2170,Aszód,Pest,PE,47.65,19.5
2173,Kartal,Pest,PE,47.6667,19.55
2174,Verseg,Pest,PE,47.7167,19.55
2181,Iklad,Pest,PE,47.6667,19.45
2182,Domony,Pest,PE,47.65,19.4333
2183,Galgamácsa,Pest,PE,47.7,19.3833
2184,Vácegres,Pest,PE,47.6833,19.3667
2185,Váckisújfalu,Pest,PE,47.7,19.35
2191,Bag,Pest,PE,47.6333,19.4833
2192,Hévízgyörk,Pest,PE,47.6333,19.5167
2193,Galgahévíz,Pest,PE,47.6167,19.5667
2194,Tura,Pest,PE,47.6167,19.6
2200,Monor,Pest,PE,47.35,19.45
2201,Monor,Pest,PE,47.35,19.45
2202,Monor,Pest,PE,47.35,19.45
2209,Péteri,Pest,PE,47.3833,19.4167
2211,Vasad,Pest,PE,47.3167,19.4
2212,Csévharaszt,Pest,PE,47.3,19.4333
2213,Csévharaszt,Pest,PE,47.3,19.4333
2214,Pánd,Pest,PE,47.35,19.6333
2215,Káva,Pest,PE,47.35,19.5833
2216,Bénye,Pest,PE,47.35,19.55
2217,Gomba,Pest,PE,47.3667,19.5333
2220,Vecsés,Pest,PE,47.4018,19.2458
2221,Vecsés,Pest,PE,47.4,19.2833
2222,Vecsés,Pest,PE,47.4,19.2833
2225,Üll?,Pest,PE,47.3833,19.35
2230,Gyömr?,Pest,PE,47.4167,19.4
2233,Ecser,Pest,PE,47.45,19.3333
2234,Maglód,Pest,PE,47.45,19.3667
2235,Mende,Pest,PE,47.4167,19.45
2241,Sülysáp,Pest,PE,47.45,19.5583
2242,Sülysáp,Pest,PE,47.45,19.5583
2243,Kóka,Pest,PE,47.4833,19.5833
2244,Úri,Pest,PE,47.4167,19.5333
2251,Tápiószecs?,Pest,PE,47.45,19.6
2252,Tóalmás,Pest,PE,47.5167,19.6667
2253,Tápióság,Pest,PE,47.4,19.6167
2254,Szentmártonkáta,Pest,PE,47.45,19.7
2255,Szentl?rinckáta,Pest,PE,47.5167,19.75
2300,Ráckeve,Pest,PE,47.1667,18.95
2301,Ráckeve,Pest,PE,47.1667,18.95
2309,Lórév,Pest,PE,47.1167,18.9
2310,Szigetszentmiklós,Pest,PE,47.35,19.05
2311,Szigetszentmiklós,Pest,PE,47.35,19.05
2313,Szigetszentmiklós,Pest,PE,47.35,19.05
2314,Halásztelek,Pest,PE,47.3667,18.9833
2315,Szigethalom,Pest,PE,47.3333,19
2316,Tököl,Pest,PE,47.3104,19.0021
2317,Szigetcsép,Pest,PE,47.2667,18.9833
2318,Szigetszentmárton,Pest,PE,47.2333,18.9667
2319,Szigetújfalu,Pest,PE,47.2333,18.9333
2321,Szigetbecse,Pest,PE,47.1333,18.95
2322,Makád,Pest,PE,47.0833,18.9333
2330,Dunaharaszti,Pest,PE,47.35,19.0833
2331,Dunaharaszti,Pest,PE,47.35,19.0833
2332,Dunaharaszti,Pest,PE,47.35,19.0833
2335,Taksony,Pest,PE,47.3333,19.0833
2336,Dunavarsány,Pest,PE,47.2833,19.0667
2337,Délegyháza,Pest,PE,47.25,19.0667
2338,Áporka,Pest,PE,47.2333,19.0167
2339,Majosháza,Pest,PE,47.2667,19
2340,Kiskunlacháza,Pest,PE,47.2,19.0167
2341,Kiskunlacháza,Pest,PE,47.2,19.0167
2342,Kiskunlacháza,Pest,PE,47.2,19.0167
2344,Dömsöd,Pest,PE,47.0833,19
2345,Apaj,Pest,PE,47.1167,19.1
2347,Bugyi,Pest,PE,47.2167,19.15
2351,Alsónémedi,Pest,PE,47.3167,19.1667
2360,Gyál,Pest,PE,47.3833,19.2333
2363,Fels?pakony,Pest,PE,47.35,19.25
2364,Ócsa,Pest,PE,47.3,19.2333
2365,Inárcs,Pest,PE,47.2667,19.3333
2366,Kakucs,Pest,PE,47.25,19.3667
2367,Újhartyán,Pest,PE,47.2167,19.3833
2370,Dabas,Pest,PE,47.1833,19.3167
2371,Dabas,Pest,PE,47.1833,19.3167
2372,Dabas,Pest,PE,47.1833,19.3167
2373,Dabas,Pest,PE,47.1833,19.3167
2374,Dabas,Pest,PE,47.1833,19.3167
2375,Tatárszentgyörgy,Pest,PE,47.0667,19.3833
2376,Hernád,Pest,PE,47.1667,19.4333
2377,Örkény,Pest,PE,47.1333,19.4333
2378,Pusztavacs,Pest,PE,47.1667,19.5
2381,Táborfalva,Pest,PE,47.0833,19.4667
2440,Százhalombatta,Pest,PE,47.3333,18.9333
2441,Százhalombatta,Pest,PE,47.3333,18.9333
2442,Százhalombatta,Pest,PE,47.3333,18.9333
2443,Százhalombatta,Pest,PE,47.3333,18.9333
2444,Százhalombatta,Pest,PE,47.3333,18.9333
2461,Tárnok,Pest,PE,47.3667,18.85
2600,Vác,Pest,PE,47.7833,19.1333
2601,Vác,Pest,PE,47.7833,19.1333
2602,Vác,Pest,PE,47.7833,19.1333
2603,Vác,Pest,PE,47.7833,19.1333
2612,Kosd,Pest,PE,47.8,19.1833
2613,Rád,Pest,PE,47.8,19.2333
2614,Penc,Pest,PE,47.8,19.25
2615,Cs?vár,Pest,PE,47.8167,19.3333
2621,Ver?ce,Pest,PE,47.8333,19.0333
2623,Kismaros,Pest,PE,47.8333,19.0333
2624,Szokolya,Pest,PE,47.8667,19.0167
2625,Kóspallag,Pest,PE,47.8833,18.9333
2626,Nagymaros,Pest,PE,47.7833,18.9667
2627,Zebegény,Pest,PE,47.8,18.9167
2628,Szob,Pest,PE,47.8167,18.8667
2629,Márianosztra,Pest,PE,47.8667,18.8833
2631,Ipolydamásd,Pest,PE,47.85,18.8333
2632,Letkés,Pest,PE,47.8833,18.7833
2633,Ipolytölgyes,Pest,PE,47.9167,18.7833
2634,Nagybörzsöny,Pest,PE,47.9333,18.8333
2635,Vámosmikola,Pest,PE,47.9833,18.7833
2636,Tésa,Pest,PE,48.0333,18.85
2637,Per?csény,Pest,PE,48,18.8667
2638,Kemence,Pest,PE,48.0167,18.9
2639,Bernecebaráti,Pest,PE,48.0333,18.9167
2681,Galgagyörk,Pest,PE,47.7333,19.3833
2682,Püspökhatvan,Pest,PE,47.7667,19.3667
2683,Acsa,Pest,PE,47.8,19.3833
2700,Cegléd,Pest,PE,47.1667,19.8
2701,Cegléd,Pest,PE,47.1667,19.8
2702,Cegléd,Pest,PE,47.1667,19.8
2703,Cegléd,Pest,PE,47.1667,19.8
2704,Cegléd,Pest,PE,47.1667,19.8
2711,Tápiószentmárton,Pest,PE,47.3333,19.75
2712,Nyársapát,Pest,PE,47.1,19.8
2713,Csem?,Pest,PE,47.1167,19.7
2721,Pilis,Pest,PE,47.2833,19.55
2723,Nyáregyháza,Pest,PE,47.25,19.5
2724,Újlengyel,Pest,PE,47.2167,19.45
2730,Albertirsa,Pest,PE,47.25,19.6167
2735,Dánszentmiklós,Pest,PE,47.2167,19.55
2736,Mikebuda,Pest,PE,47.1667,19.6333
2737,Ceglédbercel,Pest,PE,47.2167,19.6833
2738,Ceglédbercel,Pest,PE,47.2167,19.6833
2740,Abony,Pest,PE,47.1833,20
2745,K?röstetétlen,Pest,PE,47.1,20.0333
2746,Jászkarajen?,Pest,PE,47.05,20.0667
2747,Törtel,Pest,PE,47.1167,19.9333
2750,Nagyk?rös,Pest,PE,47.0333,19.7833
2751,Nagyk?rös,Pest,PE,47.0333,19.7833
2752,Nagyk?rös,Pest,PE,47.0333,19.7833
2755,Kocsér,Pest,PE,47.0053,19.9114
2760,Nagykáta,Pest,PE,47.4167,19.75
2761,Nagykáta,Pest,PE,47.4167,19.75
2764,Tápióbicske,Pest,PE,47.3667,19.6833
2765,Farmos,Pest,PE,47.3667,19.85
2766,Tápiószele,Pest,PE,47.3333,19.8833
2767,Tápiógyörgye,Pest,PE,47.3333,19.95
2768,Újszilvás,Pest,PE,47.2833,19.9333
2769,Tápiósz?l?s,Pest,PE,47.3,19.85
7253,Szabadi,Somogy,SO,46.3667,18.0333
7255,Nagyberki,Somogy,SO,46.3667,18.0167
7256,Kercseliget,Somogy,SO,46.3333,18.0667
7257,Mosdós,Somogy,SO,46.35,18
7258,Baté,Somogy,SO,46.35,17.9667
7261,Taszár,Somogy,SO,46.3667,17.9167
7271,Fonó,Somogy,SO,46.4,17.95
7272,Gölle,Somogy,SO,46.4333,18.0167
7273,Büssü,Somogy,SO,46.4667,17.9667
7274,Kazsok,Somogy,SO,46.4833,17.9667
7275,Igal,Somogy,SO,46.5333,17.95
7276,Gadács,Somogy,SO,46.5333,18.0167
7279,Kisgyalán,Somogy,SO,46.4167,17.9833
7281,Bonnya,Somogy,SO,46.5833,17.9
7282,Fiad,Somogy,SO,46.6333,17.85
7283,Somogyacsa,Somogy,SO,46.5833,17.95
7284,Somogydöröcske,Somogy,SO,46.5833,18
7285,Kára,Somogy,SO,46.6167,18.0167
7286,Miklósi,Somogy,SO,46.65,18
7400,Kaposvár,Somogy,SO,46.3667,17.8
7401,Zselickislak,Somogy,SO,46.3167,17.8167
7402,Zselickislak,Somogy,SO,46.3167,17.8167
7403,Zselickislak,Somogy,SO,46.3167,17.8167
7404,Zselickislak,Somogy,SO,46.3167,17.8167
7405,Zselickislak,Somogy,SO,46.3167,17.8167
7406,Zselickislak,Somogy,SO,46.3167,17.8167
7407,Zselickislak,Somogy,SO,46.3167,17.8167
7408,Zselickislak,Somogy,SO,46.3167,17.8167
7409,Zselickislak,Somogy,SO,46.3167,17.8167
7431,Juta,Somogy,SO,46.4,17.75
7432,Hetes,Somogy,SO,46.4167,17.7
7434,Mez?csokonya,Somogy,SO,46.4333,17.65
7435,Somogysárd,Somogy,SO,46.4167,17.6
7436,Újvárfalva,Somogy,SO,46.4333,17.5833
7439,Bodrog,Somogy,SO,46.4667,17.6667
7441,Magyaregres,Somogy,SO,46.45,17.7833
7442,Várda,Somogy,SO,46.45,17.7333
7443,Edde,Somogy,SO,46.5167,17.7167
7444,Osztopán,Somogy,SO,46.5167,17.6667
7452,Somogyaszaló,Somogy,SO,46.45,17.8167
7453,Mernye,Somogy,SO,46.5,17.8333
7454,Somodor,Somogy,SO,46.4833,17.85
7455,Somogygeszti,Somogy,SO,46.5167,17.7833
7456,Fels?mocsolád,Somogy,SO,46.5833,17.8333
7457,Ecseny,Somogy,SO,46.55,17.85
7458,Polány,Somogy,SO,46.55,17.7833
7463,Patalom,Somogy,SO,46.45,17.9167
7464,Ráksi,Somogy,SO,46.5167,17.9167
7465,Szentgáloskér,Somogy,SO,46.5,17.8833
7471,Zimány,Somogy,SO,46.4167,17.9167
7472,Szentbalázs,Somogy,SO,46.3167,17.9
7473,Hajmás,Somogy,SO,46.2833,17.9167
7474,Zselicszentpál,Somogy,SO,46.3,17.8333
7475,B?szénfa,Somogy,SO,46.2333,17.85
7476,Kaposszerdahely,Somogy,SO,46.3167,17.75
7477,Szilvásszentmárton,Somogy,SO,46.2667,17.7333
7478,Bárdudvarnok,Somogy,SO,46.3333,17.6833
7479,Sántos,Somogy,SO,46.35,17.8833
7500,Nagyatád,Somogy,SO,46.2167,17.3667
7501,Nagyatád,Somogy,SO,46.2167,17.3667
7511,Ötvöskónyi,Somogy,SO,46.2167,17.3667
7512,Mike,Somogy,SO,46.2333,17.5333
7513,Rinyaszentkirály,Somogy,SO,46.15,17.4
7514,Tarany,Somogy,SO,46.1833,17.3
7515,Somogyudvarhely,Somogy,SO,46.1667,17.2
7516,Berzence,Somogy,SO,46.2,17.15
7517,Bolhás,Somogy,SO,46.2667,17.2833
7521,Kaposmér?,Somogy,SO,46.3667,17.7167
7522,Kaposújlak,Somogy,SO,46.3667,17.7333
7523,Kaposf?,Somogy,SO,46.3667,17.6667
7524,Kiskorpád,Somogy,SO,46.35,17.6167
7525,Jákó,Somogy,SO,46.3333,17.55
7526,Csököly,Somogy,SO,46.3,17.55
7527,Rinyakovácsi,Somogy,SO,46.2833,17.6
7530,K?kút,Somogy,SO,46.1833,17.5833
7532,Hencse,Somogy,SO,46.2,17.6333
7533,Visnye,Somogy,SO,46.1833,17.6833
7535,Lad,Somogy,SO,46.15,17.65
7536,Patosfa,Somogy,SO,46.1333,17.6667
7537,Homokszentgyörgy,Somogy,SO,46.1167,17.5833
7538,Kálmáncsa,Somogy,SO,46.0667,17.6167
7539,Szulok,Somogy,SO,46.05,17.55
7541,Kutas,Somogy,SO,46.3333,17.45
7542,Kisbajom,Somogy,SO,46.3,17.5
7543,Beleg,Somogy,SO,46.3167,17.4167
7544,Szabás,Somogy,SO,46.2833,17.45
7545,Nagykorpád,Somogy,SO,46.2667,17.4667
7551,Lábod,Somogy,SO,46.2,17.45
7552,Rinyabeseny?,Somogy,SO,46.1667,17.5167
7553,Görgeteg,Somogy,SO,46.15,17.4333
7555,Csokonyavisonta,Somogy,SO,46.0833,17.45
7556,Rinyaújlak,Somogy,SO,46.0833,17.4167
7557,Rinyaújlak,Somogy,SO,46.0833,17.4167
7561,Pálmajor,Somogy,SO,46.3833,17.5667
7562,Segesd,Somogy,SO,46.35,17.35
7563,Somogyszob,Somogy,SO,46.3,17.3
7564,Kaszó,Somogy,SO,46.3542,17.4333
7570,Barcs,Somogy,SO,45.96,17.4586
7571,Barcs,Somogy,SO,45.96,17.4586
7582,Péterhida,Somogy,SO,46.0167,17.3667
7584,Rinyaújnép,Somogy,SO,46.0833,17.35
7585,Bakháza,Somogy,SO,46.1,17.3667
7586,Bolhó,Somogy,SO,46.0333,17.3
7587,Heresznye,Somogy,SO,46.05,17.2833
7588,Vízvár,Somogy,SO,46.0833,17.2333
7589,Bélavár,Somogy,SO,46.1167,17.2167
7918,Lakócsa,Somogy,SO,45.8964,17.6839
7977,Kastélyosdombó,Somogy,SO,45.9544,17.6133
7979,Drávatamási,Somogy,SO,45.9444,17.5694
7987,Istvándi,Somogy,SO,46.0167,17.6333
7988,Darány,Somogy,SO,45.9803,17.5853
8600,Siófok,Somogy,SO,46.9058,18.0485
8601,Siófok,Somogy,SO,46.9,18.05
8602,Siófok,Somogy,SO,46.9,18.05
8604,Siófok,Somogy,SO,46.9,18.05
8609,Siófok,Somogy,SO,46.9,18.05
8611,Siófok,Somogy,SO,46.9,18.05
8612,Nyim,Somogy,SO,46.8,18.1167
8613,Balatonendréd,Somogy,SO,46.8333,17.9833
8614,Bálványos,Somogy,SO,46.7833,17.95
8617,K?röshegy,Somogy,SO,46.8333,17.9
8618,Kereki,Somogy,SO,46.8,17.9167
8619,Pusztaszemes,Somogy,SO,46.7667,17.9333
8621,Zamárdi,Somogy,SO,46.8833,17.95
8622,Szántód,Somogy,SO,46.8667,17.9
8623,Balatonföldvár,Somogy,SO,46.85,17.8833
8624,Balatonszárszó,Somogy,SO,46.8333,17.8333
8625,Szólád,Somogy,SO,46.7833,17.85
8626,Teleki,Somogy,SO,46.7667,17.8333
8627,Kötcse,Somogy,SO,46.75,17.8667
8628,Nagycsepely,Somogy,SO,46.75,17.8333
8630,Balatonboglár,Somogy,SO,46.7667,17.6667
8631,Balatonboglár,Somogy,SO,46.7667,17.6667
8634,Balatonboglár,Somogy,SO,46.7667,17.6667
8635,Ordacsehi,Somogy,SO,46.7333,17.6167
8636,Balatonszemes,Somogy,SO,46.8167,17.7833
8637,Balaton?szöd,Somogy,SO,46.8,17.8
8638,Balatonlelle,Somogy,SO,46.7833,17.6833
8640,Fonyód,Somogy,SO,46.7333,17.55
8641,Birján,Somogy,SO,46.7111,17.4194
8642,Birján,Somogy,SO,46.7111,17.4194
8644,Birján,Somogy,SO,46.7111,17.4194
8646,Balatonfenyves,Somogy,SO,46.7167,17.5
8647,Balatonmáriafürd?,Somogy,SO,46.7,17.3833
8648,Balatonkeresztúr,Somogy,SO,46.7,17.3833
8649,Balatonberény,Somogy,SO,46.7167,17.3167
8651,Balatonszabadi,Somogy,SO,46.8833,18.1333
8652,Siójut,Somogy,SO,46.8833,18.1333
8653,Ádánd,Somogy,SO,46.8667,18.1667
8654,Ságvár,Somogy,SO,46.8333,18.1167
8655,Som,Somogy,SO,46.8,18.15
8656,Nagyberény,Somogy,SO,46.8,18.1667
8658,Bábonymegyer,Somogy,SO,46.75,18.1167
8660,Tab,Somogy,SO,46.7333,18.0333
8666,Bedegkér,Somogy,SO,46.65,18.0667
8667,Kánya,Somogy,SO,46.7,18.0667
8668,Teng?d,Somogy,SO,46.7,18.1
8671,Kapoly,Somogy,SO,46.7333,17.9667
8672,Zics,Somogy,SO,46.6833,17.9833
8673,Somogymeggyes,Somogy,SO,46.7167,17.9167
8674,Nágocs,Somogy,SO,46.6667,17.9667
8675,Andocs,Somogy,SO,46.65,17.9333
8676,Karád,Somogy,SO,46.6833,17.85
8681,Látrány,Somogy,SO,46.75,17.75
8683,Somogytúr,Somogy,SO,46.7,17.7667
8684,Somogybabod,Somogy,SO,46.6667,17.7833
8685,Gamás,Somogy,SO,46.6167,17.7667
8691,Gamás,Somogy,SO,46.6167,17.7667
8692,Gyugy,Somogy,SO,46.6833,17.6833
8693,Lengyeltóti,Somogy,SO,46.6667,17.65
8694,Hács,Somogy,SO,46.65,17.6833
8695,Buzsák,Somogy,SO,46.65,17.5833
8696,Táska,Somogy,SO,46.6167,17.5333
8697,Öreglak,Somogy,SO,46.6,17.6167
8698,Pamuk,Somogy,SO,46.55,17.65
8699,Somogyvámos,Somogy,SO,46.5667,17.6833
8700,Csömend,Somogy,SO,46.5667,17.5
8701,Csömend,Somogy,SO,46.5667,17.5
8705,Somogyszentpál,Somogy,SO,46.65,17.4833
8706,Nikla,Somogy,SO,46.5833,17.5167
8707,Libickozma,Somogy,SO,46.5167,17.5333
8708,Somogyfajsz,Somogy,SO,46.5167,17.5667
8709,Somogyfajsz,Somogy,SO,46.5167,17.5667
8710,Balatonszentgyörgy,Somogy,SO,46.6833,17.3
8711,Vörs,Somogy,SO,46.6667,17.2667
8712,Balatonújlak,Somogy,SO,46.6667,17.3833
8713,Kéthely,Somogy,SO,46.65,17.4
8714,Kéthely,Somogy,SO,46.65,17.4
8716,Hosszúvíz,Somogy,SO,46.5167,17.45
8717,Szenyér,Somogy,SO,46.4667,17.3833
8718,Tapsony,Somogy,SO,46.4667,17.3333
8719,Böhönye,Somogy,SO,46.4,17.4
8721,Vése,Somogy,SO,46.4167,17.3
8722,Nemesdéd,Somogy,SO,46.4333,17.25
8723,Varászló,Somogy,SO,46.4333,17.2167
8724,Inke,Somogy,SO,46.4,17.2
8725,Iharosberény,Somogy,SO,46.3667,17.1167
8726,Iharos,Somogy,SO,46.3333,17.1
8728,Pogányszentpéter,Somogy,SO,46.3833,17.0667
8731,Tikos,Somogy,SO,46.6333,17.3
8732,Sávoly,Somogy,SO,46.5833,17.2667
8733,Somogysámson,Somogy,SO,46.5833,17.3
8734,Somogyzsitfa,Somogy,SO,46.5667,17.3
8735,Csákány,Somogy,SO,46.5333,17.2833
8736,Sz?kedencs,Somogy,SO,46.55,17.25
8737,Somogysimonyi,Somogy,SO,46.4833,17.2167
8738,Nemesvid,Somogy,SO,46.5,17.2667
8739,Nagyszakácsi,Somogy,SO,46.4833,17.3167
8840,Csurgó,Somogy,SO,46.2667,17.1
8849,Szenta,Somogy,SO,46.25,17.1833
8851,Gyékényes,Somogy,SO,46.2378,17.0053
8852,Zákány,Somogy,SO,46.2744,16.9511
8853,Zákányfalu,Somogy,SO,46.2858,16.9926
8854,?rtilos,Somogy,SO,46.2797,16.9294
8858,Somogybükkösd,Somogy,SO,46.3,17
4231,Bököny,Szabolcs-Szatmár-Bereg,SZ,47.7333,21.75
4232,Geszteréd,Szabolcs-Szatmár-Bereg,SZ,47.7667,21.7833
4233,Balkány,Szabolcs-Szatmár-Bereg,SZ,47.7667,21.8667
4234,Szakoly,Szabolcs-Szatmár-Bereg,SZ,47.7667,21.9167
4235,Biri,Szabolcs-Szatmár-Bereg,SZ,47.8167,21.85
4244,Újfehértó,Szabolcs-Szatmár-Bereg,SZ,47.8,21.6833
4245,Érpatak,Szabolcs-Szatmár-Bereg,SZ,47.8,21.7667
4246,Érpatak,Szabolcs-Szatmár-Bereg,SZ,47.8,21.7667
4267,Penészlek,Szabolcs-Szatmár-Bereg,SZ,47.6333,22.15
4300,Nyírbátor,Szabolcs-Szatmár-Bereg,SZ,47.8333,22.1333
4301,Nyírbátor,Szabolcs-Szatmár-Bereg,SZ,47.8333,22.1333
4311,Nyírgyulaj,Szabolcs-Szatmár-Bereg,SZ,47.8833,22.1
4320,Nagykálló,Szabolcs-Szatmár-Bereg,SZ,47.8833,21.85
4321,Nagykálló,Szabolcs-Szatmár-Bereg,SZ,47.8833,21.85
4324,Kállósemjén,Szabolcs-Szatmár-Bereg,SZ,47.8667,21.9333
4325,Kisléta,Szabolcs-Szatmár-Bereg,SZ,47.8333,22.0167
4326,Máriapócs,Szabolcs-Szatmár-Bereg,SZ,47.8833,22.0333
4327,Pócspetri,Szabolcs-Szatmár-Bereg,SZ,47.8833,22
4331,Nyírcsászári,Szabolcs-Szatmár-Bereg,SZ,47.8667,22.1833
4332,Nyírderzs,Szabolcs-Szatmár-Bereg,SZ,47.9,22.1667
4333,Nyírkáta,Szabolcs-Szatmár-Bereg,SZ,47.8667,22.2667
4334,Hodász,Szabolcs-Szatmár-Bereg,SZ,47.9167,22.2167
4335,Kántorjánosi,Szabolcs-Szatmár-Bereg,SZ,47.9333,22.15
4336,?r,Szabolcs-Szatmár-Bereg,SZ,47.9833,22.2
4337,Jármi,Szabolcs-Szatmár-Bereg,SZ,47.9667,22.25
4338,Papos,Szabolcs-Szatmár-Bereg,SZ,47.9833,22.25
4341,Nyírvasvári,Szabolcs-Szatmár-Bereg,SZ,47.8167,22.1833
4342,Terem,Szabolcs-Szatmár-Bereg,SZ,47.8,22.3167
4343,Bátorliget,Szabolcs-Szatmár-Bereg,SZ,47.8083,22.25
4351,Vállaj,Szabolcs-Szatmár-Bereg,SZ,47.7667,22.3833
4352,Mérk,Szabolcs-Szatmár-Bereg,SZ,47.7833,22.3667
4353,Tiborszállás,Szabolcs-Szatmár-Bereg,SZ,47.8167,22.4167
4354,Fábiánháza,Szabolcs-Szatmár-Bereg,SZ,47.8333,22.3667
4355,Nagyecsed,Szabolcs-Szatmár-Bereg,SZ,47.8667,22.4
4356,Nyírcsaholy,Szabolcs-Szatmár-Bereg,SZ,47.9,22.3333
4361,Nyírbogát,Szabolcs-Szatmár-Bereg,SZ,47.8,22.0667
4362,Nyírgelse,Szabolcs-Szatmár-Bereg,SZ,47.75,21.9833
4363,Nyírmihálydi,Szabolcs-Szatmár-Bereg,SZ,47.7333,21.9833
4371,Nyírlugos,Szabolcs-Szatmár-Bereg,SZ,47.7,22.05
4372,Nyírbéltek,Szabolcs-Szatmár-Bereg,SZ,47.7,22.1333
4373,Ömböly,Szabolcs-Szatmár-Bereg,SZ,47.7,22.2167
4374,Encsencs,Szabolcs-Szatmár-Bereg,SZ,47.7333,22.1167
4375,Piricse,Szabolcs-Szatmár-Bereg,SZ,47.7667,22.15
4376,Nyírpilis,Szabolcs-Szatmár-Bereg,SZ,47.7833,22.1833
4400,Nyíregyháza,Szabolcs-Szatmár-Bereg,SZ,47.95,21.7167
4401,Nyíregyháza,Szabolcs-Szatmár-Bereg,SZ,47.95,21.7167
4402,Nyíregyháza,Szabolcs-Szatmár-Bereg,SZ,47.95,21.7167
4403,Nyíregyháza,Szabolcs-Szatmár-Bereg,SZ,47.95,21.7167
4404,Nyíregyháza,Szabolcs-Szatmár-Bereg,SZ,47.95,21.7167
4405,Nyíregyháza,Szabolcs-Szatmár-Bereg,SZ,47.95,21.7167
4406,Nyíregyháza,Szabolcs-Szatmár-Bereg,SZ,47.95,21.7167
4407,Nyíregyháza,Szabolcs-Szatmár-Bereg,SZ,47.95,21.7167
4410,Nyíregyháza,Szabolcs-Szatmár-Bereg,SZ,47.95,21.7167
4411,Nyíregyháza,Szabolcs-Szatmár-Bereg,SZ,47.95,21.7167
4412,Nyíregyháza,Szabolcs-Szatmár-Bereg,SZ,47.95,21.7167
4431,Nyíregyháza,Szabolcs-Szatmár-Bereg,SZ,47.95,21.7167
4432,Nyíregyháza,Szabolcs-Szatmár-Bereg,SZ,47.95,21.7167
4433,Nyíregyháza,Szabolcs-Szatmár-Bereg,SZ,47.95,21.7167
4434,Kálmánháza,Szabolcs-Szatmár-Bereg,SZ,47.8833,21.5833
4440,Tiszavasvári,Szabolcs-Szatmár-Bereg,SZ,47.9667,21.35
4441,Szorgalmas,Szabolcs-Szatmár-Bereg,SZ,47.9667,21.4875
4444,Szorgalmas,Szabolcs-Szatmár-Bereg,SZ,47.9667,21.4875
4445,Nagycserkesz,Szabolcs-Szatmár-Bereg,SZ,47.9667,21.5333
4446,Nagycserkesz,Szabolcs-Szatmár-Bereg,SZ,47.9667,21.5333
4447,Nagycserkesz,Szabolcs-Szatmár-Bereg,SZ,47.9667,21.5333
4450,Tiszalök,Szabolcs-Szatmár-Bereg,SZ,48.0167,21.3833
4455,Tiszadada,Szabolcs-Szatmár-Bereg,SZ,48.0333,21.25
4456,Tiszadob,Szabolcs-Szatmár-Bereg,SZ,48.0167,21.1667
4461,Nyírtelek,Szabolcs-Szatmár-Bereg,SZ,48.0167,21.6333
4463,Tiszanagyfalu,Szabolcs-Szatmár-Bereg,SZ,48.1,21.4833
4464,Tiszaeszlár,Szabolcs-Szatmár-Bereg,SZ,48.05,21.4667
4465,Rakamaz,Szabolcs-Szatmár-Bereg,SZ,48.1333,21.4667
4466,Timár,Szabolcs-Szatmár-Bereg,SZ,48.1667,21.4667
4467,Szabolcs,Szabolcs-Szatmár-Bereg,SZ,48.1833,21.5
4468,Balsa,Szabolcs-Szatmár-Bereg,SZ,48.1833,21.55
4471,Gávavencsell?,Szabolcs-Szatmár-Bereg,SZ,48.1667,21.6
4472,Gávavencsell?,Szabolcs-Szatmár-Bereg,SZ,48.1667,21.6
4474,Tiszabercel,Szabolcs-Szatmár-Bereg,SZ,48.15,21.65
4475,Paszab,Szabolcs-Szatmár-Bereg,SZ,48.15,21.6833
4481,Paszab,Szabolcs-Szatmár-Bereg,SZ,48.15,21.6833
4482,Kótaj,Szabolcs-Szatmár-Bereg,SZ,48.05,21.7167
4483,Buj,Szabolcs-Szatmár-Bereg,SZ,48.1,21.65
4484,Ibrány,Szabolcs-Szatmár-Bereg,SZ,48.1333,21.7167
4485,Nagyhalász,Szabolcs-Szatmár-Bereg,SZ,48.1333,21.7667
4486,Nagyhalász,Szabolcs-Szatmár-Bereg,SZ,48.1333,21.7667
4487,Tiszatelek,Szabolcs-Szatmár-Bereg,SZ,48.2,21.8
4488,Beszterec,Szabolcs-Szatmár-Bereg,SZ,48.15,21.85
4491,Újdombrád,Szabolcs-Szatmár-Bereg,SZ,48.2333,21.9333
4492,Dombrád,Szabolcs-Szatmár-Bereg,SZ,48.2333,21.9333
4493,Tiszakanyár,Szabolcs-Szatmár-Bereg,SZ,48.25,21.9667
4494,Kékcse,Szabolcs-Szatmár-Bereg,SZ,48.25,22
4495,Döge,Szabolcs-Szatmár-Bereg,SZ,48.2667,22.0833
4496,Szabolcsveresmart,Szabolcs-Szatmár-Bereg,SZ,48.3,22.0167
4501,Kemecse,Szabolcs-Szatmár-Bereg,SZ,48.0667,21.8
4502,Vasmegyer,Szabolcs-Szatmár-Bereg,SZ,48.1167,21.8167
4503,Tiszarád,Szabolcs-Szatmár-Bereg,SZ,48.1167,21.8
4511,Nyírbogdány,Szabolcs-Szatmár-Bereg,SZ,48.05,21.8833
4512,Nyírbogdány,Szabolcs-Szatmár-Bereg,SZ,48.05,21.8833
4515,Kék,Szabolcs-Szatmár-Bereg,SZ,48.1167,21.8833
4516,Demecser,Szabolcs-Szatmár-Bereg,SZ,48.1167,21.9167
4517,Gégény,Szabolcs-Szatmár-Bereg,SZ,48.15,21.95
4521,Berkesz,Szabolcs-Szatmár-Bereg,SZ,48.1,21.9833
4522,Nyírtass,Szabolcs-Szatmár-Bereg,SZ,48.1167,22.0333
4523,Pátroha,Szabolcs-Szatmár-Bereg,SZ,48.1667,22
4524,Ajak,Szabolcs-Szatmár-Bereg,SZ,48.1833,22.0667
4525,Rétközberencs,Szabolcs-Szatmár-Bereg,SZ,48.2,22.0167
4531,Nyírpazony,Szabolcs-Szatmár-Bereg,SZ,47.9833,21.8
4532,Nyírtura,Szabolcs-Szatmár-Bereg,SZ,48.0167,21.8333
4533,Sény?,Szabolcs-Szatmár-Bereg,SZ,48,21.8833
4534,Székely,Szabolcs-Szatmár-Bereg,SZ,48.0667,21.95
4535,Nyíribrony,Szabolcs-Szatmár-Bereg,SZ,48.0167,21.9667
4536,Ramocsaháza,Szabolcs-Szatmár-Bereg,SZ,48.05,22
4537,Nyírkércs,Szabolcs-Szatmár-Bereg,SZ,48.0167,22.05
4541,Nyírjákó,Szabolcs-Szatmár-Bereg,SZ,48.0333,22.0833
4542,Petneháza,Szabolcs-Szatmár-Bereg,SZ,48.0667,22.0833
4543,Laskod,Szabolcs-Szatmár-Bereg,SZ,48.05,22.05
4544,Nyírkarász,Szabolcs-Szatmár-Bereg,SZ,48.1,22.1
4545,Gyulaháza,Szabolcs-Szatmár-Bereg,SZ,48.1333,22.1167
4546,Anarcs,Szabolcs-Szatmár-Bereg,SZ,48.1833,22.1167
4547,Szabolcsbáka,Szabolcs-Szatmár-Bereg,SZ,48.15,22.15
4551,Szabolcsbáka,Szabolcs-Szatmár-Bereg,SZ,48.15,22.15
4552,Napkor,Szabolcs-Szatmár-Bereg,SZ,47.9333,21.8833
4553,Apagy,Szabolcs-Szatmár-Bereg,SZ,47.9667,21.9333
4554,Nyírtét,Szabolcs-Szatmár-Bereg,SZ,48.0167,21.9333
4555,Levelek,Szabolcs-Szatmár-Bereg,SZ,47.9667,22
4556,Magy,Szabolcs-Szatmár-Bereg,SZ,47.9333,21.9833
4557,Beseny?d,Szabolcs-Szatmár-Bereg,SZ,47.9667,22.0167
4558,Ófehértó,Szabolcs-Szatmár-Bereg,SZ,47.9333,22.05
4561,Baktalórántháza,Szabolcs-Szatmár-Bereg,SZ,48,22.0833
4562,Vaja,Szabolcs-Szatmár-Bereg,SZ,48,22.1667
4563,Rohod,Szabolcs-Szatmár-Bereg,SZ,48.0333,22.1333
4564,Nyírmada,Szabolcs-Szatmár-Bereg,SZ,48.0667,22.2
4565,Pusztadobos,Szabolcs-Szatmár-Bereg,SZ,48.0667,22.2333
4566,Ilk,Szabolcs-Szatmár-Bereg,SZ,48.1167,22.2333
4567,Gemzse,Szabolcs-Szatmár-Bereg,SZ,48.1333,22.2
4600,Kisvárda,Szabolcs-Szatmár-Bereg,SZ,48.2167,22.0833
4601,Kisvárda,Szabolcs-Szatmár-Bereg,SZ,48.2167,22.0833
4603,Kisvárda,Szabolcs-Szatmár-Bereg,SZ,48.2167,22.0833
4611,Jéke,Szabolcs-Szatmár-Bereg,SZ,48.2333,22.1667
4621,Fényeslitke,Szabolcs-Szatmár-Bereg,SZ,48.2667,22.1
4622,Komoró,Szabolcs-Szatmár-Bereg,SZ,48.3,22.1167
4623,Tuzsér,Szabolcs-Szatmár-Bereg,SZ,48.35,22.1333
4624,Tiszabezdéd,Szabolcs-Szatmár-Bereg,SZ,48.3667,22.15
4625,Gy?röcske,Szabolcs-Szatmár-Bereg,SZ,48.3833,22.15
4627,Zsurk,Szabolcs-Szatmár-Bereg,SZ,48.4167,22.2167
4628,Tiszaszentmárton,Szabolcs-Szatmár-Bereg,SZ,48.3833,22.2333
4631,Pap,Szabolcs-Szatmár-Bereg,SZ,48.2167,22.15
4632,Nyírlöv?,Szabolcs-Szatmár-Bereg,SZ,48.2,22.1833
4633,Löv?petri,Szabolcs-Szatmár-Bereg,SZ,48.1833,22.2
4634,Aranyosapáti,Szabolcs-Szatmár-Bereg,SZ,48.2,22.2667
4635,Újkenéz,Szabolcs-Szatmár-Bereg,SZ,48.25,22.2333
4641,Mez?ladány,Szabolcs-Szatmár-Bereg,SZ,48.2833,22.2167
4642,Tornyospálca,Szabolcs-Szatmár-Bereg,SZ,48.2667,22.1833
4643,Benk,Szabolcs-Szatmár-Bereg,SZ,48.3,22.2333
4644,Mándok,Szabolcs-Szatmár-Bereg,SZ,48.3167,22.2
4645,Tiszamogyorós,Szabolcs-Szatmár-Bereg,SZ,48.3167,22.2333
4646,Eperjeske,Szabolcs-Szatmár-Bereg,SZ,48.35,22.2167
4700,Mátészalka,Szabolcs-Szatmár-Bereg,SZ,47.95,22.3333
4701,Mátészalka,Szabolcs-Szatmár-Bereg,SZ,47.95,22.3333
4702,Mátészalka,Szabolcs-Szatmár-Bereg,SZ,47.95,22.3333
4721,Szamoskér,Szabolcs-Szatmár-Bereg,SZ,48.0167,22.4167
4722,Nyírmeggyes,Szabolcs-Szatmár-Bereg,SZ,47.9167,22.2667
4731,Tunyogmatolcs,Szabolcs-Szatmár-Bereg,SZ,47.9667,22.4667
4732,Cégénydányád,Szabolcs-Szatmár-Bereg,SZ,47.9333,22.55
4733,Gyügye,Szabolcs-Szatmár-Bereg,SZ,47.9333,22.5667
4734,Szamosújlak,Szabolcs-Szatmár-Bereg,SZ,47.9167,22.6
4735,Hermánszeg,Szabolcs-Szatmár-Bereg,SZ,47.9,22.6333
4737,Kisnamény,Szabolcs-Szatmár-Bereg,SZ,47.95,22.7
4741,Jánkmajtis,Szabolcs-Szatmár-Bereg,SZ,47.95,22.65
4742,Csegöld,Szabolcs-Szatmár-Bereg,SZ,47.8875,22.6875
4743,Csengersima,Szabolcs-Szatmár-Bereg,SZ,47.8667,22.7333
4745,Szamosbecs,Szabolcs-Szatmár-Bereg,SZ,47.8667,22.7
4746,Szamostatárfalva,Szabolcs-Szatmár-Bereg,SZ,47.8667,22.6667
4751,Kocsord,Szabolcs-Szatmár-Bereg,SZ,47.95,22.3833
4752,Gy?rtelek,Szabolcs-Szatmár-Bereg,SZ,47.9333,22.4333
4754,Fülpösdaróc,Szabolcs-Szatmár-Bereg,SZ,47.9333,22.5
4755,Ököritófülpös,Szabolcs-Szatmár-Bereg,SZ,47.9167,22.5167
4756,Rápolt,Szabolcs-Szatmár-Bereg,SZ,47.9167,22.5667
4761,Porcsalma,Szabolcs-Szatmár-Bereg,SZ,47.8833,22.5667
4762,Tyukod,Szabolcs-Szatmár-Bereg,SZ,47.85,22.55
4763,Ura,Szabolcs-Szatmár-Bereg,SZ,47.8167,22.6167
4764,Csengerújfalu,Szabolcs-Szatmár-Bereg,SZ,47.8,22.6333
4765,Csenger,Szabolcs-Szatmár-Bereg,SZ,47.8333,22.6833
4766,Pátyod,Szabolcs-Szatmár-Bereg,SZ,47.8667,22.6167
4767,Szamosangyalos,Szabolcs-Szatmár-Bereg,SZ,47.8667,22.6667
4800,Vásárosnamény,Szabolcs-Szatmár-Bereg,SZ,48.1333,22.3167
4801,Vásárosnamény,Szabolcs-Szatmár-Bereg,SZ,48.1333,22.3167
4803,Vásárosnamény,Szabolcs-Szatmár-Bereg,SZ,48.1333,22.3167
4804,Vásárosnamény,Szabolcs-Szatmár-Bereg,SZ,48.1333,22.3167
4811,Kisvarsány,Szabolcs-Szatmár-Bereg,SZ,48.15,22.3
4812,Nagyvarsány,Szabolcs-Szatmár-Bereg,SZ,48.1667,22.2833
4813,Gyüre,Szabolcs-Szatmár-Bereg,SZ,48.1833,22.2833
4821,Ópályi,Szabolcs-Szatmár-Bereg,SZ,48,22.3167
4822,Nyírparasznya,Szabolcs-Szatmár-Bereg,SZ,48.0333,22.2833
4823,Nagydobos,Szabolcs-Szatmár-Bereg,SZ,48.05,22.3167
4824,Szamosszeg,Szabolcs-Szatmár-Bereg,SZ,48.05,22.3667
4826,Olcsva,Szabolcs-Szatmár-Bereg,SZ,48.0833,22.3333
4831,Tiszaszalka,Szabolcs-Szatmár-Bereg,SZ,48.1833,22.3167
4832,Tiszavid,Szabolcs-Szatmár-Bereg,SZ,48.2,22.3
4833,Tiszaadony,Szabolcs-Szatmár-Bereg,SZ,48.2333,22.3
4834,Tiszakerecseny,Szabolcs-Szatmár-Bereg,SZ,48.2667,22.3
4835,Mátyus,Szabolcs-Szatmár-Bereg,SZ,48.2833,22.2833
4836,Lónya,Szabolcs-Szatmár-Bereg,SZ,48.3167,22.2833
4841,Jánd,Szabolcs-Szatmár-Bereg,SZ,48.1167,22.3833
4842,Gulács,Szabolcs-Szatmár-Bereg,SZ,48.0833,22.4667
4843,Hetefejércse,Szabolcs-Szatmár-Bereg,SZ,48.1167,22.4833
4844,Csaroda,Szabolcs-Szatmár-Bereg,SZ,48.1667,22.4667
4845,Tákos,Szabolcs-Szatmár-Bereg,SZ,48.15,22.4333
4900,Fehérgyarmat,Szabolcs-Szatmár-Bereg,SZ,47.9833,22.5167
4901,Fehérgyarmat,Szabolcs-Szatmár-Bereg,SZ,47.9833,22.5167
4911,Nábrád,Szabolcs-Szatmár-Bereg,SZ,48,22.45
4912,Kérsemjén,Szabolcs-Szatmár-Bereg,SZ,48.0167,22.4167
4913,Panyola,Szabolcs-Szatmár-Bereg,SZ,48.05,22.4
4914,Olcsvaapáti,Szabolcs-Szatmár-Bereg,SZ,48.0833,22.35
4921,Kisar,Szabolcs-Szatmár-Bereg,SZ,48.05,22.5167
4922,Nagyar,Szabolcs-Szatmár-Bereg,SZ,48.05,22.5667
4931,Tarpa,Szabolcs-Szatmár-Bereg,SZ,48.1,22.5333
4932,Márokpapi,Szabolcs-Szatmár-Bereg,SZ,48.15,22.5167
4933,Beregsurány,Szabolcs-Szatmár-Bereg,SZ,48.1667,22.55
4934,Beregdaróc,Szabolcs-Szatmár-Bereg,SZ,48.2,22.5333
4935,Gelénes,Szabolcs-Szatmár-Bereg,SZ,48.2,22.45
4936,Vámosatya,Szabolcs-Szatmár-Bereg,SZ,48.2,22.4167
4937,Barabás,Szabolcs-Szatmár-Bereg,SZ,48.2333,22.4333
4941,Penyige,Szabolcs-Szatmár-Bereg,SZ,47.9833,22.5667
4942,Nemesborzova,Szabolcs-Szatmár-Bereg,SZ,47.9833,22.6333
4943,Kömör?,Szabolcs-Szatmár-Bereg,SZ,48.0167,22.5833
4944,Túristvándi,Szabolcs-Szatmár-Bereg,SZ,48.05,22.65
4945,Szatmárcseke,Szabolcs-Szatmár-Bereg,SZ,48.0833,22.6333
4946,Tiszakóród,Szabolcs-Szatmár-Bereg,SZ,48.1,22.7167
4947,Tiszacsécse,Szabolcs-Szatmár-Bereg,SZ,48.1,22.75
4948,Milota,Szabolcs-Szatmár-Bereg,SZ,48.1,22.7833
4951,Tiszabecs,Szabolcs-Szatmár-Bereg,SZ,48.1,22.8167
4952,Uszka,Szabolcs-Szatmár-Bereg,SZ,48.0667,22.8667
4953,Magosliget,Szabolcs-Szatmár-Bereg,SZ,48.05,22.8667
4954,Sonkád,Szabolcs-Szatmár-Bereg,SZ,48.05,22.75
4955,Botpalád,Szabolcs-Szatmár-Bereg,SZ,48.0333,22.8
4956,Kispalád,Szabolcs-Szatmár-Bereg,SZ,48.0167,22.8333
4961,Zsarolyán,Szabolcs-Szatmár-Bereg,SZ,47.95,22.6
4962,Nagyszekeres,Szabolcs-Szatmár-Bereg,SZ,47.9667,22.6167
4963,Kisszekeres,Szabolcs-Szatmár-Bereg,SZ,47.9667,22.6333
4964,Fülesd,Szabolcs-Szatmár-Bereg,SZ,48.0167,22.6833
4965,Kölcse,Szabolcs-Szatmár-Bereg,SZ,48.05,22.7167
4966,Vámosoroszi,Szabolcs-Szatmár-Bereg,SZ,47.9833,22.6833
4967,Csaholc,Szabolcs-Szatmár-Bereg,SZ,47.9833,22.7333
4968,Túrricse,Szabolcs-Szatmár-Bereg,SZ,47.9667,22.7667
4969,Tisztaberek,Szabolcs-Szatmár-Bereg,SZ,47.95,22.8
4971,Rozsály,Szabolcs-Szatmár-Bereg,SZ,47.9167,22.8
4972,Gacsály,Szabolcs-Szatmár-Bereg,SZ,47.9333,22.7667
4973,Császló,Szabolcs-Szatmár-Bereg,SZ,47.9167,22.7333
4974,Zajta,Szabolcs-Szatmár-Bereg,SZ,47.9,22.8
4975,Méhtelek,Szabolcs-Szatmár-Bereg,SZ,47.9333,22.85
4976,Garbolc,Szabolcs-Szatmár-Bereg,SZ,47.95,22.8667
4977,Kishódos,Szabolcs-Szatmár-Bereg,SZ,47.9667,22.8333
7020,Dunaföldvár,Tolna,TO,46.8,18.9333
7021,Dunaföldvár,Tolna,TO,46.8,18.9333
7025,Bölcske,Tolna,TO,46.7333,18.9667
7026,Madocsa,Tolna,TO,46.6833,18.9667
7027,Madocsa,Tolna,TO,46.6833,18.9667
7030,Paks,Tolna,TO,46.6333,18.8667
7031,Paks,Tolna,TO,46.6333,18.8667
7032,Paks,Tolna,TO,46.6333,18.8667
7038,Pusztahencse,Tolna,TO,46.6,18.7167
7039,Németkér,Tolna,TO,46.7167,18.7667
7042,Pálfa,Tolna,TO,46.7167,18.6333
7043,Bikács,Tolna,TO,46.6833,18.6667
7044,Nagydorog,Tolna,TO,46.6333,18.6667
7045,Györköny,Tolna,TO,46.6333,18.7
7047,Sárszentl?rinc,Tolna,TO,46.6333,18.6167
7051,Kajdacs,Tolna,TO,46.5667,18.6333
7052,Kölesd,Tolna,TO,46.5167,18.5833
7054,Tengelic,Tolna,TO,46.5333,18.7167
7056,Szedres,Tolna,TO,46.4833,18.6833
7057,Medina,Tolna,TO,46.4667,18.65
7061,Belecska,Tolna,TO,46.65,18.4167
7062,Kesz?hidegkút,Tolna,TO,46.6167,18.4333
7063,Szárazd,Tolna,TO,46.5667,18.4333
7064,Gyönk,Tolna,TO,46.55,18.4833
7065,Miszla,Tolna,TO,46.6333,18.4833
7066,Udvari,Tolna,TO,46.6,18.5167
7067,Varsád,Tolna,TO,46.5333,18.5167
7068,Kistormás,Tolna,TO,46.5,18.5667
7071,Szakadát,Tolna,TO,46.5333,18.4833
7072,Diósberény,Tolna,TO,46.5333,18.45
7081,Simontornya,Tolna,TO,46.75,18.55
7082,Kisszékely,Tolna,TO,46.6833,18.55
7083,Tolnanémedi,Tolna,TO,46.7167,18.4833
7084,Pincehely,Tolna,TO,46.6833,18.45
7085,Nagyszékely,Tolna,TO,46.65,18.5333
7086,Ozora,Tolna,TO,46.75,18.4
7087,Fürged,Tolna,TO,46.7167,18.3
7090,Tamási,Tolna,TO,46.6333,18.2833
7091,Tamási,Tolna,TO,46.6333,18.2833
7092,Nagykónyi,Tolna,TO,46.5833,18.2
7093,Értény,Tolna,TO,46.6167,18.1333
7094,Koppányszántó,Tolna,TO,46.6,18.1167
7095,Iregszemcse,Tolna,TO,46.7,18.1833
7097,Nagyszokoly,Tolna,TO,46.7167,18.2167
7098,Magyarkeszi,Tolna,TO,46.75,18.2333
7099,Fels?nyék,Tolna,TO,46.7833,18.3
7100,Szekszárd,Tolna,TO,46.35,18.7167
7101,Szekszárd,Tolna,TO,46.35,18.7167
7102,Szekszárd,Tolna,TO,46.35,18.7167
7103,Szekszárd,Tolna,TO,46.35,18.7167
7121,Szálka,Tolna,TO,46.2833,18.6333
7122,Kakasd,Tolna,TO,46.35,18.6
7130,Tolna,Tolna,TO,46.4333,18.7833
7131,Tolna,Tolna,TO,46.4333,18.7833
7132,Bogyiszló,Tolna,TO,46.3833,18.8333
7133,Fadd,Tolna,TO,46.4667,18.8333
7134,Gerjen,Tolna,TO,46.5,18.9
7135,Dunaszentgyörgy,Tolna,TO,46.5333,18.8333
7136,Fácánkert,Tolna,TO,46.45,18.7333
7140,Bátaszék,Tolna,TO,46.1833,18.7333
7142,Pörböly,Tolna,TO,46.2,18.8167
7143,?csény,Tolna,TO,46.3167,18.7667
7144,Decs,Tolna,TO,46.2833,18.7667
7145,Sárpilis,Tolna,TO,46.25,18.75
7146,Várdomb,Tolna,TO,46.25,18.7
7147,Alsónána,Tolna,TO,46.25,18.6667
7148,Alsónyék,Tolna,TO,46.2,18.7333
7149,Báta,Tolna,TO,46.1333,18.7833
7150,Bonyhád,Tolna,TO,46.3,18.5333
7151,Bonyhád,Tolna,TO,46.3,18.5333
7153,Bonyhád,Tolna,TO,46.3,18.5333
7158,Bonyhádvarasd,Tolna,TO,46.3667,18.4833
7159,Kisdorog,Tolna,TO,46.3833,18.5
7161,Cikó,Tolna,TO,46.25,18.5667
7162,Grábóc,Tolna,TO,46.2833,18.6167
7163,M?csény,Tolna,TO,46.2667,18.6
7164,Bátaapáti,Tolna,TO,46.2167,18.6
7165,Mórágy,Tolna,TO,46.2167,18.65
7171,Sióagárd,Tolna,TO,46.4,18.65
7172,Harc,Tolna,TO,46.4,18.6333
7173,Zomba,Tolna,TO,46.4,18.5667
7174,Kéty,Tolna,TO,46.4333,18.5333
7175,Fels?nána,Tolna,TO,46.4667,18.5333
7176,Murga,Tolna,TO,46.4667,18.4833
7181,Tevel,Tolna,TO,46.4167,18.45
7182,Závod,Tolna,TO,46.4,18.4167
7183,Kisvejke,Tolna,TO,46.3833,18.4167
7185,Mucsfa,Tolna,TO,46.35,18.4167
7186,Nagyvejke,Tolna,TO,46.3833,18.45
7187,Nagyvejke,Tolna,TO,46.3833,18.45
7191,H?gyész,Tolna,TO,46.4833,18.4167
7192,Szakály,Tolna,TO,46.5333,18.3833
7193,Regöly,Tolna,TO,46.5833,18.4167
7194,Kalaznó,Tolna,TO,46.5,18.4833
7195,Mucsi,Tolna,TO,46.4333,18.4
7200,Dombóvár,Tolna,TO,46.3833,18.1167
7201,Dombóvár,Tolna,TO,46.3833,18.1167
7202,Dombóvár,Tolna,TO,46.3833,18.1167
7203,Dombóvár,Tolna,TO,46.3833,18.1167
7211,Dalmand,Tolna,TO,46.5,18.1833
7212,Kocsola,Tolna,TO,46.5333,18.1833
7213,Szakcs,Tolna,TO,46.5133,18.11
7214,Lápaf?,Tolna,TO,46.5167,18.0667
7215,Nak,Tolna,TO,46.4833,18.0667
7224,Dúzs,Tolna,TO,46.4833,18.3833
7225,Csibrák,Tolna,TO,46.4667,18.35
7226,Kurd,Tolna,TO,46.45,18.3167
7227,Gyulaj,Tolna,TO,46.5,18.3
7228,Döbrököz,Tolna,TO,46.4167,18.25
7251,Kapospula,Tolna,TO,46.3524,18.0143
7252,Attala,Tolna,TO,46.3524,18.0143
7341,Csikóst?tt?s,Tolna,TO,46.3333,18.1667
7352,Györe,Tolna,TO,46.3,18.4
7353,Izmény,Tolna,TO,46.3167,18.4167
7354,Váralja,Tolna,TO,46.2667,18.4333
7355,Nagymányok,Tolna,TO,46.2833,18.4667
7356,Kismányok,Tolna,TO,46.2667,18.4833
7361,Kaposszekcs?,Tolna,TO,46.3333,18.1333
9500,Celldömölk,Vas,VA,47.25,17.15
9501,Celldömölk,Vas,VA,47.25,17.15
9502,Celldömölk,Vas,VA,47.25,17.15
9503,Celldömölk,Vas,VA,47.25,17.15
9511,Kemenesmihályfa,Vas,VA,47.2833,17.1167
9512,Ostffyasszonyfa,Vas,VA,47.3167,17.05
9513,Csönge,Vas,VA,47.3361,17.1139
9514,Kenyeri,Vas,VA,47.3833,17.0833
9515,Pápoc,Vas,VA,47.4167,17.1333
9516,Vönöck,Vas,VA,47.3167,17.1667
9517,Kemenessömjén,Vas,VA,47.3,17.1333
9521,Kemenesszentmárton,Vas,VA,47.3,17.1667
9522,Kemenesmagasi,Vas,VA,47.3333,17.2167
9523,Szergény,Vas,VA,47.3167,17.2667
9531,Mersevát,Vas,VA,47.2833,17.2167
9541,Vinár,Vas,VA,47.125,17.175
9542,Boba,Vas,VA,47.2,17.1833
9544,Kemenespálfa,Vas,VA,47.1333,17.1833
9545,Jánosháza,Vas,VA,47.1167,17.1667
9547,Karakó,Vas,VA,47.1167,17.2
9548,Nemeskeresztúr,Vas,VA,47.1,17.2
9549,Keléd,Vas,VA,47.0833,17.1167
9551,Mesteri,Vas,VA,47.2167,17.0833
9552,Vásárosmiske,Vas,VA,47.2,17.0667
9553,Köcsk,Vas,VA,47.1833,17.0833
9554,Egyházashetye,Vas,VA,47.1667,17.1167
9555,Kissomlyó,Vas,VA,47.1333,17.1
9556,Duka,Vas,VA,47.181,17.0929
9561,Nagysimonyi,Vas,VA,47.2667,17.0667
9600,Sárvár,Vas,VA,47.255,16.944
9601,Sárvár,Vas,VA,47.25,16.9333
9602,Sárvár,Vas,VA,47.25,16.9333
9608,Sárvár,Vas,VA,47.25,16.9333
9609,Sárvár,Vas,VA,47.25,16.9333
9611,Csénye,Vas,VA,47.2333,16.8667
9612,Porpác,Vas,VA,47.25,16.8
9621,Ölb?,Vas,VA,47.3,16.8667
9622,Szeleste,Vas,VA,47.3167,16.8333
9623,Répceszentgyörgy,Vas,VA,47.35,16.85
9624,Chernelházadamonya,Vas,VA,47.35,16.85
9625,Gór,Vas,VA,47.3667,16.8
9631,Hegyfalu,Vas,VA,47.35,16.8833
9632,Sajtoskál,Vas,VA,47.4,16.8667
9633,Simaság,Vas,VA,47.4167,16.85
9634,Iklanberény,Vas,VA,47.4167,16.8
9635,Zsédeny,Vas,VA,47.3333,16.9
9636,Pósfa,Vas,VA,47.3333,16.85
9641,Rábapaty,Vas,VA,47.3,16.9333
9643,Jákfa,Vas,VA,47.3333,16.9667
9651,Uraiújfalu,Vas,VA,47.3667,16.9833
9652,Nick,Vas,VA,47.4,17.0167
9653,Répcelak,Vas,VA,47.4167,17.0167
9654,Csánig,Vas,VA,47.3944,17.0056
9661,Vasegerszeg,Vas,VA,47.3667,16.9167
9662,Mesterháza,Vas,VA,47.3667,16.8667
9663,Nemesládony,Vas,VA,47.4,16.8833
9664,Nagygeresd,Vas,VA,47.3833,16.9167
9665,Vámoscsalád,Vas,VA,47.3833,16.9667
9671,Sitke,Vas,VA,47.2333,17.0333
9672,Gérce,Vas,VA,47.2167,17.0167
9673,Káld,Vas,VA,47.1667,17.05
9674,Vashosszúfalu,Vas,VA,47.1167,17.0667
9675,Bögöte,Vas,VA,47.1667,17.0367
9676,Hosszúpereszteg,Vas,VA,47.1,17.0167
9681,Sótony,Vas,VA,47.2,16.95
9682,Ny?gér,Vas,VA,47.1833,16.9333
9683,Bejcgyertyános,Vas,VA,47.15,16.925
9684,Egervölgy,Vas,VA,47.1167,16.9167
9685,Szemenye,Vas,VA,47.1,16.9
9700,Szombathely,Vas,VA,47.2448,16.6168
9701,Szombathely,Vas,VA,47.2333,16.6167
9702,Szombathely,Vas,VA,47.2333,16.6167
9703,Szombathely,Vas,VA,47.2333,16.6167
9704,Szombathely,Vas,VA,47.2333,16.6167
9705,Szombathely,Vas,VA,47.2333,16.6167
9706,Szombathely,Vas,VA,47.2333,16.6167
9707,Szombathely,Vas,VA,47.2333,16.6167
9708,Szombathely,Vas,VA,47.2333,16.6167
9709,Szombathely,Vas,VA,47.2333,16.6167
9710,Szombathely,Vas,VA,47.2333,16.6167
9719,Szombathely,Vas,VA,47.2333,16.6167
9721,Gencsapáti,Vas,VA,47.2833,16.6
9722,Perenye,Vas,VA,47.3,16.5833
9723,Lukácsháza,Vas,VA,47.35,16.5833
9724,Gyöngyösfalu,Vas,VA,47.3167,16.5833
9725,K?szegdoroszló,Vas,VA,47.35,16.55
9726,Velem,Vas,VA,47.35,16.5
9727,Bozsok,Vas,VA,47.3333,16.5
9730,K?szeg,Vas,VA,47.3833,16.55
9731,K?szeg,Vas,VA,47.3833,16.55
9732,K?szeg,Vas,VA,47.3833,16.55
9733,Horvátzsidány,Vas,VA,47.4167,16.6167
9734,Peresznye,Vas,VA,47.4333,16.65
9735,Csepreg,Vas,VA,47.4,16.7167
9736,Tormásliget,Vas,VA,47.3846,16.6321
9737,Bük,Vas,VA,47.3833,16.75
9738,Tömörd,Vas,VA,47.3667,16.6833
9739,Nemescsó,Vas,VA,47.35,16.6167
9740,Pusztacsó,Vas,VA,47.3333,16.6333
9741,Vassurány,Vas,VA,47.2833,16.7
9742,Salköveskút,Vas,VA,47.3,16.7
9743,Söpte,Vas,VA,47.2833,16.65
9744,Vasasszonyfa,Vas,VA,47.3167,16.6667
9745,Meszlen,Vas,VA,47.3333,16.7
9746,Acsád,Vas,VA,47.3167,16.7333
9747,Vasszilvágy,Vas,VA,47.3,16.75
9748,Vát,Vas,VA,47.2833,16.7833
9749,Nemesb?d,Vas,VA,47.2667,16.7333
9751,Vép,Vas,VA,47.2333,16.7333
9752,Kenéz,Vas,VA,47.2,16.7833
9754,Megyehid,Vas,VA,47.2167,16.8333
9756,Ikervár,Vas,VA,47.2,16.9
9757,Meggyeskovácsi,Vas,VA,47.1667,16.8667
9761,Táplánszentkereszt,Vas,VA,47.2,16.7
9762,Tanakajd,Vas,VA,47.2,16.7333
9763,Vasszécseny,Vas,VA,47.1833,16.7667
9764,Csempeszkopács,Vas,VA,47.15,16.8
9766,Rábatöttös,Vas,VA,47.125,16.8333
9771,Balogunyom,Vas,VA,47.1667,16.65
9772,Kisunyom,Vas,VA,47.15,16.65
9773,Sorokpolány,Vas,VA,47.1333,16.6667
9774,Gyanógeregye,Vas,VA,47.1167,16.7667
9775,Nemeskolta,Vas,VA,47.15,16.7667
9776,Püspökmolnári,Vas,VA,47.1,16.8
9777,Rábahidvég,Vas,VA,47.0667,16.75
9781,Egyházashollós,Vas,VA,47.05,16.6833
9782,Nemesrempehollós,Vas,VA,47.0833,16.6833
9783,Egyházasrádóc,Vas,VA,47.0833,16.6167
9784,Nagykölked,Vas,VA,47.0667,16.55
9789,Sé,Vas,VA,47.2333,16.5667
9791,Dozmat,Vas,VA,47.2333,16.5167
9792,Bucsu,Vas,VA,47.2667,16.5
9793,Narda,Vas,VA,47.2333,16.4667
9794,Fels?csatár,Vas,VA,47.2167,16.45
9795,Vaskeresztes,Vas,VA,47.2,16.45
9796,Pornóapáti,Vas,VA,47.15,16.4667
9797,Nárai,Vas,VA,47.2,16.5667
9798,Ják,Vas,VA,47.1333,16.5833
9799,Szentpéterfa,Vas,VA,47.1,16.4833
9800,Vasvár,Vas,VA,47.05,16.8
9801,Vasvár,Vas,VA,47.05,16.8
9811,Andrásfa,Vas,VA,46.9667,16.8
9812,Telekes,Vas,VA,46.9389,16.7725
9813,Gersekarát,Vas,VA,46.9739,16.7467
9814,Halastó,Vas,VA,46.95,16.7
9821,Gy?rvár,Vas,VA,46.9878,16.8417
9823,Pácsony,Vas,VA,47.0167,16.8667
9824,Olaszfa,Vas,VA,47.0167,16.8833
9825,Oszkó,Vas,VA,47.0333,16.8833
9826,Pet?mihályfa,Vas,VA,46.9833,16.7833
9831,Bérbaltavár,Vas,VA,47.0167,16.9667
9832,Nagytilaj,Vas,VA,46.9733,16.9653
9833,Csehi,Vas,VA,47.0333,16.95
9834,Csehimindszent,Vas,VA,47.05,16.95
9835,Mikosszéplak,Vas,VA,47.0333,16.9833
9836,Csipkerek,Vas,VA,47.0667,16.95
9841,Kám,Vas,VA,47.1,16.8833
9842,Alsóújlak,Vas,VA,47.05,16.8
9900,Körmend,Vas,VA,47.0167,16.6
9901,Körmend,Vas,VA,47.0167,16.6
9909,Magyarnádalja,Vas,VA,47,16.5333
9912,Magyarszecs?d,Vas,VA,47.0333,16.65
9913,Döröske,Vas,VA,47.0167,16.7
9914,Döbörhegy,Vas,VA,46.9833,16.7
9915,Nádasd,Vas,VA,46.9636,16.6192
9917,Halogy,Vas,VA,46.9667,16.5667
9918,Fels?marác,Vas,VA,46.9333,16.5167
9919,Csákánydoroszló,Vas,VA,46.9708,16.5069
9921,Vasalja,Vas,VA,47.0167,16.5167
9922,Pinkamindszent,Vas,VA,47.0333,16.4833
9923,Kemestaródfa,Vas,VA,47,16.5167
9931,Ivánc,Vas,VA,46.9333,16.5
9932,Viszák,Vas,VA,46.8833,16.5
9933,?rimagyarósd,Vas,VA,46.8883,16.5397
9934,Fels?jánosfa,Vas,VA,46.85,16.5667
9935,Sz?ce,Vas,VA,46.8833,16.5833
9936,Kisrákos,Vas,VA,46.8667,16.5
9937,Pankasz,Vas,VA,46.8333,16.5
9938,Nagyrákos,Vas,VA,46.8333,16.4667
9941,Ispánk,Vas,VA,46.8667,16.45
9942,Szalaf?,Vas,VA,46.8667,16.3667
9943,Kondorfa,Vas,VA,46.895,16.4017
9944,Bajánsenye,Vas,VA,46.8,16.3833
9945,Kercaszomor,Vas,VA,46.7833,16.3667
9946,Magyarszombatfa,Vas,VA,46.7628,16.3467
9951,Rátót,Vas,VA,46.9667,16.4333
9952,Gasztony,Vas,VA,46.9625,16.4594
9953,Nemesmedves,Vas,VA,47,16.4
9954,Rönök,Vas,VA,46.9833,16.35
9955,Rönök,Vas,VA,46.9833,16.35
9961,Rábagyarmat,Vas,VA,46.9406,16.4286
9962,Csörötnek,Vas,VA,46.9514,16.3764
9970,Szentgotthárd,Vas,VA,46.9519,16.3256
9971,Szentgotthárd,Vas,VA,46.9519,16.3256
9981,Szentgotthárd,Vas,VA,46.9519,16.3256
9982,Apátistvánfalva,Vas,VA,46.9006,16.2647
9983,Szakonyfalu,Vas,VA,46.9167,16.2333
9985,Fels?szölnök,Vas,VA,46.8797,16.1731
8100,Várpalota,Veszprém,VE,47.2,18.1333
8101,Várpalota,Veszprém,VE,47.2,18.1333
8102,Várpalota,Veszprém,VE,47.2,18.1333
8103,Várpalota,Veszprém,VE,47.2,18.1333
8104,Várpalota,Veszprém,VE,47.2,18.1333
8105,Pétfürd?,Veszprém,VE,47.1667,18.1167
8109,Tés,Veszprém,VE,47.2667,18.0333
8161,?si,Veszprém,VE,47.15,18.2
8162,Küngös,Veszprém,VE,47.0667,18.1833
8163,Csajág,Veszprém,VE,47.05,18.1833
8164,Balatonf?kajár,Veszprém,VE,47.0167,18.2167
8171,Balatonvilágos,Veszprém,VE,46.9667,18.1667
8172,Balatonvilágos,Veszprém,VE,46.9667,18.1667
8173,Balatonvilágos,Veszprém,VE,46.9667,18.1667
8174,Balatonkenese,Veszprém,VE,47.0333,18.1167
8175,Balatonf?zf?,Veszprém,VE,47.0667,18.05
8181,Berhida,Veszprém,VE,47.1167,18.1333
8182,Berhida,Veszprém,VE,47.1167,18.1333
8183,Papkeszi,Veszprém,VE,47.0833,18.0833
8184,Papkeszi,Veszprém,VE,47.0833,18.0833
8191,Öskü,Veszprém,VE,47.1667,18.0833
8192,Hajmáskér,Veszprém,VE,47.15,18.0167
8193,Sóly,Veszprém,VE,47.1333,18.0333
8194,Vilonya,Veszprém,VE,47.1167,18.0667
8195,Királyszentistván,Veszprém,VE,47.1,18.05
8196,Litér,Veszprém,VE,47.1,18.0167
8200,Veszprém,Veszprém,VE,47.1,17.9167
8201,Veszprém,Veszprém,VE,47.1,17.9167
8202,Veszprém,Veszprém,VE,47.1,17.9167
8204,Veszprém,Veszprém,VE,47.1,17.9167
8205,Veszprém,Veszprém,VE,47.1,17.9167
8206,Veszprém,Veszprém,VE,47.1,17.9167
8207,Veszprém,Veszprém,VE,47.1,17.9167
8220,Balatonalmádi,Veszprém,VE,47.033,18.0164
8221,Balatonalmádi,Veszprém,VE,47.0333,18.0167
8222,Balatonalmádi,Veszprém,VE,47.0333,18.0167
8225,Szentkirályszabadja,Veszprém,VE,47.05,17.9667
8226,Alsóörs,Veszprém,VE,46.9833,17.9833
8227,Fels?örs,Veszprém,VE,47.0167,17.95
8228,Lovas,Veszprém,VE,47,17.9667
8229,Paloznak,Veszprém,VE,46.9833,17.95
8230,Balatonfüred,Veszprém,VE,46.95,17.8833
8231,Balatonsz?l?s,Veszprém,VE,46.9667,17.8333
8232,Balatonsz?l?s,Veszprém,VE,46.9667,17.8333
8236,Balatonsz?l?s,Veszprém,VE,46.9667,17.8333
8237,Tihany,Veszprém,VE,46.9167,17.9
8241,Aszóf?,Veszprém,VE,46.9333,17.8333
8242,Örvényes,Veszprém,VE,46.9167,17.8167
8243,Balatonakali,Veszprém,VE,46.8833,17.75
8244,Dörgicse,Veszprém,VE,46.9167,17.7167
8245,Pécsely,Veszprém,VE,46.95,17.7833
8246,Tótvázsony,Veszprém,VE,47.0167,17.7833
8247,Hidegkút,Veszprém,VE,47,17.8333
8248,Veszprémfajsz,Veszprém,VE,47.0333,17.9
8251,Zánka,Veszprém,VE,46.8833,17.6833
8252,Balatonszepezd,Veszprém,VE,46.85,17.6667
8253,Révfülöp,Veszprém,VE,46.8333,17.6333
8254,Kékkút,Veszprém,VE,46.85,17.5667
8255,Balatonrendes,Veszprém,VE,46.8333,17.5833
8256,Ábrahámhegy,Veszprém,VE,46.8167,17.5667
8257,Salföld,Veszprém,VE,46.8333,17.55
8258,Badacsonytomaj,Veszprém,VE,46.8,17.5167
8261,Badacsonytomaj,Veszprém,VE,46.8,17.5167
8263,Badacsonytördemic,Veszprém,VE,46.8167,17.4833
8264,Szigliget,Veszprém,VE,46.8,17.4333
8265,Hegymagas,Veszprém,VE,46.8333,17.4333
8271,Mencshely,Veszprém,VE,46.95,17.7
8272,Tagyon,Veszprém,VE,46.9,17.6833
8273,Monoszló,Veszprém,VE,46.9,17.65
8274,Köveskál,Veszprém,VE,46.8833,17.6
8275,Balatonhenye,Veszprém,VE,46.9167,17.6167
8281,Szentbékkálla,Veszprém,VE,46.8833,17.5667
8282,Mindszentkálla,Veszprém,VE,46.8667,17.55
8283,Káptalantóti,Veszprém,VE,46.85,17.5167
8284,Nemesgulács,Veszprém,VE,46.8333,17.4833
8286,Gyulakeszi,Veszprém,VE,46.8667,17.4833
8291,Nagyvázsony,Veszprém,VE,46.9833,17.7
8292,Öcs,Veszprém,VE,47,17.6167
8294,Kapolcs,Veszprém,VE,46.95,17.6167
8295,Taliándörögd,Veszprém,VE,46.9833,17.5667
8296,Hegyesd,Veszprém,VE,46.9167,17.5167
8297,Hegyesd,Veszprém,VE,46.9167,17.5167
8300,Raposka,Veszprém,VE,46.8806,17.4362
8301,Raposka,Veszprém,VE,46.85,17.4333
8302,Raposka,Veszprém,VE,46.85,17.4333
8303,Raposka,Veszprém,VE,46.85,17.4333
8308,Sáska,Veszprém,VE,46.9333,17.4833
8311,Nemesvita,Veszprém,VE,46.8167,17.3667
8312,Balatonederics,Veszprém,VE,46.8167,17.3833
8318,Lesencetomaj,Veszprém,VE,46.85,17.3667
8319,Lesenceistvánd,Veszprém,VE,46.8667,17.35
8321,Uzsa,Veszprém,VE,46.9,17.3333
8330,Sümeg,Veszprém,VE,46.9833,17.2833
8331,Sümeg,Veszprém,VE,46.9833,17.2833
8344,Hetyef?,Veszprém,VE,47.05,17.1667
8345,Dabronc,Veszprém,VE,47.0333,17.1667
8346,Gógánfa,Veszprém,VE,47.0167,17.1833
8347,Ukk,Veszprém,VE,47.05,17.2167
8348,Megyer,Veszprém,VE,47.0667,17.2
8349,Zalagyömör?,Veszprém,VE,47.0167,17.2333
8351,Sümegprága,Veszprém,VE,46.9333,17.2833
8352,Bazsi,Veszprém,VE,46.9333,17.25
8400,Ajka,Veszprém,VE,47.1,17.5667
8401,Ajka,Veszprém,VE,47.1,17.5667
8403,Ajka,Veszprém,VE,47.1,17.5667
8404,Ajka,Veszprém,VE,47.1,17.5667
8408,Ajka,Veszprém,VE,47.1,17.5667
8409,Úrkút,Veszprém,VE,47.0833,17.6333
8411,Úrkút,Veszprém,VE,47.0833,17.6333
8412,Úrkút,Veszprém,VE,47.0833,17.6333
8413,Eplény,Veszprém,VE,47.2167,17.9167
8414,Olaszfalu,Veszprém,VE,47.2333,17.9167
8415,Nagyesztergár,Veszprém,VE,47.2833,17.9
8416,Dudar,Veszprém,VE,47.3,17.95
8417,Csetény,Veszprém,VE,47.3167,18
8418,Bakonyoszlop,Veszprém,VE,47.35,17.9333
8419,Csesznek,Veszprém,VE,47.35,17.8833
8420,Zirc,Veszprém,VE,47.2667,17.8667
8422,Bakonynána,Veszprém,VE,47.2833,17.9667
8423,Szápár,Veszprém,VE,47.3167,18.0333
8424,Jásd,Veszprém,VE,47.2833,18.0333
8425,Lókút,Veszprém,VE,47.2,17.8667
8426,Pénzesgy?r,Veszprém,VE,47.2333,17.7833
8427,Bakonybél,Veszprém,VE,47.25,17.7333
8428,Borzavár,Veszprém,VE,47.3,17.8333
8429,Porva,Veszprém,VE,47.3167,17.8167
8430,Bakonyszentkirály,Veszprém,VE,47.3667,17.8833
8431,Bakonyszentlászló,Veszprém,VE,47.4,17.825
8432,Feny?f?,Veszprém,VE,47.4,17.825
8433,Bakonygyirót,Veszprém,VE,47.4,17.825
8434,Románd,Veszprém,VE,47.4,17.825
8435,Gic,Veszprém,VE,47.4333,17.7667
8436,Bakonypéterd,Veszprém,VE,47.4,17.825
8437,Lázi,Veszprém,VE,47.4,17.825
8438,Veszprémvarsány,Veszprém,VE,47.4,17.825
8439,Sikátor,Veszprém,VE,47.4,17.825
8440,Herend,Veszprém,VE,47.1333,17.75
8441,Márkó,Veszprém,VE,47.1167,17.8167
8442,Hárskút,Veszprém,VE,47.1833,17.8167
8443,Bánd,Veszprém,VE,47.1167,17.8
8444,Szentgál,Veszprém,VE,47.1167,17.7333
8445,Csehbánya,Veszprém,VE,47.1833,17.6833
8446,Kisl?d,Veszprém,VE,47.15,17.6167
8447,Kisl?d,Veszprém,VE,47.15,17.6167
8448,Kisl?d,Veszprém,VE,47.15,17.6167
8449,Magyarpolány,Veszprém,VE,47.1667,17.55
8451,Magyarpolány,Veszprém,VE,47.1667,17.55
8452,Halimba,Veszprém,VE,47.0333,17.5333
8454,Nyirád,Veszprém,VE,47,17.45
8455,Pusztamiske,Veszprém,VE,47.0667,17.45
8456,Noszlop,Veszprém,VE,47.1833,17.4667
8457,Bakonypölöske,Veszprém,VE,47.2,17.4833
8458,Oroszi,Veszprém,VE,47.15,17.4167
8460,Devecser,Veszprém,VE,47.1,17.4333
8461,Devecser,Veszprém,VE,47.1,17.4333
8468,Kolontár,Veszprém,VE,47.0833,17.4833
8469,Kamond,Veszprém,VE,47.1333,17.2
8471,Nemeshany,Veszprém,VE,47.0667,17.3667
8473,Gyepükaján,Veszprém,VE,47.05,17.3333
8474,Csabrendek,Veszprém,VE,47.0167,17.3
8475,Szentimrefalva,Veszprém,VE,47.0667,17.2833
8476,Zalaszegvár,Veszprém,VE,47.1,17.2333
8477,Apácatorna,Veszprém,VE,47.1167,17.3
8478,Somlójen?,Veszprém,VE,47.1167,17.3667
8479,Borszörcsök,Veszprém,VE,47.1333,17.4
8481,Somlóvásárhely,Veszprém,VE,47.1167,17.3833
8482,Doba,Veszprém,VE,47.1667,17.3833
8483,Kissz?l?s,Veszprém,VE,47.2,17.3333
8484,Somlóvecse,Veszprém,VE,47.2,17.35
8485,Dabrony,Veszprém,VE,47.25,17.3333
8491,Karakószörcsök,Veszprém,VE,47.1333,17.2833
8492,Kerta,Veszprém,VE,47.1667,17.2833
8493,Iszkáz,Veszprém,VE,47.1667,17.3
8494,Kiscs?sz,Veszprém,VE,47.2,17.2833
8495,Csögle,Veszprém,VE,47.2167,17.2667
8496,Kispirit,Veszprém,VE,47.2,17.25
8497,Adorjánháza,Veszprém,VE,47.2333,17.25
8500,Pápa,Veszprém,VE,47.3333,17.4667
8501,Pápa,Veszprém,VE,47.3333,17.4667
8502,Pápa,Veszprém,VE,47.3333,17.4667
8503,Pápa,Veszprém,VE,47.3333,17.4667
8505,Pápa,Veszprém,VE,47.3333,17.4667
8510,Pápa,Veszprém,VE,47.3333,17.4667
8511,Pápa,Veszprém,VE,47.3333,17.4667
8512,Nyárád,Veszprém,VE,47.2833,17.3667
8513,Mihályháza,Veszprém,VE,47.3,17.3333
8514,Mez?lak,Veszprém,VE,47.3333,17.3667
8515,Békás,Veszprém,VE,47.3333,17.35
8516,Kemenesh?gyész,Veszprém,VE,47.35,17.3
8517,Magyargencs,Veszprém,VE,47.3667,17.3
8518,Kemenesszentpéter,Veszprém,VE,47.4333,17.2333
8521,Nagyacsád,Veszprém,VE,47.3667,17.3667
8522,Nemesgörzsöny,Veszprém,VE,47.4,17.3667
8523,Egyházaskesz?,Veszprém,VE,47.4167,17.3333
8531,Várkesz?,Veszprém,VE,47.4333,17.3167
8532,Marcalt?,Veszprém,VE,47.4333,17.3667
8533,Malomsok,Veszprém,VE,47.45,17.4
8541,Takácsi,Veszprém,VE,47.4,17.4833
8542,Vaszar,Veszprém,VE,47.4,17.5167
8543,Gecse,Veszprém,VE,47.45,17.5333
8551,Nagygyimót,Veszprém,VE,47.3333,17.55
8552,Vanyola,Veszprém,VE,47.3833,17.5833
8553,Lovászpatona,Veszprém,VE,47.4333,17.6333
8554,Nagydém,Veszprém,VE,47.4333,17.6833
8555,Bakonytamási,Veszprém,VE,47.4167,17.7333
8556,Pápateszér,Veszprém,VE,47.3833,17.7
8557,Bakonyság,Veszprém,VE,47.4,17.65
8558,Csót,Veszprém,VE,47.3667,17.6167
8561,Adásztevel,Veszprém,VE,47.3,17.55
8562,Nagytevel,Veszprém,VE,47.3,17.5667
8563,Homokbödöge,Veszprém,VE,47.3,17.6
8564,Ugod,Veszprém,VE,47.3167,17.6
8565,Béb,Veszprém,VE,47.35,17.6
8571,Bakonykoppány,Veszprém,VE,47.3333,17.6833
8572,Bakonyszücs,Veszprém,VE,47.3333,17.6833
8581,Bakonyjákó,Veszprém,VE,47.2167,17.6
8582,Farkasgyep?,Veszprém,VE,47.2,17.6333
8591,Farkasgyep?,Veszprém,VE,47.2,17.6333
8592,Dáka,Veszprém,VE,47.2833,17.4333
8593,Pápadereske,Veszprém,VE,47.3,17.4
8594,Pápasalamon,Veszprém,VE,47.2333,17.4333
8595,Kup,Veszprém,VE,47.25,17.4667
8596,Pápakovácsi,Veszprém,VE,47.2667,17.4833
8597,Ganna,Veszprém,VE,47.2333,17.5333
8598,Döbrönte,Veszprém,VE,47.2333,17.55
9532,Küls?vat,Veszprém,VE,47.3,17.2333
9533,Nemesszalók,Veszprém,VE,47.2833,17.3
9534,Vinár,Veszprém,VE,47.3167,17.2833
8313,Balatongyörök,Zala,ZA,46.75,17.3667
8314,Vonyarcvashegy,Zala,ZA,46.75,17.3167
8315,Gyenesdiás,Zala,ZA,46.7667,17.2833
8316,Vállus,Zala,ZA,46.85,17.3
8341,Mihályfa,Zala,ZA,46.9833,17.1833
8342,Óhid,Zala,ZA,46.9667,17.1833
8353,Vindornyalak,Zala,ZA,46.8833,17.2
8354,Vindornyafok,Zala,ZA,46.85,17.1833
8355,Vindornyasz?l?s,Zala,ZA,46.9,17.1667
8356,Nagygörb?,Zala,ZA,46.9333,17.1833
8357,Döbröce,Zala,ZA,46.9333,17.2
8360,Keszthely,Zala,ZA,46.7658,17.2574
8361,Keszthely,Zala,ZA,46.7667,17.25
8362,Keszthely,Zala,ZA,46.7667,17.25
8363,Keszthely,Zala,ZA,46.7667,17.25
8364,Keszthely,Zala,ZA,46.7667,17.25
8371,Nemesbük,Zala,ZA,46.8167,17.15
8372,Cserszegtomaj,Zala,ZA,46.8,17.2167
8373,Rezi,Zala,ZA,46.85,17.2167
8380,Hévíz,Zala,ZA,46.7833,17.1667
8381,Fels?páhok,Zala,ZA,46.7833,17.1667
8391,Sármellék,Zala,ZA,46.7167,17.1667
8392,Zalavár,Zala,ZA,46.6667,17.1667
8393,Szentgyörgyvár,Zala,ZA,46.75,17.1333
8394,Alsópáhok,Zala,ZA,46.7667,17.1833
8741,Zalaapáti,Zala,ZA,46.7333,17.1167
8742,Esztergályhorváti,Zala,ZA,46.7,17.1167
8743,Zalaszabar,Zala,ZA,46.65,17.1167
8744,Orosztony,Zala,ZA,46.6333,17.0667
8745,Kerecseny,Zala,ZA,46.6167,17.05
8746,Nagyrada,Zala,ZA,46.6167,17.1167
8747,Garabonc,Zala,ZA,46.5833,17.1333
8749,Zalakaros,Zala,ZA,46.5667,17.1333
8751,Zalakomár,Zala,ZA,46.55,17.1833
8752,Zalakomár,Zala,ZA,46.55,17.1833
8753,Balatonmagyaród,Zala,ZA,46.6,17.1833
8754,Galambok,Zala,ZA,46.5167,17.1333
8756,Csapi,Zala,ZA,46.5333,17.1
8761,Zalaigrice,Zala,ZA,46.75,17.0167
8762,Szentpéterúr,Zala,ZA,46.7667,17.0333
8764,Dióskál,Zala,ZA,46.6667,17.05
8765,Egeraracsa,Zala,ZA,46.6667,17.0833
8767,Alsórajk,Zala,ZA,46.65,17
8771,Hahót,Zala,ZA,46.6425,16.9236
8772,Börzönce,Zala,ZA,46.5833,16.9
8773,Pölöskef?,Zala,ZA,46.6,16.95
8774,Kilimán,Zala,ZA,46.6333,17
8776,Bocska,Zala,ZA,46.55,16.9167
8777,Hosszúvölgy,Zala,ZA,46.5167,16.9333
8778,Újudvar,Zala,ZA,46.5333,17
8782,Zalacsány,Zala,ZA,46.8,17.1167
8784,Kehidakustány,Zala,ZA,46.85,17.1
8785,Kallósd,Zala,ZA,46.8667,17.0667
8788,Sénye,Zala,ZA,46.9,17.1333
8789,Sénye,Zala,ZA,46.9,17.1333
8790,Zalaszentgrót,Zala,ZA,46.95,17.0833
8792,Zalavég,Zala,ZA,47,17.0333
8793,Zalavég,Zala,ZA,47,17.0333
8795,Zalavég,Zala,ZA,47,17.0333
8796,Türje,Zala,ZA,46.9833,17.1
8797,Batyk,Zala,ZA,46.9833,17.0333
8798,Zalabér,Zala,ZA,46.9667,17.0333
8799,Pakod,Zala,ZA,46.9667,17
8800,Nagykanizsa,Zala,ZA,46.4618,17.0102
8801,Nagykanizsa,Zala,ZA,46.5142,16.9717
8802,Nagykanizsa,Zala,ZA,46.5142,16.9717
8803,Nagykanizsa,Zala,ZA,46.5142,16.9717
8804,Nagykanizsa,Zala,ZA,46.5142,16.9717
8808,Nagykanizsa,Zala,ZA,46.5142,16.9717
8809,Nagykanizsa,Zala,ZA,46.5142,16.9717
8821,Nagybakónak,Zala,ZA,46.55,17.05
8822,Zalaújlak,Zala,ZA,46.55,17.0833
8824,Sand,Zala,ZA,46.4167,17.1333
8825,Miháld,Zala,ZA,46.45,17.1333
8827,Zalaszentjakab,Zala,ZA,46.4833,17.1333
8831,Zalaszentjakab,Zala,ZA,46.4833,17.1333
8834,Murakeresztúr,Zala,ZA,46.3522,16.8781
8835,Fityeház,Zala,ZA,46.3667,16.9167
8855,Belezna,Zala,ZA,46.3278,16.94
8856,Nemespátró,Zala,ZA,46.3167,17.0167
8861,Szepetnek,Zala,ZA,46.4308,16.905
8862,Semjénháza,Zala,ZA,46.4,16.85
8863,Molnári,Zala,ZA,46.3833,16.8333
8864,Tótszerdahely,Zala,ZA,46.4,16.8
8865,Tótszentmárton,Zala,ZA,46.4167,16.8167
8866,Petrivente,Zala,ZA,46.4333,16.85
8868,Kistolmács,Zala,ZA,46.4833,16.75
8872,Muraszemenye,Zala,ZA,46.4667,16.6167
8873,Csörnyeföld,Zala,ZA,46.5008,16.6319
8874,Dobri,Zala,ZA,46.5167,16.5833
8876,Tormafölde,Zala,ZA,46.5386,16.5944
8877,Tornyiszentmiklós,Zala,ZA,46.515,16.5578
8878,Lovászi,Zala,ZA,46.55,16.5667
8879,Kerkateskánd,Zala,ZA,46.5833,16.5833
8881,Sormás,Zala,ZA,46.45,16.9167
8882,Eszteregnye,Zala,ZA,46.4667,16.8833
8883,Rigyác,Zala,ZA,46.4667,16.8667
8885,Borsfa,Zala,ZA,46.5167,16.7833
8886,Oltárc,Zala,ZA,46.5272,16.8372
8887,Lasztonya,Zala,ZA,46.5667,16.7167
8888,Maróc,Zala,ZA,46.55,16.6667
8891,Bánokszentgyörgy,Zala,ZA,46.5456,16.7872
8893,Bucsuta,Zala,ZA,46.5667,16.85
8895,Pusztamagyaród,Zala,ZA,46.6,16.8333
8896,Pusztaszentlászló,Zala,ZA,46.6369,16.8442
8897,Söjtör,Zala,ZA,46.6672,16.8583
8900,Zalaegerszeg,Zala,ZA,46.84,16.8439
8901,Zalaegerszeg,Zala,ZA,46.84,16.8439
8902,Zalaegerszeg,Zala,ZA,46.84,16.8439
8903,Zalaegerszeg,Zala,ZA,46.84,16.8439
8904,Zalaegerszeg,Zala,ZA,46.84,16.8439
8905,Zalaegerszeg,Zala,ZA,46.84,16.8439
8906,Zalaegerszeg,Zala,ZA,46.84,16.8439
8907,Zalaegerszeg,Zala,ZA,46.84,16.8439
8908,Zalaegerszeg,Zala,ZA,46.84,16.8439
8909,Zalaegerszeg,Zala,ZA,46.84,16.8439
8911,Nagykutas,Zala,ZA,46.9236,16.8078
8912,Nagypáli,Zala,ZA,46.9167,16.85
8913,G?sfa,Zala,ZA,46.9667,16.8667
8914,Vasboldogasszony,Zala,ZA,46.95,16.8833
8915,Nemesrádó,Zala,ZA,46.7833,17
8917,Pálfiszeg,Zala,ZA,46.7833,16.7333
8918,Németfalu,Zala,ZA,46.8208,16.6736
8919,Kustánszeg,Zala,ZA,46.7839,16.6875
8921,Zalaszentiván,Zala,ZA,46.8886,16.8994
8923,Nemesapáti,Zala,ZA,46.8667,16.95
8924,Alsónemesapáti,Zala,ZA,46.8481,16.935
8925,Nemeshetés,Zala,ZA,46.8,16.9167
8929,Pölöske,Zala,ZA,46.75,16.9333
8931,Kemendollár,Zala,ZA,46.9,16.9667
8932,Zalaistvánd,Zala,ZA,46.9167,16.9833
8934,Bezeréd,Zala,ZA,46.8667,17.0167
8935,Nagykapornak,Zala,ZA,46.8167,17
8936,Zalaszentmihály,Zala,ZA,46.725,16.9494
8943,Bocfölde,Zala,ZA,46.7833,16.8333
8944,Sárhida,Zala,ZA,46.75,16.85
8945,Bak,Zala,ZA,46.7292,16.8464
8946,Baktüttös,Zala,ZA,46.7,16.8167
8947,Zalatárnok,Zala,ZA,46.7019,16.7628
8948,Barlahida,Zala,ZA,46.7158,16.7025
8949,Mikekarácsonyfa,Zala,ZA,46.65,16.7
8951,Gutorfölde,Zala,ZA,46.6414,16.7383
8953,Szentpéterfölde,Zala,ZA,46.6167,16.7667
8954,Ortaháza,Zala,ZA,46.6167,16.6833
8956,Pördefölde,Zala,ZA,46.5833,16.7167
8957,Kissziget,Zala,ZA,46.6167,16.6667
8958,Iklódbörd?ce,Zala,ZA,46.6,16.6167
8960,Lenti,Zala,ZA,46.6217,16.5392
8961,Lenti,Zala,ZA,46.6217,16.5392
8966,Lenti,Zala,ZA,46.6217,16.5392
8969,Gáborjánháza,Zala,ZA,46.6333,16.4167
8971,Kerkabarabás,Zala,ZA,46.6833,16.5667
8973,Ramocsa,Zala,ZA,46.7833,16.45
8975,Szentgyörgyvölgy,Zala,ZA,46.7244,16.4156
8976,Márokföld,Zala,ZA,46.7167,16.45
8977,Resznek,Zala,ZA,46.6619,16.4792
8978,Gosztola,Zala,ZA,46.5833,16.5333
8981,Lickóvadamos,Zala,ZA,46.75,16.7667
8983,Nagylengyel,Zala,ZA,46.7833,16.7667
8984,Gombosszeg,Zala,ZA,46.75,16.7333
8985,Becsvölgye,Zala,ZA,46.7667,16.7
8986,Pórszombat,Zala,ZA,46.7264,16.5781
8988,Kozmadombja,Zala,ZA,46.7667,16.55
8991,Böde,Zala,ZA,46.8375,16.7206
8992,Hagyárosbörönd,Zala,ZA,46.9,16.7167
8994,Kávás,Zala,ZA,46.8667,16.7167
8995,Salomvár,Zala,ZA,46.8489,16.6633
8996,Zalacséb,Zala,ZA,46.8603,16.6639
8997,Zalaháshágy,Zala,ZA,46.89,16.6328
8998,Ozmánbük,Zala,ZA,46.9167,16.6833
8999,Csöde,Zala,ZA,46.8167,16.5333
