Postal Code,Place Name,State,Latitude,Longitude
10010,Watala,Norhern Punajb Rawalpindi,30.7819,71.6511
10011,Saryala Chappar,Norhern Punajb Rawalpindi,30.7819,71.6511
10020,Barnala,Norhern Punajb Rawalpindi,31.6333,73.1
10021,Ahla,Norhern Punajb Rawalpindi,27.8431,67.6604
10030,Bharing (A.K),Norhern Punajb Rawalpindi,32.9708,73.9806
10031,Maloot,Norhern Punajb Rawalpindi,32.9708,73.9806
10034,Kadhala,Norhern Punajb Rawalpindi,32.9708,73.9806
10040,Bhimber,Norhern Punajb Rawalpindi,32.9833,74.0667
10041,Randian,Norhern Punajb Rawalpindi,31.0833,72.55
10050,Bangla Sadabad,Norhern Punajb Rawalpindi,30.7819,71.6511
10051,Baghsar,Norhern Punajb Rawalpindi,30.7819,71.6511
10060,Sammani,Norhern Punajb Rawalpindi,30.7819,71.6511
10061,Bindi,Norhern Punajb Rawalpindi,30.65,70.7167
10070,Barjah,Norhern Punajb Rawalpindi,33.1611,73.9806
10080,Chowki,Norhern Punajb Rawalpindi,25.0261,66.8833
10081,Dana,Norhern Punajb Rawalpindi,33.1556,74.0972
10100,Poona,Norhern Punajb Rawalpindi,33.1908,73.1172
10101,Dhal Khumba,Norhern Punajb Rawalpindi,33.1908,73.1172
10200,Mangla Dam,Federal Capial &AJK,31.4736,74.2431
10230,Chitter Pari (Ak),Federal Capial &AJK,31.4736,74.2431
10250,Mirpur City P.O,Federal Capial &AJK,31.4736,74.2431
10251,Kharak,Federal Capial &AJK,31.5083,74.2689
10300,Siakh,Federal Capial &AJK,33.4574,73.2244
10301,Bheli,Federal Capial &AJK,33.4574,73.2244
10310,Khadimabad (A.K.),Federal Capial &AJK,34.1078,71.1414
10311,Kandore,Federal Capial &AJK,34.1078,71.1414
10320,Chhattroh,Federal Capial &AJK,34.4136,72.9211
10321,Batli,Federal Capial &AJK,34.4136,72.9211
10350,Chechian (Ak),Federal Capial &AJK,33.4574,73.2244
10360,Afzal Pur,Federal Capial &AJK,33.4574,73.2244
10361,Sanwal Sharif,Federal Capial &AJK,33.4574,73.2244
10370,Banni,Federal Capial &AJK,33.6333,73.0667
10380,Jatli (Ak),Federal Capial &AJK,33.0118,73.8604
10381,Rahian,Federal Capial &AJK,32.9333,73.7833
10400,Panjeri,Federal Capial &AJK,33.0167,73.9167
10401,Chhanni Kuntal,Federal Capial &AJK,33.0167,73.9167
10450,Potha Bainsi,Federal Capial &AJK,32.1667,73.0741
10451,Thathi,Federal Capial &AJK,33.1992,72.1322
10460,Dhamawa,Federal Capial &AJK,32.1667,73.0741
10470,Akal Garh,Federal Capial &AJK,33.4833,73.4222
10471,Mawa,Federal Capial &AJK,33.4833,73.4222
10480,Jatti Dheri,Federal Capial &AJK,30,71.8833
10481,Sehar,Federal Capial &AJK,30,71.8833
10490,Boha Dhangri (Ak),Federal Capial &AJK,32.1667,73.0741
10491,Asif Abad,Federal Capial &AJK,32.1667,73.0741
10500,Chak Sawari,Federal Capial &AJK,33.2472,73.7833
10501,Kanel,Federal Capial &AJK,33.2806,73.7639
10520,Palak (A.K.),Federal Capial &AJK,33.5564,73.3889
10521,Khan Abad,Federal Capial &AJK,33.5564,73.3889
10530,Dadyal Khurd,Federal Capial &AJK,30.4833,71.9
10531,Raipur,Federal Capial &AJK,30.4833,71.9
10540,Ratta,Federal Capial &AJK,32.85,72.6833
10541,Sandai,Federal Capial &AJK,34.7661,72.6761
10544,Thara,Federal Capial &AJK,33.8081,72.6797
10545,Ghaneer,Federal Capial &AJK,33.8081,72.6797
10550,K.D. Khan,Federal Capial &AJK,33.4889,73.8667
10551,Sanot,Federal Capial &AJK,33.4889,73.8667
11010,Sehnsa,Federal Capial &AJK,34.8333,71.5731
11011,Barigurha,Federal Capial &AJK,34.8333,71.5731
11014,Potha,Federal Capial &AJK,33.95,73.5
11015,Tarala,Federal Capial &AJK,34.8333,71.5731
11020,Seher Mandi,Federal Capial &AJK,31.3023,71.16
11030,Gulpur (Ak),Federal Capial &AJK,33.6361,73.8986
11031,Khawas,Federal Capial &AJK,33.6361,73.8986
11040,Nar,Federal Capial &AJK,25.4375,68.0083
11041,Pateri,Federal Capial &AJK,25.4375,68.0083
11100,Kotli (A.K.),Federal Capial &AJK,33.4815,73.9178
11101,Sarhota,Federal Capial &AJK,33.5472,73.8292
11110,Sarsawa,Federal Capial &AJK,33.4633,73.9229
11111,Anhoi Sarhota,Federal Capial &AJK,33.4633,73.9229
11120,Panjera,Federal Capial &AJK,33.5694,73.8306
11121,Chhani,Federal Capial &AJK,33.0111,73.9306
11150,Gunni Malni,Federal Capial &AJK,33.4633,73.9229
11160,Tatta Pani,Federal Capial &AJK,33.5819,73.9806
11161,Sawar,Federal Capial &AJK,33.5806,73.9444
11170,Fatehpur Thakiala,Federal Capial &AJK,33.4633,73.9229
11171,Datoot,Federal Capial &AJK,33.4633,73.9229
11190,Chowki Mong,Federal Capial &AJK,33.4633,73.9229
11200,Khui Ratta (A.K.),Federal Capial &AJK,34.2264,73.1111
11201,Bihal,Federal Capial &AJK,34.2264,73.1111
11210,Seri,Federal Capial &AJK,34.65,73.7667
11211,Andarla Kothera,Federal Capial &AJK,32.5708,73.0981
11220,Bal Brahmana,Federal Capial &AJK,30.25,72.2833
11221,Juna,Federal Capial &AJK,30.25,72.2833
11250,Charhoi,Federal Capial &AJK,32.5708,73.0981
11251,Khankah Kothera,Federal Capial &AJK,32.5708,73.0981
11260,Kala Dab,Federal Capial &AJK,33.2361,73.9
12000,Azad Pattan A.K.,Norhern Punajb Rawalpindi,33.6764,73.1105
12001,Sawa,Norhern Punajb Rawalpindi,33.6764,73.1105
12010,Palandri,Norhern Punajb Rawalpindi,33.7167,73.7
12011,Namb,Norhern Punajb Rawalpindi,33.7167,73.7
12030,Barian,Norhern Punajb Rawalpindi,31.5292,71.2167
12070,Nalian,Norhern Punajb Rawalpindi,33.6764,73.1105
12071,Sehr Hajnal Kot,Norhern Punajb Rawalpindi,33.6764,73.1105
12080,Tarar Khel,Federal Capial &AJK,33.7611,73.7583
12081,Anhari,Federal Capial &AJK,34.3505,73.3294
12090,Qillan,Federal Capial &AJK,33.6764,73.1105
12100,Baithak Bazar,Federal Capial &AJK,30.631,71.5611
12110,Rahimabad,Federal Capial &AJK,28.4,69.9333
12120,Baluch,Federal Capial &AJK,28.2458,68.3861
12121,Chamba Gali,Federal Capial &AJK,28.2458,68.3861
12130,Pakhonar,Federal Capial &AJK,30.631,71.5611
12150,Gala Kaniyata,Federal Capial &AJK,30.631,71.5611
12151,Kot Gala Kawali,Federal Capial &AJK,30.631,71.5611
12160,Hajeera,Federal Capial &AJK,28.4833,70.2236
12161,Akramabad,Federal Capial &AJK,28.4833,70.2236
12170,Maindla,Federal Capial &AJK,33.7333,73.9597
12171,Tanda,Federal Capial &AJK,30.1076,70.8458
12174,Sehra,Federal Capial &AJK,33.65,73.9833
12175,Darra Sher Khan,Federal Capial &AJK,31.8997,72.4087
12180,Mandhole,Federal Capial &AJK,33.6833,73.9361
12181,Thai,Federal Capial &AJK,26.9167,68.0333
12184,Rakkar,Federal Capial &AJK,30.7514,73.8361
12200,Abbas Pur,Federal Capial &AJK,33.8778,74.0333
12201,Palangi,Federal Capial &AJK,33.8778,74.0389
12210,Kahoota(A.K),Federal Capial &AJK,32.3338,73.0682
12211,Kangran,Federal Capial &AJK,34.3056,73.2097
12250,Khaigala,Federal Capial &AJK,33.8139,73.8514
12251,Alisojal,Federal Capial &AJK,33.8139,73.8514
12260,Jewar,NWFP Peshawar,34.4778,72.9253
12261,Banjoosa,Federal Capial &AJK,32.9048,73.4074
12300,Mong,Federal Capial &AJK,32.65,73.5167
12301,Androte,Federal Capial &AJK,33.7181,73.7833
12310,Thorar,Federal Capial &AJK,31.8913,72.4669
12311,Azizabad,Federal Capial &AJK,24.9206,67.0703
12320,Rehera,Federal Capial &AJK,31.8913,72.4669
12330,Lunjgran,Federal Capial &AJK,31.8913,72.4669
12331,Chappri Bazar,Federal Capial &AJK,31.8913,72.4669
12350,Rawalakot Gpo,Federal Capial &AJK,31.0295,71.6782
12351,Kharik,Federal Capial &AJK,27.05,68.3
12380,Chak Dhamni,Federal Capial &AJK,31.8913,72.4669
12400,Mohri Farman Shah,Federal Capial &AJK,32.4333,72.3681
12410,Hurnamaira,Federal Capial &AJK,32.4333,72.3681
12411,Sanghar Bazar,Federal Capial &AJK,32.4333,72.3681
12420,Paniola,Federal Capial &AJK,32.4333,72.3681
12421,Jandathi Bazar,Federal Capial &AJK,32.4333,72.3681
12430,Pachiot,Federal Capial &AJK,32.4333,72.3681
12440,Datoot,Federal Capial &AJK,32.4333,72.3681
12441,Behari,Federal Capial &AJK,32.4333,72.3681
12460,Arja Apo,Federal Capial &AJK,32.4333,72.3681
12470,Mong Bajri,Federal Capial &AJK,32.4333,72.3681
12480,Harighel,Federal Capial &AJK,32.4333,72.3681
12500,Bagh Gpo,Federal Capial &AJK,33.4903,73.9938
12501,Salian Maldayalan,Federal Capial &AJK,33.4903,73.9938
12502,Mallote,Federal Capial &AJK,33.4903,73.9938
12503,Bees Bagla,Federal Capial &AJK,33.4903,73.9938
12510,Birpani,Federal Capial &AJK,34.0542,73.7556
12520,Kharal Abbasian,Federal Capial &AJK,32.8295,73.5358
12550,Reera Bazar,Federal Capial &AJK,32.8295,73.5358
12560,Barikot,Federal Capial &AJK,34.7736,71.9042
12570,Dhulli,Federal Capial &AJK,32.8667,72.2
12571,Raikot,Federal Capial &AJK,30.2833,72.4
12600,Dhirkot,Federal Capial &AJK,28.8197,62.765
12601,Paddor Master Khan,Federal Capial &AJK,28.8197,62.765
12610,Rangla Apo,Federal Capial &AJK,28.8197,62.765
12620,Chirala,Federal Capial &AJK,28.8197,62.765
12621,Donga Kahutter,Federal Capial &AJK,28.8197,62.765
12630,Chamankot,Federal Capial &AJK,28.8197,62.765
12631,Chamyati,Federal Capial &AJK,28.8197,62.765
12639,Kundi,NWFP Peshawar,28.8197,62.765
13000,Kohala,Federal Capial &AJK,31.0667,72.8333
13001,Bhan,Federal Capial &AJK,32.625,72.15
13020,Dana Kachilli,Federal Capial &AJK,31.8458,72.4917
13021,Kottarala,Federal Capial &AJK,31.8458,72.4917
13100,Muzaffarabad Gpo,Federal Capial &AJK,34.3042,73.5243
13101,Rara,Federal Capial &AJK,34.2925,73.4833
13150,Garahi Dupatta,Federal Capial &AJK,34.2903,73.6042
13151,Jhand Gran,Federal Capial &AJK,34.2903,73.6042
13161,Leepa,Federal Capial &AJK,34.477,73.7948
13170,Chikar,Federal Capial &AJK,36.3833,75.7833
13171,Sulmia,Federal Capial &AJK,36.3833,75.7833
13180,Hattian Bala,Federal Capial &AJK,34.2292,73.8028
13181,Reshian,Federal Capial &AJK,34.2583,73.8222
13190,Chenari,Federal Capial &AJK,34.15,73.8167
13191,Chokothi,Federal Capial &AJK,34.477,73.7948
13200,Kahuri,Federal Capial &AJK,27.2833,67.6667
13201,Saidpur,Federal Capial &AJK,27.2833,67.6667
13210,Pattika,Federal Capial &AJK,32.1762,71.8219
13211,Devlian,Federal Capial &AJK,32.1762,71.8219
13220,Karnah,Federal Capial &AJK,34.4119,73.4325
13221,Jura Bazar,Federal Capial &AJK,34.4119,73.4325
13230,Athmaqam,Federal Capial &AJK,34.8333,74.3667
13231,Lawat,Federal Capial &AJK,34.8333,74.3667
14100,Chilas (Lsg),Federal Capial &AJK,35.4,73.8333
14101,Thore,Federal Capial &AJK,35.4,73.8333
14200,Bunji,Federal Capial &AJK,35.6667,74.6
14201,Harcho,Federal Capial &AJK,35.4833,74.7667
14300,Astore,Federal Capial &AJK,35.3667,74.85
14301,Pakora,Federal Capial &AJK,34.9881,74.7039
14400,Chilam,Federal Capial &AJK,31.7875,73.5556
15100,Gilgit Gpo,Federal Capial &AJK,35.2446,73.9909
15101,Nomal,Federal Capial &AJK,36.0731,74.2544
15150,Jutial,Federal Capial &AJK,35.2446,73.9909
15200,Gahkooch,Federal Capial &AJK,34.3563,73.2067
15201,Sumal,Federal Capial &AJK,34.3563,73.2067
15300,Gupis,Federal Capial &AJK,36.2333,73.4333
15301,Yasin,Federal Capial &AJK,32.5405,71.9486
15350,Teru,Federal Capial &AJK,36.1833,72.75
15400,Sikandarabad,Federal Capial &AJK,29.9667,71.35
15401,Hussainabad,Federal Capial &AJK,30.8958,71.8333
15500,Chhalat,Federal Capial &AJK,36.25,74.2833
15501,Budlos,Federal Capial &AJK,36.25,74.2833
15550,Nasirabad,Federal Capial &AJK,27.3833,67.9167
15600,Aliabad,Federal Capial &AJK,36.3,74.6167
15601,Sumayar,Federal Capial &AJK,35.6833,74.175
15650,Nagar,Federal Capial &AJK,35.4,73.8
15651,Hoper,Federal Capial &AJK,35.9667,74.55
15700,Karimabad,Federal Capial &AJK,32.3306,73.2833
15701,Sarrat,Federal Capial &AJK,34.3563,73.2067
15800,Sust,Federal Capial &AJK,34.3563,73.2067
15801,Kirmin,Federal Capial &AJK,34.3563,73.2067
15900,Misgar,Federal Capial &AJK,36.7761,74.7656
16100,Skardu Hsg,Federal Capial &AJK,33.8076,74.1476
16101,Nar,Federal Capial &AJK,34.7261,72.9286
16200,Skardu Airport,Federal Capial &AJK,36.2333,73.1
16201,Chundah,Federal Capial &AJK,36.2333,73.1
16300,Shigar,Federal Capial &AJK,35.4333,75.7333
16301,Churka,Federal Capial &AJK,33.7229,74.4875
16400,Mehdiabad,Federal Capial &AJK,32.1833,73.5
16401,Manthoka,Federal Capial &AJK,34.9667,76.2333
16450,Tolti,Federal Capial &AJK,35.0333,76.1
16500,Baghicha,Federal Capial &AJK,34.2269,72.2058
16501,Tarkati,Federal Capial &AJK,34.2269,72.2058
16600,Olding,Federal Capial &AJK,33.8076,74.1476
16601,Bilargo,Federal Capial &AJK,33.8076,74.1476
16700,Kiris,Federal Capial &AJK,35.2333,75.95
16701,Yogo,Federal Capial &AJK,29.6632,70.8938
16800,Khaplu(Lsg),Federal Capial &AJK,34.7926,74.8271
16801,Doghani,Federal Capial &AJK,35.25,76.2
16900,Thagus,Federal Capial &AJK,33.8076,74.1476
16901,Seeno,Federal Capial &AJK,33.8076,74.1476
17010,Brep,NWFP Peshawar,36.4333,72.6667
17011,Broghab,NWFP Peshawar,33.7901,72.3277
17020,Mastuj,NWFP Peshawar,36.2833,72.5167
17021,Khubbala,NWFP Peshawar,33.1683,70.6947
17030,Harichin,NWFP Peshawar,24.0944,67.4389
17031,Ramon,NWFP Peshawar,24.0944,67.4389
17050,Booni,NWFP Peshawar,36.0075,71.7578
17051,Awi,NWFP Peshawar,36.0075,71.7578
17061,Mazgul,NWFP Peshawar,33.6624,71.8374
17080,Shah Gram,NWFP Peshawar,34.6333,73.1583
17081,Mehr,NWFP Peshawar,32.8667,73.9333
17100,Kosht,NWFP Peshawar,36.2333,72.15
17101,Muzgule,NWFP Peshawar,34.8181,72.2167
17110,Reshun,NWFP Peshawar,35.6647,72.1989
17111,Loan,NWFP Peshawar,35.6647,72.1989
17120,Kaghuzi,NWFP Peshawar,35.9306,71.8781
17121,Rogh,NWFP Peshawar,35.9306,71.8781
17130,Garam Chashma,NWFP Peshawar,35.995,71.5589
17131,Paira  Baig,NWFP Peshawar,36.0224,71.5141
17140,Para Beg,NWFP Peshawar,35.859,71.7843
17200,Chitral,NWFP Peshawar,34.21,71.8258
17201,Sangor,NWFP Peshawar,34.8081,72.6772
17210,Ayun,NWFP Peshawar,35.233,72.1418
17211,Bamborat,NWFP Peshawar,35.233,72.1418
17220,Drosh,NWFP Peshawar,35.5592,71.7956
17221,Kalas,NWFP Peshawar,34.6431,73.2278
17230,Broz,NWFP Peshawar,35.233,72.1418
17234,Sair Door,NWFP Peshawar,35.233,72.1418
17240,Nagar,NWFP Peshawar,35.4,73.8
17250,Arandu,NWFP Peshawar,35.3103,71.55
17260,Ashrait,NWFP Peshawar,35.4797,72.0189
17261,Mirkhani,NWFP Peshawar,35.4686,71.7303
17501,Parwak,NWFP Peshawar,33.7431,73.8639
18000,Dir,NWFP Peshawar,32.5314,69.8897
18001,Thall,NWFP Peshawar,33.3639,70.5494
18050,Shiringal Edso,NWFP Peshawar,34.1658,71.3288
18051,Biar Darangal,NWFP Peshawar,34.1658,71.3288
18100,Barawal Bandi Edso,NWFP Peshawar,35.0315,72.2849
18150,Darora,NWFP Peshawar,35.1025,71.9881
18151,Bibyour,NWFP Peshawar,35.0078,72.3838
18200,Wari,NWFP Peshawar,33.015,72.6911
18201,Jelar,NWFP Peshawar,34.0417,73.2101
18250,Khall,NWFP Peshawar,32.7386,70.7539
18251,Seer,NWFP Peshawar,27.7833,67.6167
18300,Timergara,NWFP Peshawar,34.7393,72.2486
18301,College,NWFP Peshawar,34.7393,72.2486
18350,Lal Qilla,NWFP Peshawar,34.6047,71.965
18351,Gumbat Banda,NWFP Peshawar,34.6047,71.965
18400,Dara Manyali,NWFP Peshawar,34.1922,71.7247
18450,Zaimdara,NWFP Peshawar,34.1922,71.7247
18500,Munda,NWFP Peshawar,33.5508,70.3194
18501,Gardai,NWFP Peshawar,34.4358,71.4711
18550,Mayar Jandol,NWFP Peshawar,34.9581,71.5839
18551,Miskinai,NWFP Peshawar,34.9581,71.5839
18600,Samar Bagh,NWFP Peshawar,34.9714,71.6664
18601,Kambat,NWFP Peshawar,34.9714,71.6664
18650,Khar Bajaur,NWFP Peshawar,34.7853,71.5858
18651,Raghagan,NWFP Peshawar,34.7853,71.5858
18700,Ziarat,NWFP Peshawar,30.3797,67.7272
18701,Bandagai,NWFP Peshawar,34.5564,71.5997
18750,Ouch,NWFP Peshawar,34.5564,71.5997
18751,Koti Gram,NWFP Peshawar,34.5564,71.5997
18800,Chakdara,NWFP Peshawar,34.6572,72.0353
18801,Tazagram,NWFP Peshawar,34.7331,72.0706
19010,Bahrain,NWFP Peshawar,35.2097,72.5481
19011,Usho,NWFP Peshawar,35.5389,72.6597
19020,Madyan,NWFP Peshawar,35.1403,72.5372
19021,Qandil,NWFP Peshawar,35.0981,72.5042
19030,Fatehpur,NWFP Peshawar,31.1667,71.2167
19031,Shin,NWFP Peshawar,35.0233,72.4731
19040,Matta,NWFP Peshawar,31.5944,72.3997
19041,Roringar,NWFP Peshawar,35.0717,72.3228
19050,Bara Drush Khela,NWFP Peshawar,35.0751,72.4468
19051,Nokhara,NWFP Peshawar,35.0744,72.4256
19060,Kabal,NWFP Peshawar,35.0428,72.3777
19061,Sersenai,NWFP Peshawar,35.0428,72.3777
19070,Devlai,NWFP Peshawar,34.8644,72.2533
19071,Tootano Bandi,NWFP Peshawar,34.9069,72.2366
19100,Alpurai,NWFP Peshawar,34.9203,72.6319
19101,Shikolai,NWFP Peshawar,34.79,71.8178
19110,Khawaza Khela,NWFP Peshawar,34.9906,72.4719
19111,Farhatabad,NWFP Peshawar,34.9906,72.4719
19120,Charbagh,NWFP Peshawar,34.8367,72.4419
19121,Gulibagh,NWFP Peshawar,34.8747,72.4347
19130,Mingora,NWFP Peshawar,34.7761,72.3611
19131,Nawan Kellay,NWFP Peshawar,34.7397,72.4256
19140,Aman Kot,NWFP Peshawar,34.5364,71.2039
19150,Aloch,NWFP Peshawar,34.7383,72.6842
19200,Saidu Sharif G.P.O.,NWFP Peshawar,34.8741,72.5631
19201,Goli Gram,NWFP Peshawar,34.8741,72.5631
19210,Rahim Abad,NWFP Peshawar,34.6543,72.4591
19211,Belogram,NWFP Peshawar,34.6543,72.4591
19230,Ghalegi,NWFP Peshawar,34.6543,72.4591
19240,Barikot,NWFP Peshawar,34.6778,72.2219
19241,Guratai,NWFP Peshawar,34.6069,73.0083
19250,Zara Khela,NWFP Peshawar,34.6543,72.4591
19251,Garhi,NWFP Peshawar,34.2167,73.6
19270,Torwarsak,NWFP Peshawar,34.5158,72.3614
19280,Pir Baba,NWFP Peshawar,34.6543,72.4591
19281,Ghazi Khani,NWFP Peshawar,34.6543,72.4591
19290,Daggar,NWFP Peshawar,34.5114,72.4839
19291,Ellai,NWFP Peshawar,34.4704,72.3984
19300,Nawagai,NWFP Peshawar,34.7058,72.8475
19301,Koga,NWFP Peshawar,34.3897,72.5075
20000,Sazine,NWFP Peshawar,34.7637,73.3287
20100,Dassu,NWFP Peshawar,35.7167,75.5167
20101,Seo,NWFP Peshawar,35.3167,73.25
20200,Pattan,NWFP Peshawar,34.6472,73.3583
20201,Shakan Abad,NWFP Peshawar,34.6472,73.3583
20210,Dullan Wala,Norhern Punajb Rawalpindi,34.6472,73.3583
20300,Ranolia,NWFP Peshawar,35.0489,72.8864
20301,Jijal,NWFP Peshawar,35.0439,72.9228
20400,Sholgara,NWFP Peshawar,34.7042,72.6056
20500,Besham,NWFP Peshawar,34.9319,72.8778
20501,Shang,NWFP Peshawar,34.8772,72.8861
21010,Biari Ayub Khan,NWFP Peshawar,33.9323,72.1629
21011,Kucha,NWFP Peshawar,29.1681,67.5694
21020,Muslim Abad,NWFP Peshawar,34.4,71.9014
21021,Nili Shang,NWFP Peshawar,34.6083,73.1069
21030,Thakot,NWFP Peshawar,34.75,72.9167
21031,Changal,NWFP Peshawar,34.0417,73.875
21040,Battagram,NWFP Peshawar,34.7397,72.9783
21041,Paimal Sharif,NWFP Peshawar,34.7397,72.9783
21050,Bansir,NWFP Peshawar,34.7167,73.15
21051,Hill,NWFP Peshawar,34.7167,73.15
21060,Kuza Banda,NWFP Peshawar,34.6347,73.0042
21061,Trand,NWFP Peshawar,33.1479,72.55
21070,Chatar Plain,NWFP Peshawar,34.192,72.746
21080,Bali Mang,NWFP Peshawar,34.192,72.746
21090,Battal,NWFP Peshawar,33.6861,73.9792
21091,Ahal,NWFP Peshawar,34.3639,73.0458
21100,Hajiabad,NWFP Peshawar,34.2589,71.8317
21101,Kotli Pain,NWFP Peshawar,33.9588,72.4545
21110,Baffa,NWFP Peshawar,34.4333,73.2167
21111,Sabir Shah,NWFP Peshawar,34.4347,73.1722
21130,Dhudial,NWFP Peshawar,33.0644,72.9733
21131,Mangon Machhi Pole,NWFP Peshawar,33.9588,72.4545
21140,Shinkari,NWFP Peshawar,34.4517,73.2694
21141,Bedadi,NWFP Peshawar,34.4517,73.2694
21150,Shinkar Camp,NWFP Peshawar,33.9588,72.4545
21160,Dadar,NWFP Peshawar,30.9222,67.8314
21161,Jabbar,NWFP Peshawar,33.2917,73.4875
21170,Jabori,NWFP Peshawar,34.6083,73.275
21200,Naran (Seasonal),NWFP Peshawar,34.6112,73.3105
21210,Kaghan,NWFP Peshawar,34.7833,73.5333
21211,Rajwal,NWFP Peshawar,34.8222,73.5167
21220,Mahandri Bazar,NWFP Peshawar,34.7333,73.55
21221,Manoor,NWFP Peshawar,34.7333,73.55
21230,Balakot,NWFP Peshawar,34.55,73.35
21231,Paras,NWFP Peshawar,34.6667,73.4667
21240,Ghari Habib Ullah,NWFP Peshawar,34.6996,72.8195
21241,Pateka,NWFP Peshawar,34.6996,72.8195
21250,Batrasi Camp,NWFP Peshawar,34.6112,73.3105
21260,Utter Shisha,NWFP Peshawar,34.6112,73.3105
21261,Jaba Sheep Farm,NWFP Peshawar,34.6112,73.3105
21270,Chakia,NWFP Peshawar,34.3169,73.2483
21300,Sadin Meira,NWFP Peshawar,34.58,72.8672
21301,Gangwal,NWFP Peshawar,34.4009,73.1715
21330,Mangloor,NWFP Peshawar,34.07,72.7934
21331,Morbafa Kalan,NWFP Peshawar,34.07,72.7934
21340,Bher Kund,NWFP Peshawar,34.07,72.7934
21341,Timbar Khola,NWFP Peshawar,34.07,72.7934
21350,Khaki,NWFP Peshawar,30.7792,71.9583
21351,Susal,NWFP Peshawar,34.4167,73.1
21360,Murad Pur,NWFP Peshawar,31.4933,69.8099
21361,Choki,NWFP Peshawar,28.0194,67.9208
21370,Perahena,NWFP Peshawar,32.0208,71.0042
21371,Jhangi,NWFP Peshawar,32.0208,71.0042
21380,Phulra,NWFP Peshawar,34.3333,73.05
21381,Tarappi,NWFP Peshawar,34.3,73.0667
21390,Lassan Nawab,NWFP Peshawar,34.2134,73.1001
21391,Bai,NWFP Peshawar,34.2925,72.9469
21400,Oghi,NWFP Peshawar,34.1139,73.5551
21401,Arbora,NWFP Peshawar,34.4625,73.0583
21410,Shamdhera,NWFP Peshawar,32.7792,71.7901
21420,Qila Gay,NWFP Peshawar,32.7792,71.7901
21430,Dilbori,NWFP Peshawar,32.7792,71.7901
21440,Belian,NWFP Peshawar,34.5289,72.9761
21450,Shergrah,NWFP Peshawar,33.0156,72.6709
21451,Maira Kalan,NWFP Peshawar,33.4767,72.9339
21460,Darband,NWFP Peshawar,26.3167,62.6667
22000,Qalander Abad,NWFP Peshawar,32.4708,71.6114
22001,Bandi Dhundan,NWFP Peshawar,34.2644,73.2567
22010,Abbottabad Gpo,NWFP Peshawar,33.346,72.2607
22011,Azizabad,NWFP Peshawar,34.1247,71.8678
22030,Abbottabad Public School,NWFP Peshawar,32.7885,71.9418
22040,Ayub Medical College,NWFP Peshawar,32.7885,71.9418
22044,Mandian,NWFP Peshawar,32.7885,71.9418
22050,Jhangi,NWFP Peshawar,33.6167,73.0667
22060,Toba Camp,NWFP Peshawar,32.7885,71.9418
22070,Kakul,NWFP Peshawar,34.1833,73.2667
22071,Kakul Village,NWFP Peshawar,34.1833,73.2667
22080,Nawan Shahr,NWFP Peshawar,29.9431,70.7792
22081,Kuthwal,NWFP Peshawar,31.05,70.55
22090,Sheikhul Bandi,NWFP Peshawar,32.7885,71.9418
22100,Kuthiala,NWFP Peshawar,34.2856,73.4392
22101,Pachhban,NWFP Peshawar,34.2333,73.15
22110,Pind Kargo Khan,NWFP Peshawar,33.7519,73.1652
22120,Sher Wan,NWFP Peshawar,30.5778,73.8542
22121,Lakhala,NWFP Peshawar,34.1833,73
22130,Chamhatti,NWFP Peshawar,34.2333,73.0333
22131,Lassan Nawab,NWFP Peshawar,34.0547,72.981
22150,Thandiani (Seasonal),NWFP Peshawar,33.7519,73.1652
22160,Chamyali,NWFP Peshawar,30.9167,71.85
22161,Sialkot,NWFP Peshawar,30.9167,71.85
22180,Boi,NWFP Peshawar,34.3053,73.4331
22181,Rankot,NWFP Peshawar,34.2892,73.4128
22200,Dhamtaur,NWFP Peshawar,34.1333,73.2667
22210,Bagnotar,NWFP Peshawar,34.1167,73.3333
22211,Bagh,NWFP Peshawar,34.1,73.3167
22220,Tharyati,NWFP Peshawar,34.1611,73.375
22221,Jootmang,NWFP Peshawar,34.1611,73.375
22230,Biran Gali,NWFP Peshawar,34.1889,73.4028
22231,Kutla,NWFP Peshawar,34.2056,73.4056
22250,Namli Maira,NWFP Peshawar,34.1352,73.3591
22260,Nagri Bala,NWFP Peshawar,34.1352,73.3591
22261,Nagri Tarly,NWFP Peshawar,34.1352,73.3591
22270,Kala Bagh (Hazara),NWFP Peshawar,34.1352,73.3591
22271,Sammunder Katha,NWFP Peshawar,34.1352,73.3591
22280,Nathia Gali,NWFP Peshawar,34.0722,73.3986
22281,Malach,NWFP Peshawar,34.0722,73.3986
22290,Bagan,NWFP Peshawar,34.0333,73.35
22291,Tajwal,NWFP Peshawar,34.0333,73.35
22300,Dunga Gali,NWFP Peshawar,34.0556,73.4167
22310,Ayubia,NWFP Peshawar,33.5981,73.6741
22320,Chhangla Gali (Seasonal),NWFP Peshawar,33.5981,73.6741
22330,Kaira Gali,NWFP Peshawar,33.5981,73.6741
22331,Pallak,NWFP Peshawar,33.5981,73.6741
22340,Seer,Federal Capial &AJK,27.7833,67.6167
22350,Nagritutial,Federal Capial &AJK,33.5981,73.6741
22351,Chanali,Federal Capial &AJK,33.5981,73.6741
22360,Lora,Federal Capial &AJK,33.8833,73.2833
22361,Khoyan,Federal Capial &AJK,32.8556,74.3222
22370,Ghambir,Federal Capial &AJK,26.4944,67.7472
22371,Phalla,Federal Capial &AJK,33.5981,73.6741
22400,Birote,Federal Capial &AJK,33.8408,72.2114
22401,Darwaza,Federal Capial &AJK,33.8408,72.2114
22410,Bakote,Federal Capial &AJK,34.1083,73.4917
22411,Khan Khurd,Federal Capial &AJK,34.1,73.4806
22420,Mulya,Federal Capial &AJK,25.4953,65.7289
22421,Sangal,Federal Capial &AJK,25.4953,65.7289
22500,Havelian,NWFP Peshawar,34.05,73.1667
22501,Takiya Sheikhan,NWFP Peshawar,33.9057,73.408
22510,Pak Ordinance Factory Havelian,NWFP Peshawar,34.0249,72.5374
22511,Chamba,NWFP Peshawar,34.0333,73.1
22520,Ammunition Depot Havelian,NWFP Peshawar,33.9843,73.1773
22530,Rajoya,NWFP Peshawar,33.9843,73.1773
22531,Ghora Baz Gran,NWFP Peshawar,33.9843,73.1773
22550,Nara,NWFP Peshawar,34.3681,72.91
22551,Sajji Kot,NWFP Peshawar,34.0278,73.2722
22560,Maira Bala,NWFP Peshawar,33.9843,73.1773
22570,Satura,NWFP Peshawar,33.8839,72.945
22571,Dakhan,NWFP Peshawar,33.8839,72.945
22580,Halli,NWFP Peshawar,34.1,73.0833
22581,Kohmal,NWFP Peshawar,34.1833,73.0667
22584,Baldher,NWFP Peshawar,34.0167,73.1
22585,Bagra,NWFP Peshawar,33.3775,72.7928
22590,Sarai Saleh,NWFP Peshawar,33.9872,72.9847
22591,Govt.Poly Tech.Instt.,NWFP Peshawar,33.9872,72.9847
22600,Rehana,NWFP Peshawar,33.8083,73.025
22601,Nurdi,NWFP Peshawar,33.8083,73.025
22620,Haripur City Nd,NWFP Peshawar,33.1227,71.9342
22621,Bandi Munim,NWFP Peshawar,33.8661,72.9308
22630,Haripur Telephone Factory,NWFP Peshawar,27.35,67.7
22631,Mirpur,NWFP Peshawar,27.35,67.7
22640,Haripur Central Jail,NWFP Peshawar,33.062,72.2413
22650,Khanpur (Hazara),NWFP Peshawar,33.7742,72.8808
22651,Najaf Pur,NWFP Peshawar,33.7742,72.8808
22660,Kot Najibullah,NWFP Peshawar,33.935,72.8547
22661,New Pind Khan Khel,NWFP Peshawar,33.9231,72.8115
22670,Farooqia,Norhern Punajb Rawalpindi,32.6389,74.3611
22671,Hattar,Norhern Punajb Rawalpindi,32.6389,74.3611
22680,Kangra Township,NWFP Peshawar,33.062,72.2413
22690,Panian,NWFP Peshawar,33.9733,72.8508
22691,Bhera,NWFP Peshawar,32.4819,72.91
22700,Mankarai,NWFP Peshawar,34.1681,73.0715
22701,Pharhala,NWFP Peshawar,34.1681,73.0715
22710,Pind Hasham Khan,NWFP Peshawar,34.1681,73.0715
22711,Bayan Ahmed Ali Khan,NWFP Peshawar,34.1681,73.0715
22720,Sarai Niamat Khan,NWFP Peshawar,34.0833,73.0333
22721,Baram Gali,NWFP Peshawar,34.1167,73.0833
22750,Kakotri,NWFP Peshawar,34.1167,73.0167
22751,Bir,NWFP Peshawar,34.1625,72.9556
22760,Jarral,NWFP Peshawar,34.15,73.05
22761,Jabbi,NWFP Peshawar,33.6597,72.5281
22780,Badhora,NWFP Peshawar,34.2921,73.2438
22781,Kund Kalu Khan,NWFP Peshawar,34.2921,73.2438
22800,Khalabat Township,NWFP Peshawar,34.0419,72.9272
22801,New Jagul,NWFP Peshawar,34.0419,72.9272
22810,Kalangar,NWFP Peshawar,33.6743,72.4088
22811,Jum,NWFP Peshawar,33.6743,72.4088
22830,Gudwalian,NWFP Peshawar,33.6743,72.4088
22831,Nara,NWFP Peshawar,34.3625,73.7278
22840,Sirikot,NWFP Peshawar,34.0433,72.7725
22841,Galai,NWFP Peshawar,34.0497,72.7844
22850,Tarbela Dam Colony,NWFP Peshawar,33.6743,72.4088
22860,Ghazi,NWFP Peshawar,32.2389,70.5922
22861,Salam Khand,NWFP Peshawar,32.8447,71.7531
23000,Thana,NWFP Peshawar,28.9167,63.75
23001,Gunyar,NWFP Peshawar,28.9167,63.75
23010,Dheri Alla Dhand,NWFP Peshawar,33.6883,70.9175
23020,Batkhela G.P.O.,NWFP Peshawar,32.8969,70.5831
23021,Inzargai,NWFP Peshawar,34.9672,71.7958
23030,Totakan Edso,NWFP Peshawar,33.6883,70.9175
23050,Malakand,NWFP Peshawar,34.5656,71.9311
23051,Jabban,NWFP Peshawar,34.4713,71.7915
23060,Dargai,NWFP Peshawar,30.3972,69.275
23061,Kharkai,NWFP Peshawar,34.8011,71.6697
23080,Sakhakot,NWFP Peshawar,34.4608,71.9022
23081,Bahram Khan Killi,NWFP Peshawar,34.24,72.0019
23090,Baizu Kharki,NWFP Peshawar,33.6883,70.9175
23100,Sher Garh,NWFP Peshawar,34.1986,71.9422
23101,Qutab Garh,NWFP Peshawar,34.1986,71.9422
23120,Hathian,NWFP Peshawar,34.4014,73.0472
23121,Dar Giwal,NWFP Peshawar,34.4778,72.9253
23130,Lund Khawar,NWFP Peshawar,34.2209,71.9815
23131,Gulmaira,NWFP Peshawar,34.4244,73.3983
23150,Jalala,NWFP Peshawar,34.3347,71.9033
23151,Tordher,NWFP Peshawar,33.9911,72.2867
23160,Takht Bhai,NWFP Peshawar,34.2819,71.9283
23161,Garo Shah,NWFP Peshawar,34.3578,71.7103
23170,Gujar Garhi,NWFP Peshawar,34.2297,72.0153
23200,Mardan G.P.O.,NWFP Peshawar,33.9254,71.8046
23201,Fatima,NWFP Peshawar,34.2642,72.0758
23210,Mardan Sugar Crops,NWFP Peshawar,33.9502,71.6521
23220,Bakhshali,NWFP Peshawar,34.2819,72.1478
23221,Fobisns Ffs,NWFP Peshawar,34.6614,72.1408
23230,Jamal Garhi,NWFP Peshawar,34.315,72.0675
23240,Katlang,NWFP Peshawar,34.3606,72.0803
23241,Kaka Abad,NWFP Peshawar,34.5499,71.7242
23250,Babu Zai,NWFP Peshawar,30.2411,66.8247
23251,Sangao,NWFP Peshawar,34.4642,72.1733
23260,Kohi Barmol,NWFP Peshawar,34.4878,72.1156
23261,Mura Banda,NWFP Peshawar,34.3749,72.3029
23270,Plai,NWFP Peshawar,33.9502,71.6521
23290,Mayar,NWFP Peshawar,34.1633,72.0839
23300,Toru,NWFP Peshawar,30.6,72.05
23301,Hashamabad,NWFP Peshawar,34.0539,71.8043
23310,Garhi Kapura,NWFP Peshawar,34.1975,72.1639
23311,Giddar Pur,NWFP Peshawar,34.4329,72.3221
23330,Dobian,NWFP Peshawar,34.2564,71.9957
23331,Bazargai,NWFP Peshawar,34.4672,71.5139
23340,Agai,NWFP Peshawar,29.5896,70.8583
23341,Sikandri,NWFP Peshawar,31.9694,72.3681
23350,Gujrat,NWFP Peshawar,32.5667,74.0833
23370,Rustam,NWFP Peshawar,27.9667,68.8
23371,Surkh Dheri,NWFP Peshawar,34.2167,72.2083
23390,Shah Baz Garhi,NWFP Peshawar,34.2644,72.1978
23391,Hussai,NWFP Peshawar,34.2644,72.1978
23400,Ismaila,NWFP Peshawar,34.2206,72.2417
23410,Kalu Khan,NWFP Peshawar,28.0597,67.8208
23420,Nawan Killi,NWFP Peshawar,34.2239,72.3498
23421,Chak Naudeh,NWFP Peshawar,34.2239,72.3498
23430,Sawabi G.P.O.,NWFP Peshawar,34.1013,72.3465
23431,Saleem Khan,NWFP Peshawar,33.9619,72.4786
23440,Bamkhel,NWFP Peshawar,33.4219,72.0183
23450,Maini,NWFP Peshawar,34.1167,72.6081
23451,Qasimabad,NWFP Peshawar,31.9206,70.4667
23460,Topi,NWFP Peshawar,34.0689,72.6244
23461,Pehur Hamlet,NWFP Peshawar,33.4219,72.0183
23470,Right Bank (Tarbella),NWFP Peshawar,33.4219,72.0183
23480,Gandaf,NWFP Peshawar,34.1186,72.6897
23481,Besak,NWFP Peshawar,34.1186,72.6897
23490,Deval,NWFP Peshawar,32.3817,71.7103
23491,Chanai,NWFP Peshawar,34.8214,72.6908
23500,Kotha,NWFP Peshawar,32.8,73.8167
23501,College Campus Kotha,NWFP Peshawar,34.0301,72.4172
23510,Zarobi,NWFP Peshawar,34.0308,72.5647
23520,Kalabat,NWFP Peshawar,34.0742,72.55
23530,Marghuz,NWFP Peshawar,34.0301,72.4172
23540,Zaida,NWFP Peshawar,34.0603,72.4678
23550,Garmanara,NWFP Peshawar,34.0301,72.4172
23560,Khunda,NWFP Peshawar,33.4633,72.3947
23561,Ambar,NWFP Peshawar,34.0481,72.4167
23570,Lahor Chhota,NWFP Peshawar,34.0367,72.3975
23571,Sheikh Dheri,NWFP Peshawar,34.0367,72.3975
23580,Jalsai,NWFP Peshawar,34.0472,72.3311
23590,Manki,NWFP Peshawar,34.0086,72.3286
23591,Beka,NWFP Peshawar,33.9936,72.3475
23600,Jalbai,NWFP Peshawar,34.0142,72.2681
23610,Tordher,NWFP Peshawar,33.9911,72.2867
23611,Tano,NWFP Peshawar,33.9967,72.3217
23620,Jehan Gira,NWFP Peshawar,33.0416,70.779
24000,Khair Abad,NWFP Peshawar,33.8349,72.1071
24001,Inzari,NWFP Peshawar,33.85,72.1281
24010,Nizam Pur,NWFP Peshawar,32.345,72.9332
24011,Garo,NWFP Peshawar,34.39,72.3872
24020,Allah Bakhash Colony,NWFP Peshawar,33.9818,72.1968
24021,Nandrak,NWFP Peshawar,34.0133,72.1792
24030,Shaidu,NWFP Peshawar,33.9772,72.1817
24031,Mian Isa,NWFP Peshawar,33.9936,72.1933
24040,Akora Khattak,NWFP Peshawar,34.0036,72.1261
24041,Mali Khel,NWFP Peshawar,32.8322,70.4947
24050,Pir Sabaq,NWFP Peshawar,33.6747,71.9975
24080,Risal Pur,NWFP Peshawar,34.2873,71.8271
24081,Bara Banda,NWFP Peshawar,34.0842,72.0289
24100,Nowshera G.P.O.,NWFP Peshawar,33.8106,71.1907
24101,Khesari,NWFP Peshawar,31.6653,70.0522
24110,Nowshera City,NWFP Peshawar,33.8828,71.5928
24111,Khesh Ki Payan,NWFP Peshawar,33.8828,71.5928
24130,Ziarat Kaka Sahib,NWFP Peshawar,33.9258,72.0411
24131,Walai,NWFP Peshawar,33.9556,72.06
24140,Manki Sharif,NWFP Peshawar,33.8828,71.5928
24150,Colony Sarhad Textile Mills,NWFP Peshawar,33.8828,71.5928
24160,Feroz Sons Nowshera,NWFP Peshawar,33.8828,71.5928
24170,Adamjee Paper Board Mills,NWFP Peshawar,33.8828,71.5928
24180,Pirpai,NWFP Peshawar,33.9833,71.8833
24181,Aza Khel Payan,NWFP Peshawar,33.9833,71.8833
24190,Azakhel,NWFP Peshawar,33.8828,71.5928
24200,Dagai Banda,NWFP Peshawar,34.1459,71.7973
24210,Pabbi,NWFP Peshawar,34.0106,71.7989
24211,Peshongri,NWFP Peshawar,34.0106,71.7989
24220,Pabbi Railway Station,NWFP Peshawar,34.4631,71.7567
24221,Aman Kot,NWFP Peshawar,34.655,71.61
24240,Jallozai,NWFP Peshawar,33.9167,71.8167
24241,Spin Kani Kalan,NWFP Peshawar,33.9167,71.8167
24250,Spin Khak,NWFP Peshawar,33.8667,71.7667
24251,Chandan Ghari,NWFP Peshawar,33.8667,71.7667
24260,Dak Ismail Khel,NWFP Peshawar,34.1459,71.7973
24261,Chapari,NWFP Peshawar,34.1459,71.7973
24270,Saleh Khana,NWFP Peshawar,33.85,71.8833
24271,Bakhtai,NWFP Peshawar,33.85,71.8833
24280,Cherat,NWFP Peshawar,33.8167,71.8833
24300,Urmar Payan,NWFP Peshawar,33.9667,71.7333
24301,Urmar Maina,NWFP Peshawar,33.95,71.6833
24310,Tarujabba,NWFP Peshawar,30.7817,69.6842
24311,Tarkha,NWFP Peshawar,33.5856,70.7378
24320,Akbar Pura,NWFP Peshawar,32.37,70.6962
24321,Budni,NWFP Peshawar,34.0508,71.6903
24330,Tarnab Farm,NWFP Peshawar,32.37,70.6962
24331,Lala,NWFP Peshawar,32.25,74.8
24360,Musa Zai,NWFP Peshawar,32.37,70.6962
24400,Daud Zai,NWFP Peshawar,32.6851,69.9264
24401,Naguman,NWFP Peshawar,29.7833,66.6833
24420,Charsadda G.P.O.,NWFP Peshawar,34.1158,71.6922
24421,Agra Miana,NWFP Peshawar,34.1158,71.6922
24430,Charsadda Town (Nd),NWFP Peshawar,33.7983,71.372
24450,Nisatta,NWFP Peshawar,34.1011,71.7964
24451,Hindu Kalli,NWFP Peshawar,34.1338,71.7921
24460,Sardheri Bazar,NWFP Peshawar,33.9706,71.611
24461,Palosa,NWFP Peshawar,34.1369,71.8339
24480,Rajjar Edso (Nd),NWFP Peshawar,33.7983,71.372
24490,Taurangzai,NWFP Peshawar,33.7983,71.372
24500,Utmanzai,NWFP Peshawar,34.1858,71.7633
24501,Rasoolabad,NWFP Peshawar,34.1858,71.7633
24510,Umarzai,NWFP Peshawar,30.6358,67.3575
24511,Zarbab Ghari,NWFP Peshawar,28.7153,68.4954
24520,Harichand,NWFP Peshawar,31.7276,69.9476
24530,Sherpao,NWFP Peshawar,34.2619,71.6978
24531,Amirabad Puli,NWFP Peshawar,34.2619,71.6978
24540,Tangi,NWFP Peshawar,34.3006,71.6536
24541,Merajanoki,NWFP Peshawar,34.2906,71.6228
24601,Kot,NWFP Peshawar,34.3778,73.4283
24620,Kangra,NWFP Peshawar,32.9278,74.1722
24630,Shabqadar Fort,NWFP Peshawar,34.2153,71.5553
24631,Sariekh,NWFP Peshawar,33.7225,71.245
24640,Matta Mughal Khel,NWFP Peshawar,34.2828,71.5692
24641,Hassanzai,NWFP Peshawar,34.2858,71.5839
24650,Ghalani,NWFP Peshawar,33.9923,71.5593
24651,H.Yarjan Kalli,NWFP Peshawar,33.9923,71.5593
24680,Warsak Colony,NWFP Peshawar,34.1547,71.4492
24681,Garhi Sher Dad,NWFP Peshawar,34.1547,71.4492
24700,Nasir Bagh,NWFP Peshawar,30.9553,66.8217
24701,Badi Zai,NWFP Peshawar,32.894,70.0657
24710,Regi Village Edso,NWFP Peshawar,33.1856,70.2384
24730,Jamrud,NWFP Peshawar,34.0028,71.3806
24731,Khan Kalay,NWFP Peshawar,34.0175,71.2669
24740,Landi Kotal,NWFP Peshawar,34.1017,71.1467
24741,Loi Shalman,NWFP Peshawar,34.1017,71.1467
24800,Bara Fort,NWFP Peshawar,28.95,71.6333
24801,Mushtar Zai,NWFP Peshawar,32.7504,71.8683
24810,Mashoo Khel,NWFP Peshawar,33.074,71.8023
24820,Peshawar Airport,NWFP Peshawar,33.074,71.8023
24830,P.A.F. Camp Badhber,NWFP Peshawar,33.074,71.8023
24831,Surizai Payan,NWFP Peshawar,33.074,71.8023
24840,Badbher,NWFP Peshawar,33.9167,71.5667
24841,Zangali,NWFP Peshawar,33.9333,71.5167
24850,Mathani,NWFP Peshawar,34.1256,72.1129
24851,Kala Khel,NWFP Peshawar,34.4178,72.6258
24860,Sherikira,NWFP Peshawar,33.396,71.7811
24861,Kohi,NWFP Peshawar,33.1361,71.2131
25000,Lady Reading Hospital,NWFP Peshawar,33.885,71.875
25001,Budhni,NWFP Peshawar,34.0508,71.6903
25100,Industrial Estate,NWFP Peshawar,33.6754,71.1752
25111,Regilalma Town Ship,NWFP Peshawar,33.6754,71.1752
25120,B.I.& S.E. Peshawar,NWFP Peshawar,34.0358,71.4889
25121,Palosai Atozai,NWFP Peshawar,34.0358,71.4889
25140,Tekhal Bala,NWFP Peshawar,33.6754,71.1752
25150,Tehkal Payan,NWFP Peshawar,34.0125,71.5228
25160,C.T.Training School,NWFP Peshawar,33.6754,71.1752
25170,Sakhi Chashma,NWFP Peshawar,33.6754,71.1752
25171,Shagai Hindyan,NWFP Peshawar,33.6754,71.1752
25180,Afghan Colony,NWFP Peshawar,32.9778,70.5139
25190,Shaheen Town,NWFP Peshawar,33.6754,71.1752
25210,"Govt. College Of Tech, Peshawar",NWFP Peshawar,33.8326,71.7
25220,Landi Arbab,NWFP Peshawar,33.8326,71.7
26000,Kohat G.P.O.,NWFP Peshawar,33.6156,71.7403
26001,Chorlaki,NWFP Peshawar,33.6,71.9333
26020,Police Recruit Training Centre,NWFP Peshawar,33.6181,71.9298
26030,Cadet College Kohat S.O,NWFP Peshawar,33.6181,71.9298
26050,Gunner Line S.O,NWFP Peshawar,33.6333,73.0667
26054,Satellite Town,NWFP Peshawar,33.6333,73.0667
26070,J.D.M.T.Mills,NWFP Peshawar,33.6181,71.9298
26080,P.A.F.,NWFP Peshawar,33.6181,71.9298
26090,Officers Training  School Kohat,NWFP Peshawar,33.6181,71.9298
26100,Dara Adam Khel S.O,NWFP Peshawar,32.1018,68.9607
26101,Akhorwal B.O,NWFP Peshawar,32.1018,68.9607
26110,Billi Tang S.O,NWFP Peshawar,32.1018,68.9607
26111,Kharmatoo .B.O,NWFP Peshawar,32.1018,68.9607
26120,Eni Gumbat,NWFP Peshawar,32.1018,68.9607
26121,Ghurizai Payan,NWFP Peshawar,32.1018,68.9607
26160,Nasrat Khel,NWFP Peshawar,33.5964,71.3375
26170,Uster Zai Payan,NWFP Peshawar,32.1018,68.9607
26171,Usterzai Bala,NWFP Peshawar,32.1018,68.9607
26180,P.T.S.Hangu,NWFP Peshawar,32.1018,68.9607
26190,Hangu S.O,NWFP Peshawar,30.6072,66.5839
26191,Gulistan,NWFP Peshawar,30.6072,66.5839
26194,Fort Lakhart (E.D.S.O.),NWFP Peshawar,30.6072,66.5839
26200,Togh Sarai,NWFP Peshawar,33.5781,70.6201
26210,Zargeri(E.D.S.O.),NWFP Peshawar,33.5781,70.6201
26220,Kahi,NWFP Peshawar,33.8197,72.0861
26221,Ghiljo,NWFP Peshawar,34.6861,71.2742
26230,Naryab,NWFP Peshawar,33.4839,70.7814
26240,Doaba S.O,NWFP Peshawar,33.3668,70.7243
26241,Darsamand,NWFP Peshawar,33.4372,70.6611
26250,Sarozai,NWFP Peshawar,33.4244,70.785
26260,Thull Fort,NWFP Peshawar,33.5781,70.6201
26270,Thull City,NWFP Peshawar,33.3581,70.6464
26271,Dallan,NWFP Peshawar,33.3581,70.6464
26280,Alizai,NWFP Peshawar,33.5358,70.3442
26281,Baggan,NWFP Peshawar,33.4953,70.3797
26290,Sadda,NWFP Peshawar,33.7058,70.3283
26291,Muzaffar Kot,NWFP Peshawar,33.7058,70.3283
26300,Parachinar G.P.O.,NWFP Peshawar,33.6244,71.3844
26301,Samir,NWFP Peshawar,34.9792,72.5103
26340,Shaikhan Ammunition Depot,NWFP Peshawar,33.5089,71.4151
26350,Surgul,NWFP Peshawar,33.5094,71.3842
26351,Kamar Dhand,NWFP Peshawar,34.295,72.4144
26360,Lachi,NWFP Peshawar,33.3833,71.3333
26361,Manduri,NWFP Peshawar,33.2831,71.2981
26380,Shakar Dara,NWFP Peshawar,33.7761,72.3242
26381,Boori Saghri,NWFP Peshawar,33.5089,71.4151
26390,Ter,NWFP Peshawar,33.5089,71.4151
26391,Kundi,NWFP Peshawar,28.7,68.3167
26400,Banda Daud Shah S.O,NWFP Peshawar,33.1825,71.1628
26401,Shakar Khel B.O,NWFP Peshawar,33.1825,71.1628
26410,Dagar Nari,NWFP Peshawar,33.1825,71.1628
26411,Nari Panos,NWFP Peshawar,33.1825,71.1628
27000,Sabir Abad,NWFP Peshawar,33.1333,71.3167
27001,Badin Khel,NWFP Peshawar,33.1333,71.3167
27100,Mitha Khel,NWFP Peshawar,33.0161,70.9033
27101,Tarkhakhol,NWFP Peshawar,33.0728,71.2392
27200,Karak G.P.O.,NWFP Peshawar,33.3105,71.0835
27201,Toor Dhand,NWFP Peshawar,33.3105,71.0835
27300,Chokara,NWFP Peshawar,33.01,71.0294
27301,Bogara,NWFP Peshawar,33.01,71.0294
27400,Thatti Nasrati,NWFP Peshawar,33.0069,71.0822
27401,Shah Danbanda,NWFP Peshawar,33.0069,71.0822
27500,Inzar Banda,NWFP Peshawar,34.4771,71.1586
27501,Shah Salim,NWFP Peshawar,36.0833,71.3333
27600,Land Kamar,NWFP Peshawar,33.0344,70.9919
27601,Zara Gandi,NWFP Peshawar,33.0558,70.9278
27800,Latamber,NWFP Peshawar,33.2806,70.5353
27801,Warana,NWFP Peshawar,33.2806,70.5353
27900,Dab Begu Khel,NWFP Peshawar,33.1575,71.2473
27901,Sarat Khel,NWFP Peshawar,33.14,71.2489
28010,Domel,NWFP Peshawar,33.5386,72.1939
28011,Zarki Khoragai,NWFP Peshawar,33.5386,72.1939
28020,Khadar Khan Khel,NWFP Peshawar,32.9308,70.9311
28021,Kotka Abdullah Jan,NWFP Peshawar,32.9308,70.9311
28030,Nizam Bazar,NWFP Peshawar,33.0072,70.6406
28031,Pak Ismail Khel,NWFP Peshawar,33.0256,70.6517
28040,Torka,NWFP Peshawar,30.8736,67.1583
28041,Mandozai,NWFP Peshawar,30.8736,67.1583
28100,Bannu G.P.O,NWFP Peshawar,32.8177,70.6877
28101,Jhandu Khel,NWFP Peshawar,32.9519,70.7133
28110,Bazar Ahmad Khan,NWFP Peshawar,32.9833,70.6328
28111,Hassan Khel Isaki,NWFP Peshawar,32.9833,70.6328
28120,Shahbaz Azmat Khel,NWFP Peshawar,32.9575,70.6742
28130,Masti Khel,NWFP Peshawar,32.605,70.5242
28140,Mamesh Khel,NWFP Peshawar,32.6421,70.537
28141,Surangi Adda,NWFP Peshawar,32.6421,70.537
28150,Pipal Bazar,NWFP Peshawar,33.0322,70.5353
28151,Kurram Garhi,NWFP Peshawar,33.0322,70.5353
28170,Mir Ali,NWFP Peshawar,30.9753,67.8708
28180,Mir Ali Adda,NWFP Peshawar,33.1797,70.39
28181,Spinwam,NWFP Peshawar,33.1797,70.39
28190,Miran Shah,NWFP Peshawar,30.85,72.9
28191,Dosali,NWFP Peshawar,32.9835,70.1254
28200,Data Khel,NWFP Peshawar,32.8251,69.8761
28210,Boya,NWFP Peshawar,32.9608,69.9181
28211,Land Muhammad Khel,NWFP Peshawar,32.9608,69.9181
28250,Distt. Court  Post  Office L/Marwat,NWFP Peshawar,32.8251,69.8761
28260,Cadet College Razmak,NWFP Peshawar,32.8251,69.8761
28270,Razmak,NWFP Peshawar,32.6894,69.8342
28271,Habib Noor Kot,NWFP Peshawar,32.6894,69.8342
28300,Adda Mir Abbas,NWFP Peshawar,32.5362,70.8574
28301,Kotka Gul Khan,NWFP Peshawar,32.5362,70.8574
28310,Bharat,NWFP Peshawar,32.8906,70.6369
28311,Khojari Khas,NWFP Peshawar,32.8906,70.6369
28320,Kakki,NWFP Peshawar,30.3667,72.3
28321,Multani Landi Dak,NWFP Peshawar,30.3667,72.3
28330,Ghori Wala,NWFP Peshawar,32.891,70.741
28331,Nar Jafar Khan,NWFP Peshawar,32.8592,70.7353
28340,Nar Muzaffar Khan,NWFP Peshawar,32.5362,70.8574
28350,Sarai Naurang,NWFP Peshawar,32.8261,70.7819
28351,Takht Khel,NWFP Peshawar,32.8342,70.7144
28360,Taja Zai,NWFP Peshawar,32.5362,70.8574
28370,Sarai Gambila,NWFP Peshawar,32.6928,70.7828
28371,Kotka Gidar,NWFP Peshawar,32.7058,70.7556
28380,Tajori,NWFP Peshawar,32.3108,70.4969
28410,Lande Wah,NWFP Peshawar,32.7914,71.0558
28411,Abbasa,NWFP Peshawar,32.7914,71.0558
28420,Lakki Marwat,NWFP Peshawar,32.6075,70.9125
28421,Mela Shab Khel,NWFP Peshawar,32.5036,70.919
28430,Begu Khel,NWFP Peshawar,32.5303,70.9583
28440,Abba Khel,NWFP Peshawar,32.5661,70.8289
28441,Mela Mandra Khel,NWFP Peshawar,32.5133,70.8617
28450,Ghazni Khel,NWFP Peshawar,32.5583,70.7406
28451,Khawaja Khel  Edbo,NWFP Peshawar,32.5583,70.7406
28460,Kheru Khel Pacca,NWFP Peshawar,32.5581,70.9034
28470,Dara Pezu,NWFP Peshawar,32.5581,70.9034
28471,Wanda Kali,NWFP Peshawar,32.5581,70.9034
29000,Paniala,NWFP Peshawar,32.2439,70.8817
29001,Yasin Zai,NWFP Peshawar,32.2439,70.8817
29010,Wanda Khan Mohd,NWFP Peshawar,31.4489,70.7867
29011,Wanda Gandir,NWFP Peshawar,31.4489,70.7867
29020,Yarik,NWFP Peshawar,32.1036,70.7889
29050,Dera Ismail Khan N.P.O.,NWFP Peshawar,24.3167,69.15
29051,Saggu,NWFP Peshawar,31.9614,70.8467
29070,Saeedabad,NWFP Peshawar,34.1383,71.6069
29080,Muryali,NWFP Peshawar,31.4489,70.7867
29084,Haji Mora,NWFP Peshawar,31.4489,70.7867
29090,Polytechnical Institute,NWFP Peshawar,31.4489,70.7867
29100,Din Pur,NWFP Peshawar,32.5833,74.1167
29110,Tribal Textile Mills,NWFP Peshawar,30.9949,72.1094
29111,Zafar Abad Colony,NWFP Peshawar,30.9949,72.1094
29120,Agricultural Research Station,NWFP Peshawar,30.9949,72.1094
29130,Kachi Paind Khan,NWFP Peshawar,30.9949,72.1094
29140,Saddar  Bazar,NWFP Peshawar,30.7833,74.2667
29160,Paharpur,NWFP Peshawar,29.9458,70.9
29161,Bagwani Shumali,NWFP Peshawar,29.9458,70.9
29170,Bilot,NWFP Peshawar,32.2556,71.1614
29180,Kiri Khaisor,NWFP Peshawar,30.9949,72.1094
29190,Wapda C.R.B.C.Staff Colony,NWFP Peshawar,30.9949,72.1094
29200,Mandhara,NWFP Peshawar,31.4599,71.2334
29201,Jabbar Wala,NWFP Peshawar,31.4599,71.2334
29210,Kot Jai,NWFP Peshawar,32.1667,71.1
29211,Rajan Pur,NWFP Peshawar,32.2648,72.3213
29220,Gomal University New Campus,NWFP Peshawar,30.3417,69.2389
29221,Fateh,NWFP Peshawar,30.3417,69.2389
29230,Paroa,NWFP Peshawar,31.5569,70.7589
29231,Aminabad,NWFP Peshawar,28.9389,70.8042
29250,Kohi Bahara,NWFP Peshawar,31.4599,71.2334
29310,Daraban,NWFP Peshawar,32.1975,70.7108
29311,Gandi Isab Khan,NWFP Peshawar,31.7328,70.4769
29320,Ramak S.O.,NWFP Peshawar,32.0145,70.5407
29321,Kiri Shawozai,NWFP Peshawar,32.0145,70.5407
29330,Choudhwan,NWFP Peshawar,32.0145,70.5407
29340,Darazinda,NWFP Peshawar,31.6017,70.0956
29341,Raghasar,NWFP Peshawar,31.6142,70.0564
29350,Kulachi,NWFP Peshawar,31.9286,70.4592
29351,Loono,NWFP Peshawar,31.8814,70.5753
29360,Rohri,NWFP Peshawar,27.6833,68.9
29380,Takwara,NWFP Peshawar,32.1442,70.6272
29400,Tank G.P.O,NWFP Peshawar,32.0935,70.1031
29401,Dabara,NWFP Peshawar,33.2144,70.8578
29410,Gomal Bazar,NWFP Peshawar,32.1749,70.1081
29420,Gul Imam,NWFP Peshawar,32.2589,70.5317
29421,Tijori,NWFP Peshawar,32.2589,70.5317
29430,Pai,NWFP Peshawar,32.3556,70.5564
29440,Mullazai,NWFP Peshawar,32.4119,70.4653
29441,Ping,NWFP Peshawar,33.1186,70.1411
29460,Manzai,NWFP Peshawar,32.2522,70.2453
29461,Shooza,NWFP Peshawar,32.4,70.25
29470,Jandola,NWFP Peshawar,32.3353,70.1192
29471,Alam Abad,NWFP Peshawar,32.3353,70.1192
29480,Sararogha,NWFP Peshawar,32.1749,70.1081
29490,Ladha,NWFP Peshawar,32.575,73.9306
29491,Momi Karama,NWFP Peshawar,32.5044,69.8378
29500,Siplatoi,NWFP Peshawar,32.4898,71.1235
29510,Sarwakai,NWFP Peshawar,30.8361,69.0972
29511,Nano,NWFP Peshawar,30.8361,69.0972
29520,Tanai,NWFP Peshawar,32.2094,69.6783
29530,Tiarza,NWFP Peshawar,32.3853,69.6739
29531,Shakai,NWFP Peshawar,32.3853,69.6739
29540,Wana,NWFP Peshawar,32.6583,74.1181
29541,Azam Warsak,NWFP Peshawar,34.3597,73.05
30000,Bhakkar City Nt,Norhern Punajb Rawalpindi,32.5039,72.1288
30001,Islamabad,Norhern Punajb Rawalpindi,32.2464,72.9242
30040,Behal,Norhern Punajb Rawalpindi,31.4167,71.0167
30041,Dhandla (Basti Bakhtawar),Norhern Punajb Rawalpindi,31.4833,71.0333
30050,Chak 47/T.D.A.,Norhern Punajb Rawalpindi,32.0143,71.7885
30051,Chak 63 T.D.A.,Norhern Punajb Rawalpindi,32.0143,71.7885
30052,Chak 67 Ml,Norhern Punajb Rawalpindi,32.0143,71.7885
30053,Chak 62-64 Ml,Norhern Punajb Rawalpindi,32.0143,71.7885
30060,Mankera,Norhern Punajb Rawalpindi,31.3833,71.4333
30061,Kisanwala,Norhern Punajb Rawalpindi,31.425,71.7083
30100,Darya Khan R.S.,Norhern Punajb Rawalpindi,29.9201,69.6062
30101,Kotla Jam,Norhern Punajb Rawalpindi,31.7,71.0833
30110,Dullewala,Norhern Punajb Rawalpindi,31.8333,71.4333
30111,Joyian Wala,Norhern Punajb Rawalpindi,31.7944,71.6278
30130,Tibbanainan Wala,Norhern Punajb Rawalpindi,31.794,70.9336
30131,Chiragh Kal Wal,Norhern Punajb Rawalpindi,31.794,70.9336
30140,Kallur Kot,Norhern Punajb Rawalpindi,32.1564,71.2594
30141,Daily Namdar,Norhern Punajb Rawalpindi,32.5394,71.3524
30150,Jandan Wala,Norhern Punajb Rawalpindi,30.6667,68.8611
30151,Shahidan,Norhern Punajb Rawalpindi,30.6667,68.8611
31000,Chak 90/Ml,Souhern Punajb Mulan,31.3006,71.8045
31001,Chak 93 Ml,Souhern Punajb Mulan,31.3006,71.8045
31050,Fateh Pur,Souhern Punajb Mulan,31.3006,71.8045
31051,Chak 239 Tda,Souhern Punajb Mulan,31.3006,71.8045
31100,Karor,Souhern Punajb Mulan,31.2167,70.95
31101,Tibbi Khurd,Souhern Punajb Mulan,31.2833,70.9667
31110,Karor N.P.O.,Souhern Punajb Mulan,31.4926,72.215
31150,Shah Pur,Souhern Punajb Mulan,31.4926,72.215
31151,Sanjh Isra,Souhern Punajb Mulan,31.4926,72.215
31200,Layyah G.P.O.,Souhern Punajb Mulan,31,70.95
31201,Kotla Haji Shah,Souhern Punajb Mulan,31,70.95
31250,Chak 270 Tda Edso,Souhern Punajb Mulan,31,70.95
31300,Layyah Sugar Mills,Souhern Punajb Mulan,30.8667,71.0833
31350,Ladhana,Souhern Punajb Mulan,30.8667,71.0833
31351,Chak 388 Tda,Souhern Punajb Mulan,30.8667,71.0833
31400,Chak 279 Tda,Souhern Punajb Mulan,31.3006,71.8045
31401,Mianwala Jadid,Souhern Punajb Mulan,31.3006,71.8045
31450,Chowk Azam,Souhern Punajb Mulan,31.3006,71.8045
31451,Chak 332 Tda,Souhern Punajb Mulan,31.3006,71.8045
31500,Choubara,Souhern Punajb Mulan,31.3006,71.8045
31501,Chak 479 Tda,Souhern Punajb Mulan,31.3006,71.8045
31600,Jaman Shah,Souhern Punajb Mulan,30.8833,70.9167
31601,Khokhar Wala,Souhern Punajb Mulan,30.8833,70.9167
31650,Kot Sultan,Souhern Punajb Mulan,32.1575,72.5189
31651,Bait Dabli,Souhern Punajb Mulan,30.8833,70.9167
32000,Latra,Souhern Punajb Mulan,29.8186,70.7336
32001,Haji Kamand,Souhern Punajb Mulan,29.8186,70.7336
32010,Vehoa,Souhern Punajb Mulan,31.1328,70.5128
32011,Mithi Wali,Souhern Punajb Mulan,30.1796,70.3844
32020,Nutkani,Souhern Punajb Mulan,31.1167,70.7
32021,Kath Garh,Souhern Punajb Mulan,33.3337,71.7018
32030,Tibbi Qaisrani,Souhern Punajb Mulan,31,70.6833
32031,Jindu Khan Mirani,Souhern Punajb Mulan,31.0222,70.6861
32040,Retra,Souhern Punajb Mulan,30.9333,70.7
32041,Jatwala,Souhern Punajb Mulan,30.8653,70.6806
32050,Nari,Souhern Punajb Mulan,29.6681,72.2903
32100,Taunsa Sharif,Souhern Punajb Mulan,30.6736,70.6813
32101,Bindi,Souhern Punajb Mulan,30.65,70.7167
32120,Mangrotha,Souhern Punajb Mulan,30.7167,70.5833
32121,Mundrani,Souhern Punajb Mulan,30.6833,70.55
32130,Kot Qaisrani,Souhern Punajb Mulan,30.8,70.55
32131,Fazla Katch,Souhern Punajb Mulan,30.7667,70.55
32140,Sokar,Souhern Punajb Mulan,30.65,70.6
32141,Bughlani,Souhern Punajb Mulan,30.6333,70.5833
32150,Shadan Lund,Souhern Punajb Mulan,30.4703,70.7292
32151,Ghuman,Souhern Punajb Mulan,30.45,70.7167
32160,Kala,Souhern Punajb Mulan,32.3111,74.3847
32200,Jalbani(Nd),Souhern Punajb Mulan,29.6618,70.1121
32201,Shah Sadar Din,Souhern Punajb Mulan,30.2789,70.7303
32250,D.G.Khan Cement Factory,Souhern Punajb Mulan,29.6618,70.1121
32260,Board O F Intermediate & Scnd.Education,Souhern Punajb Mulan,29.6618,70.1121
32300,Sakhi Sarwar,Souhern Punajb Mulan,29.9833,70.3
32320,Fort Munroo,Souhern Punajb Mulan,30.0997,70.6623
32321,Bawata,Souhern Punajb Mulan,30.0997,70.6623
32330,Ghausabad,Souhern Punajb Mulan,28.1,68.2833
32331,Ali Wala,Souhern Punajb Mulan,29.15,71.15
32350,Kot Chutta,Souhern Punajb Mulan,29.8869,70.6503
32351,Noor Wala,Souhern Punajb Mulan,29.8869,70.6503
32380,Choti,Souhern Punajb Mulan,29.85,70.4833
32381,Nawan Janubi,Souhern Punajb Mulan,30.3544,70.6732
32400,Mana,Souhern Punajb Mulan,30.4717,67.7106
32401,Notakmehmeed,Souhern Punajb Mulan,29.7804,70.6325
33000,Jam Pur,Souhern Punajb Mulan,29.6415,70.616
33001,Basti Rindan,Souhern Punajb Mulan,29.7,70.6333
33100,Bambli,Souhern Punajb Mulan,27.8167,69.3667
33101,Nowshera,Souhern Punajb Mulan,29.3653,70.2535
33200,Lal Garh,Souhern Punajb Mulan,29.2044,70.3304
33300,Muhammad Pur,Souhern Punajb Mulan,29.2044,70.3304
33400,Fazil Pur,Souhern Punajb Mulan,29.3014,70.5347
33401,Kotla Androon,Souhern Punajb Mulan,29.2833,70.5167
33500,Rajan Pur N.P.O.(Nd),Souhern Punajb Mulan,29.1833,70.3833
33501,Kotla Isan,Souhern Punajb Mulan,29.1833,70.3833
33600,Mithan Kot,Souhern Punajb Mulan,28.95,70.3667
33601,Kotla Hamal,Souhern Punajb Mulan,28.8167,70.0833
33700,Rojhan,Souhern Punajb Mulan,28.6833,69.95
33701,Badli Mazari,Souhern Punajb Mulan,29.2044,70.3304
34000,Ahsan Pur,Souhern Punajb Mulan,30.65,70.95
34010,Dera Din Panah,Souhern Punajb Mulan,30.56,70.9572
34011,Chak 514 Tda,Souhern Punajb Mulan,30.56,70.9572
34030,Chowk Sarwar Shaheed,Souhern Punajb Mulan,30.56,70.9572
34031,Chak 574 Tda,Souhern Punajb Mulan,30.56,70.9572
34050,Kot Adu,Souhern Punajb Mulan,30.47,70.9644
34051,Sheikh Umer,Souhern Punajb Mulan,30.47,70.9644
34080,Taunsa Barrage,Souhern Punajb Mulan,30.56,70.9572
34100,Sina Wan,Souhern Punajb Mulan,30.3069,70.9425
34101,Thatta Gurmani,Souhern Punajb Mulan,30.3028,70.9369
34110,Mehmood Kot R.S.,Souhern Punajb Mulan,30.2417,70.9417
34111,Ara Akbar Shah,Souhern Punajb Mulan,30.2417,70.9417
34120,Gujrat,Souhern Punajb Mulan,30.1658,70.9564
34121,Azadabad,Souhern Punajb Mulan,30.1658,70.9564
34200,Muzaffargarh G.P.O.,Souhern Punajb Mulan,30.4948,71.1924
34201,Gujja,Souhern Punajb Mulan,31.6239,70.9622
34300,Basira,Souhern Punajb Mulan,26.8333,68.5333
34301,Ayub Araian,Souhern Punajb Mulan,26.8333,68.5333
34310,Qureshi,Souhern Punajb Mulan,30.0725,70.9572
34311,Din Pur,Souhern Punajb Mulan,30.2083,70.9667
34320,Ghazi Ghat,Souhern Punajb Mulan,30.1006,70.8728
34321,Basti Waseem Almani,Souhern Punajb Mulan,30.1194,70.9139
34350,Khan Garh,Souhern Punajb Mulan,31.6372,70.7725
34351,Basti Choharh Pur,Souhern Punajb Mulan,31.1901,71.4412
34370,Shah Jamal,Souhern Punajb Mulan,29.6833,70.7
34371,Basti Mandorin,Souhern Punajb Mulan,29.9667,71.05
34400,Rohilan Wali,Souhern Punajb Mulan,29.6833,71.1
34401,Binda Ishaq,Souhern Punajb Mulan,29.6833,71.1
34410,Shehar Sultan,Souhern Punajb Mulan,29.6208,70.8375
34411,Ber Band,Souhern Punajb Mulan,29.6208,70.8375
34421,Jhuggi Wala,Souhern Punajb Mulan,29.1679,70.6886
34430,Jatoi,Souhern Punajb Mulan,24.6833,68.1833
34431,Kamdh Sharif,Souhern Punajb Mulan,24.6833,68.1833
34440,Bet Mir Hazar Khan,Souhern Punajb Mulan,29.6922,70.8067
34441,Utra Sandila,Souhern Punajb Mulan,29.698,70.866
34450,Ali Pur,Souhern Punajb Mulan,29.3889,70.9167
34451,Ghalwan,Souhern Punajb Mulan,29.3833,70.9333
34470,Khairpur Sadat,Souhern Punajb Mulan,29.3333,70.8
34471,Basti Bidani,Souhern Punajb Mulan,29.3035,70.7951
34480,Sit Pur,Souhern Punajb Mulan,29.1833,70.725
34481,Sarki,Souhern Punajb Mulan,29.15,70.7167
34500,Bhutta Pur,Souhern Punajb Mulan,29.7997,70.8231
34650,Rang Pur,Souhern Punajb Mulan,29.7997,70.8231
34651,Jarian Wala,Souhern Punajb Mulan,29.7997,70.8231
35010,Shor Kot Cantt,Lahore,30.8563,71.9854
35011,Chak 330 Jb Rahlon,Lahore,30.8563,71.9854
35020,P.A.F. Colony,Lahore,30.8563,71.9854
35021,Kalu Wala,Lahore,30.8563,71.9854
35030,P.A.F. Base Rafiqi,Lahore,30.8563,71.9854
35031,Cologian Wala Chak 36/694 Gb,Lahore,30.8563,71.9854
35050,Shor Kot City,Lahore,30.8722,72.0667
35051,Sadiq Nihang,Lahore,30.9333,72.1667
35060,Kaki Nao,Lahore,30.8563,71.9854
35080,Garh Maha Raja,Lahore,30.8403,71.9042
35081,Chak 5/3-L,Lahore,30.8403,71.9042
35090,Ahmad Pur Sial,Lahore,30.8563,71.9854
35091,Samando Ana,Lahore,30.8563,71.9854
35100,Waryam,Lahore,30.9667,72.25
35101,Chak No.489 Jb,Lahore,30.7708,71.7783
35150,Haveli Bahadur Shah,Lahore,31.0833,72.1833
35151,Chak 478/Jb,Lahore,31.0789,72.267
35160,Rudo Sultan,Lahore,29.0042,70.0882
35161,Kot Bahadur,Lahore,26.9083,68.1597
35170,Nawazish Naghar,Lahore,30.7708,71.7783
35180,Atharan Hazari,Lahore,31.1833,72.1
35181,Wasu Astana,Lahore,31.2,72.0833
35200,Jhang G.P.O.,Lahore,31.6958,72.7681
35201,Satiana,Lahore,31.4358,72.4917
35300,Dhill Bagh,Lahore,31.1978,72.3689
35301,Basti Ghazi Shah,Lahore,31.1978,72.3689
35350,Bhawana,Lahore,31.5661,72.6461
35351,Chak 198/Jb,Lahore,31.5661,72.6461
35360,Jamia Mohammadi Sharif,Lahore,30.85,73.075
35361,Adlana,Lahore,30.1167,73.4333
35400,Chiniot,Lahore,31.72,72.9789
35401,Chak 11/Jb,Lahore,31.7014,72.9958
35460,Rabwah,Lahore,31.7558,72.9197
35461,Brahmanan Wala,Lahore,31.7472,72.8158
35470,Lalian,Lahore,31.8225,72.7972
35471,Mohsin Abad,Lahore,31.7203,72.7161
35500,Chund Bharwana,Lahore,31.4169,72.2625
35501,Pubber Wala,Lahore,31.3639,72.1556
35550,Shah Jewana Mandi,Lahore,31.6513,72.3524
35551,Chatta,Lahore,31.6903,73.3583
36000,Chak 316 Gb Qadir Abad,Lahore,30.9167,72.55
36001,Chak 403 Jb,Lahore,30.9167,72.55
36050,Toba Take Singh  G.P.O.,Lahore,30.9167,72.55
36051,Bhagat,Lahore,30.9167,72.55
36070,Rajana Road,Lahore,30.9167,72.55
36071,Chak 287 Gb,Lahore,30.9167,72.55
36080,Chak 256 Gb.,Lahore,30.9167,72.55
36081,Chak 254 Gb.,Lahore,30.9167,72.55
36100,Jani Wala,Lahore,30.8024,72.6405
36101,Chak 381 Jb,Lahore,30.8024,72.6405
36120,Gojra,Lahore,31.15,72.6833
36121,Chak 370 Gb,Lahore,30.8024,72.6405
36150,Chak 159 Gb (Cpol-982),Lahore,30.8024,72.6405
36151,Chak 244 Gb.,Lahore,30.8024,72.6405
36160,Chak 424 Jb,Lahore,30.8024,72.6405
36161,Chak 356 Jb,Lahore,30.8024,72.6405
36200,Pacca Anna,Lahore,31.2333,72.8
36201,Chak 347 Jb,Lahore,31.2333,72.8
36250,Chak 348/Jb,Lahore,31.2333,72.8
36300,Pir Mahal,Lahore,30.7667,72.4333
36301,Chak 12/671 Gb,Lahore,30.7667,72.4333
36320,Sandhlian Wali,Lahore,30.6933,72.6267
36321,Chak 759 Gb,Lahore,30.6933,72.6267
36330,Chak 333 Gb,Lahore,30.6933,72.6267
36331,Chak 307 Gb,Lahore,30.6933,72.6267
36340,Chak 10/669 Gb,Lahore,30.6933,72.6267
36350,Kamalia,Lahore,30.7333,72.65
36351,Basti Piran,Lahore,30.7167,72.7167
36380,Suger Mills Kamalia,Lahore,30.6933,72.6267
36381,Chak 264 Gb,Lahore,30.6933,72.6267
36390,Jakhar,Lahore,30.65,72.6333
36391,Chak 741 Gb,Lahore,30.6,72.7
37000,Mamu Kanjan,Lahore,30.8333,72.8
37001,Chak 483 Gb,Lahore,30.8333,72.8
37020,Murid Wala,Lahore,30.8333,72.8
37021,Chak 248 Gb,Lahore,30.8333,72.8
37040,Chak 206 Gb,Lahore,30.8333,72.8
37050,Chak 207 G.B.,Lahore,30.8333,72.8
37051,Chak No.201 Gb,Lahore,30.8333,72.8
37060,Chak 482 G.B.(Jagranwan),Lahore,30.8333,72.8
37061,Chak 214 Gb,Lahore,30.8333,72.8
37100,Kanjwani,Lahore,30.9278,72.975
37101,Chak 485 Gb,Lahore,30.9278,72.975
37110,Garh,Lahore,33.6353,70.9497
37130,Chak No.447 Gb,Lahore,31.1019,69.4893
37134,Chanar Sugar Mills,Lahore,31.1019,69.4893
37135,Chak 607-Gb,Lahore,31.1019,69.4893
37150,Tandlian Wala,Lahore,28.7425,64.5431
37151,Kanian,Lahore,28.7425,64.5431
37200,Rorala Road,Lahore,31.3333,73.4333
37201,Chak 272 Gb,Lahore,31.3333,73.4333
37220,Chak 128 G.B.,Lahore,31.3333,73.4333
37221,Chak No.23 Gb,Lahore,31.3333,73.4333
37224,Chak 353 Gb,Lahore,31.3333,73.4333
37230,Chak 66 Gb,Lahore,31.3333,73.4333
37231,Chak 111-Gb,Lahore,31.3333,73.4333
37250,Jaranwala,Lahore,31.3333,73.4333
37251,Chak 97 Gb,Lahore,31.3333,73.4333
37280,Ganga Pur,Lahore,31.3333,73.4333
37281,Chak 644 Gb,Lahore,31.3333,73.4333
37300,Samundri,Lahore,30.1,71.475
37301,Chak 474 Gb,Lahore,30.1,71.475
37340,Chak 45 Gb,Lahore,30.1,71.475
37341,Chak 48 Gb,Lahore,30.1,71.475
37360,Chak 267 Rb,Lahore,30.1,71.475
37361,Chak 272 Rb,Lahore,30.1,71.475
37370,Dich Kot,Lahore,30.1,71.475
37371,Chak 269 Rb,Lahore,30.1,71.475
37400,Chak 253 Rb,Lahore,31.3167,73.0333
37401,Chak 251 Rb,Lahore,31.3167,73.0333
37420,Chak 248/Rb,Lahore,31.3167,73.0333
37421,Chak 86/Gb,Lahore,31.3167,73.0333
37430,Dasuha,Lahore,31.3167,73.0333
37431,Chak 231 Rb,Lahore,31.3167,73.0333
37450,Satiana Banglow,Lahore,31.3167,73.0333
37451,Chak 434 Gb Jhamra,Lahore,31.3167,73.0333
37460,Chak 167 Gb,Lahore,31.3167,73.0333
37500,Chak 232 G.B.,Lahore,31.1794,71.8537
37501,Chak 170 Gb,Lahore,31.1794,71.8537
37510,P.A.F.,Lahore,31.1794,71.8537
37520,Thikri Wala,Lahore,31.1794,71.8537
37521,Chak 71 Jb,Lahore,31.1794,71.8537
37600,Chak 117/J.B.,Lahore,31.1794,71.8537
37610,Chak 203 Rb,Lahore,31.1794,71.8537
37611,Chak 121 Jb,Lahore,31.1794,71.8537
37620,Chak No.199 Rb,Lahore,31.1794,71.8537
37621,Chak No.202 Rb,Lahore,31.1794,71.8537
37630,Khurrian Wala,Lahore,31.1794,71.8537
37631,Chak 91 Rb,Lahore,31.1794,71.8537
37660,Chak 103 Rb,Lahore,31.1794,71.8537
37661,Chak 95 Rb,Lahore,31.1794,71.8537
37690,Chak 189 R.B.(Rasulpur),Lahore,31.1794,71.8537
37691,Chak No.164 Rb,Lahore,31.1794,71.8537
37700,Chak Jhumra,Lahore,31.5667,73.1833
37701,Chak 116-Jb,Lahore,31.5667,73.1833
37720,Chak 103/Jb,Lahore,31.6819,73.0444
37721,Chak 111 Jb,Lahore,31.6819,73.0444
37730,Burj Mandi,Lahore,31.6569,73.1
37731,Chak 16/Jb,Lahore,31.6569,73.1
37750,Sahuwala (Chak 132/R.B),Lahore,31.6352,73.1093
37751,Chak 133 Rb,Lahore,31.6352,73.1093
38000,Faisalabad G.P.O.,Lahore,,
38001,Police Constablery,Lahore,,
38004,Board Of Intermediate Secondary Education,Lahore,,
38080,Millat Colony,Lahore,,
38090,Peoples Colony No.2,Lahore,,
38600,Nishat Abad,Lahore,,
38700,Noor Pur,Lahore,,
38800,Punjab Medical College,Lahore,,
38850,Sui Gas,Lahore,,
38851,Chak 1 Jb,Lahore,,
38860,Madina Town,Lahore,,
38900,Ghulam Mohammad Abad,Lahore,,
38901,Chak 279/Saipabad,Lahore,,
39000,Muridke,Lahore,31.7597,73.8378
39001,Nangal Sahdan,Lahore,31.8389,74.2689
39010,Mannoo Abad,Lahore,31.8238,74.383
39020,Lasani Mills,Lahore,31.7094,74.2317
39021,Shamke,Lahore,31.7094,74.2317
39050,Narang Mandi,Lahore,31.8335,74.4621
39051,Mari Khurd,Lahore,31.9722,74.0739
39100,Nankana Sahib,Lahore,31.4475,73.6972
39101,Daulat Pura,Lahore,34.1756,71.6625
39120,More Khunda,Lahore,31.3236,73.7944
39121,Masu,Lahore,31.3139,73.8236
39130,Buche Ki,Lahore,31.3181,73.7132
39131,Chak 8/60,Lahore,31.3181,73.7132
39150,Sayyed Wala,Lahore,28.0278,63.1611
39151,Rajab,Lahore,28.0278,63.1611
39160,Martin Pur,Lahore,32.6028,74.1181
39161,Chak Bhola,Lahore,32.6028,74.1181
39170,Manan Wala,Lahore,33.2547,70.5089
39171,Lagar,Lahore,33.2547,70.5089
39180,Warburton,Lahore,31.55,73.8333
39181,Mehmom Wali,Lahore,31.5333,73.8167
39250,Kot Abdul Malik,Lahore,31.834,73.5646
39320,Monoo Pur,Lahore,31.6704,74.1285
39321,Kot Pindi Dass,Lahore,31.7058,74.1822
39350,Qila Shekhupura G.P.O.,Lahore,32.0029,73.9178
39351,Kharian Wala,Lahore,32.0029,73.9178
39420,Jandiala Sher Khan,Lahore,31.5079,74.1845
39421,Warn,Lahore,31.15,74.5
39450,Ajnian Wala,Lahore,31.5127,74.1568
39451,Keelay,Lahore,31.5127,74.1568
39460,Sharaq Pur,Lahore,31.5176,74.1291
39461,Bholay Shah,Lahore,31.5176,74.1291
39470,Mandi Faiz Abad,Lahore,31.5127,74.1568
39471,Jogi Kot,Lahore,31.5127,74.1568
39500,Farooqabad Mandi,Lahore,32.6297,73.3104
39501,Kot Sonda,Lahore,31.7761,73.7761
39510,Canal Colony Farooq Abad,Lahore,32.0968,73.1267
39520,Farooqabad,Lahore,32.0968,73.1267
39530,Bahalike,Lahore,31.7333,73.7014
39531,Jaid Chak-16,Lahore,31.5619,71.5744
39540,Safdar Abad,Lahore,31.8839,72.5956
39541,Ram Garh,Lahore,32.7931,70.7883
39560,Khan-Gah Dogran,Lahore,32.1892,74.2137
39561,Sahowala,Lahore,32.45,74.4167
39570,Marh Balochan,Lahore,31.7833,73.4333
39571,Allah Abad,Lahore,32.3,73.8
39600,Sangla Hill,Lahore,31.7167,73.3833
39601,Kishan Garh,Lahore,31.7264,73.475
39630,Shah Kot,Lahore,31.5667,73.4833
39631,Kamal Pura,Lahore,32.1333,75.125
39650,Panwan,Lahore,31.5908,73.6
39651,Adil Garh,Lahore,31.9589,72.9953
39660,Kot Nizamdin,Lahore,31.8481,73.7728
40000,Shah Ikdar,Norhern Punajb Rawalpindi,31.6367,72.2711
40001,Chak 161 N.B.,Norhern Punajb Rawalpindi,31.6367,72.2711
40010,Sillan Wali,Norhern Punajb Rawalpindi,30.5712,71.269
40011,Barana,Norhern Punajb Rawalpindi,31.7783,72.6019
40040,Farooka,Norhern Punajb Rawalpindi,31.8883,72.4108
40041,Sahiba Balochan,Norhern Punajb Rawalpindi,31.8448,72.364
40050,Chak 46 S.B.,Norhern Punajb Rawalpindi,31.0696,71.7039
40051,Chak 41 S.B.,Norhern Punajb Rawalpindi,31.0696,71.7039
40060,Chak 36 S.B.,Norhern Punajb Rawalpindi,31.0696,71.7039
40061,Chak 37 S.B.,Norhern Punajb Rawalpindi,31.0696,71.7039
40080,Bulland Hill,Norhern Punajb Rawalpindi,31.0696,71.7039
40081,Chak 48 S.B.,Norhern Punajb Rawalpindi,31.0696,71.7039
40100,Sargodha G.P.O,Norhern Punajb Rawalpindi,32.1687,72.6814
40101,Utti,Norhern Punajb Rawalpindi,32.2833,72.7
40170,Sargodha S.T.M.,Norhern Punajb Rawalpindi,32.1687,72.6814
40180,Paf Station Sgd,Norhern Punajb Rawalpindi,32.1687,72.6814
40184,Astana-E-Fazal,Norhern Punajb Rawalpindi,32.1687,72.6814
40190,Sargodha Cantt,Norhern Punajb Rawalpindi,32.1687,72.6814
40210,Sahiwal (Sargodha),Norhern Punajb Rawalpindi,33.2916,72.4581
40211,Kudlathi,Norhern Punajb Rawalpindi,33.8781,72.4794
40220,Sial Sharif (Sgd),Norhern Punajb Rawalpindi,32.245,72.6888
40230,Nihang,Norhern Punajb Rawalpindi,31.8383,72.2858
40231,Tirkhan Wala,Norhern Punajb Rawalpindi,31.2496,72.6182
40250,Kirana Hill,Norhern Punajb Rawalpindi,32.245,72.6888
40251,Chak 112 S.B.,Norhern Punajb Rawalpindi,32.245,72.6888
40270,Chak 88 S.B.,Norhern Punajb Rawalpindi,32.2667,73.1167
40272,Hujjan,Norhern Punajb Rawalpindi,32.2667,73.1167
40280,Bhagtan Wala,Norhern Punajb Rawalpindi,32.0412,72.9662
40281,Kot Miana,Norhern Punajb Rawalpindi,32.0412,72.9662
40300,Chak 86 S.B.,Norhern Punajb Rawalpindi,32.4913,72.6588
40301,Chak 89 S.B.,Norhern Punajb Rawalpindi,32.4913,72.6588
40310,Chak 29 S.B.,Norhern Punajb Rawalpindi,32.4913,72.6588
40311,Kandi Wal,Norhern Punajb Rawalpindi,32.4913,72.6588
40330,Chak 34 N.B.,Norhern Punajb Rawalpindi,32.4913,72.6588
40331,Chak 36 N.B.,Norhern Punajb Rawalpindi,32.4913,72.6588
40340,Hyderabad Town,Norhern Punajb Rawalpindi,32.4913,72.6588
40350,Jhawrian,Norhern Punajb Rawalpindi,33.4006,72.9567
40351,Rawal,Norhern Punajb Rawalpindi,32.378,72.6321
40370,Dharima,Norhern Punajb Rawalpindi,32.2067,72.5497
40371,Masar,Norhern Punajb Rawalpindi,32.2167,72.5667
40400,Noon Sugar Mills Bhalwal,Norhern Punajb Rawalpindi,32.2553,72.9664
40401,Deowal,Norhern Punajb Rawalpindi,32.2553,72.9664
40410,Bhalwal N.P.O. (Nd),Norhern Punajb Rawalpindi,32.9833,73.9
40411,Chak 26 N.B.,Norhern Punajb Rawalpindi,32.2638,72.7912
40420,Manzoor Hayat Colony (Bhalwal),Norhern Punajb Rawalpindi,32.374,73.0759
40440,Lalliani,Norhern Punajb Rawalpindi,32.2036,72.9533
40441,Chak 15 S.B.,Norhern Punajb Rawalpindi,32.2036,72.9533
40450,Kot Moman,Norhern Punajb Rawalpindi,32.1833,73.0333
40451,Wan,Norhern Punajb Rawalpindi,32.2762,73.1119
40460,Midh Ranjha,Norhern Punajb Rawalpindi,32.05,73.1667
40461,Badin,Norhern Punajb Rawalpindi,32.05,73.1
40470,Bhabra,Norhern Punajb Rawalpindi,33.7978,72.7283
40471,Bhairo Wali,Norhern Punajb Rawalpindi,33.7978,72.7283
40500,Alipur Noon,Norhern Punajb Rawalpindi,32.3472,72.9778
40520,Chak Ram Dass,Norhern Punajb Rawalpindi,32.3771,72.7799
40521,Kot Hakim Khan,Norhern Punajb Rawalpindi,32.3883,72.8356
40530,Chak 10 M.L.,Norhern Punajb Rawalpindi,32.2646,72.4126
40540,Bhera,Norhern Punajb Rawalpindi,32.4819,72.91
40541,Ali Pur Syedan,Norhern Punajb Rawalpindi,32.4405,72.8551
40550,Miani,Norhern Punajb Rawalpindi,27.7722,68.8
40551,Nimtas,Norhern Punajb Rawalpindi,32.5333,73.0333
40570,Phular Wan,Norhern Punajb Rawalpindi,31.9344,71.4764
40571,Chabba Purana,Norhern Punajb Rawalpindi,32.3333,72.9667
40600,Shah Pur Sadar,Norhern Punajb Rawalpindi,32.3025,72.5207
40601,Chachar,Norhern Punajb Rawalpindi,32.3453,72.5211
40610,Shah Pur City,Norhern Punajb Rawalpindi,30.4565,70.3136
40611,Tankiwala,Norhern Punajb Rawalpindi,32.1994,72.3436
40620,Kandan,Norhern Punajb Rawalpindi,32.2342,72.3628
41000,Khushab G.P.O.,Norhern Punajb Rawalpindi,31.8262,71.5642
41001,Loghari,Norhern Punajb Rawalpindi,28.0694,67.9931
41004,No S.O,Norhern Punajb Rawalpindi,31.8262,71.5642
41021,Roda,Norhern Punajb Rawalpindi,32.0739,72.1
41024,No S.O,Norhern Punajb Rawalpindi,31.9786,71.6719
41050,Pail,Norhern Punajb Rawalpindi,32.6333,72.45
41051,Kuchar,Norhern Punajb Rawalpindi,32.6333,72.45
41060,Padhrar,Norhern Punajb Rawalpindi,32.65,72.5
41061,Chhab,Norhern Punajb Rawalpindi,33.2431,71.8981
41100,Naushera,Norhern Punajb Rawalpindi,31.4847,73.5506
41101,Bagh Shamas Din,Norhern Punajb Rawalpindi,32.6889,72.1611
41102,Surraki,Norhern Punajb Rawalpindi,32.3878,72.5085
41103,Mehlian,Norhern Punajb Rawalpindi,32.3878,72.5085
41110,Sodhi,Norhern Punajb Rawalpindi,32.5812,72.225
41111,Bhukhi,Norhern Punajb Rawalpindi,32.5625,72.2167
41120,Khabbekki,Norhern Punajb Rawalpindi,32.3773,72.4043
41122,Dhadhar,Norhern Punajb Rawalpindi,32.3773,72.4043
41130,Mardwal Edso,Norhern Punajb Rawalpindi,32.3773,72.4043
41140,Angah,Norhern Punajb Rawalpindi,32.3773,72.4043
41150,Uchhali Edso,Norhern Punajb Rawalpindi,32.3773,72.4043
41160,P.A.F. Sakesar,Norhern Punajb Rawalpindi,32.3773,72.4043
41161,Mohrianwala,Norhern Punajb Rawalpindi,32.3773,72.4043
41170,Jahlar,Norhern Punajb Rawalpindi,31.9269,72.3461
41200,Jauhar Abad,Norhern Punajb Rawalpindi,32.5861,74.0986
41201,Chak 47 M.B.,Norhern Punajb Rawalpindi,32.5861,74.0986
41210,Hadali,Norhern Punajb Rawalpindi,32.2922,72.1922
41220,Jabbi,Norhern Punajb Rawalpindi,33.6597,72.5281
41221,Chinki,Norhern Punajb Rawalpindi,33.5481,72.665
41226,Atomic  Energy Commission At Chowk Girote,Norhern Punajb Rawalpindi,33.6039,72.5965
41250,Mitha Tiwana,Norhern Punajb Rawalpindi,32.2486,72.1108
41251,Chak 50 D.B.,Norhern Punajb Rawalpindi,32.418,72.4399
41260,Adhi Kot,Norhern Punajb Rawalpindi,32.1036,71.8067
41265,Khaikalann,Norhern Punajb Rawalpindi,31.8864,72.2246
41270,Nur Pur Thal,Norhern Punajb Rawalpindi,31.5198,72.3264
41271,Katimar,Norhern Punajb Rawalpindi,30.2486,70.9861
41280,Jamali,Norhern Punajb Rawalpindi,24.5792,67.7158
41300,Qaid Abad,Norhern Punajb Rawalpindi,32.6956,71.9742
41301,Shumar,Norhern Punajb Rawalpindi,32.9925,71.9222
41310,Bandial,Norhern Punajb Rawalpindi,32.3547,71.8247
41320,Rangpur Baghor,Norhern Punajb Rawalpindi,32.5819,71.9244
41330,War Chha Mandi,Norhern Punajb Rawalpindi,32.5819,71.9244
42000,Sahiwala,Souhern Punajb Mulan,30.425,70.7375
42001,Doaba,Norhern Punajb Rawalpindi,30.1,71.25
42020,Harnoli,Norhern Punajb Rawalpindi,32.2792,71.5539
42021,Chak 22 Db,Norhern Punajb Rawalpindi,33,73.6667
42030,Chashma Barrage Colony,Norhern Punajb Rawalpindi,32.4043,71.436
42031,Khola,Norhern Punajb Rawalpindi,32.3936,71.4217
42050,Kundian,Norhern Punajb Rawalpindi,32.45,71.4667
42051,Kundian Village,Norhern Punajb Rawalpindi,32.5133,71.3994
42100,Wan Bhachran,Norhern Punajb Rawalpindi,32.4342,71.7224
42101,Muzzuffar Pur,Norhern Punajb Rawalpindi,32.4342,71.7224
42110,Chapri,Norhern Punajb Rawalpindi,33.4,71.9833
42200,Mianwali G.P.O.,Norhern Punajb Rawalpindi,32.488,71.8476
42201,Rokhari,Norhern Punajb Rawalpindi,32.6569,71.5103
42210,Musa Khel,Norhern Punajb Rawalpindi,32.6372,71.7389
42211,Dalil Wala,Norhern Punajb Rawalpindi,32.488,71.8476
42220,Kalri,Norhern Punajb Rawalpindi,32.95,73.5333
42230,Chakrala,Norhern Punajb Rawalpindi,33.2844,72.6869
42231,Dhok Noor Shah,Norhern Punajb Rawalpindi,32.488,71.8476
42232,Dhiba Kar Sial,Norhern Punajb Rawalpindi,32.488,71.8476
42240,Dhurnaka,Norhern Punajb Rawalpindi,32.488,71.8476
42300,Pai Khel,Norhern Punajb Rawalpindi,32.7878,71.5856
42301,Sawans,Norhern Punajb Rawalpindi,32.8083,71.6083
42310,Mochh,Norhern Punajb Rawalpindi,32.7469,71.5142
42311,Rustam Wala,Norhern Punajb Rawalpindi,32.8,71.5333
42320,Daud Khel,Norhern Punajb Rawalpindi,32.8833,71.5667
42321,Thatti,Norhern Punajb Rawalpindi,32.2333,73.6111
42330,Daud Khel Canal Colony,Norhern Punajb Rawalpindi,32.7989,71.7518
42340,Iskandar Abad,Norhern Punajb Rawalpindi,32.7989,71.7518
42350,Mari Indus,Norhern Punajb Rawalpindi,32.95,71.5667
42351,Mari,Norhern Punajb Rawalpindi,27.225,68.2792
42360,Kalabagh,Norhern Punajb Rawalpindi,32.9667,71.5667
42361,Kacha Bhangi Khel,Norhern Punajb Rawalpindi,32.9794,71.3911
42370,Tabbisar,Norhern Punajb Rawalpindi,32.7989,71.7518
42400,Kamar Mashani,Norhern Punajb Rawalpindi,32.6761,70.0386
42401,Manda Khel,Norhern Punajb Rawalpindi,32.6761,70.0386
42410,Makerwal,Norhern Punajb Rawalpindi,32.6667,71.0083
42411,Sultan Khel,Norhern Punajb Rawalpindi,32.6667,71.0083
42420,Trag,Norhern Punajb Rawalpindi,32.7867,71.2956
42421,Mehr Shah Wali,Norhern Punajb Rawalpindi,32.7867,71.2956
42430,Isa Khel,Norhern Punajb Rawalpindi,31.3667,73.6333
42431,Khaglan Wala,Norhern Punajb Rawalpindi,32.1736,71.4236
42434,Kalian Pur,Norhern Punajb Rawalpindi,31.7701,72.5285
43000,Makhad Road,Norhern Punajb Rawalpindi,33.0775,71.7939
43001,Bhata,Norhern Punajb Rawalpindi,33.0775,71.7939
43010,Makhad,Norhern Punajb Rawalpindi,33.1333,71.7333
43020,Injra R.S.,Norhern Punajb Rawalpindi,32.6445,70.8126
43030,Naka Afghanan,Norhern Punajb Rawalpindi,32.6445,70.8126
43031,Naka Khurd,Norhern Punajb Rawalpindi,32.6445,70.8126
43040,Hadowali,Norhern Punajb Rawalpindi,34.4908,72.9219
43041,Barwala,Norhern Punajb Rawalpindi,34.4908,72.9219
43050,Chhab,Norhern Punajb Rawalpindi,33.2431,71.8981
43051,Nandrak Abad,Norhern Punajb Rawalpindi,32.6445,70.8126
43060,Lakarmar,Norhern Punajb Rawalpindi,32.6445,70.8126
43061,Torang Mela,Norhern Punajb Rawalpindi,32.6445,70.8126
43070,Jhamat,Norhern Punajb Rawalpindi,33.3,71.9167
43071,Torewali,Norhern Punajb Rawalpindi,32.7458,72.0042
43080,Dakhnair,Norhern Punajb Rawalpindi,29.1194,64.5056
43081,Girdi,Norhern Punajb Rawalpindi,29.1194,64.5056
43090,Malhowali,Norhern Punajb Rawalpindi,32.6445,70.8126
43091,Dhaboola,Norhern Punajb Rawalpindi,32.6445,70.8126
43100,Jand,Norhern Punajb Rawalpindi,33.4289,72.02
43101,Dingi Nari,Norhern Punajb Rawalpindi,33.379,72.0004
43110,Kotchhaji,Norhern Punajb Rawalpindi,33.5358,72.0225
43111,Jalwal,Norhern Punajb Rawalpindi,33.5358,72.0225
43120,Nara,Norhern Punajb Rawalpindi,34.3625,73.7278
43121,Dandijaswal,Norhern Punajb Rawalpindi,31.7835,70.581
43130,Thatta,Norhern Punajb Rawalpindi,24.7469,67.9242
43131,Pindi Sarhal,Norhern Punajb Rawalpindi,33.5811,72.1697
43140,Basal,Norhern Punajb Rawalpindi,33.5539,72.2583
43141,Basal R.S,Norhern Punajb Rawalpindi,33.5539,72.2583
43200,Kisran,Norhern Punajb Rawalpindi,31.8392,72.9692
43201,Kahl,Norhern Punajb Rawalpindi,30.6417,72.9444
43210,Mithial,Norhern Punajb Rawalpindi,33.5239,72.2411
43220,Domel,Norhern Punajb Rawalpindi,35.1667,75.1667
43221,Namai,Norhern Punajb Rawalpindi,33.21,72.4178
43230,Pind Sultaini,Norhern Punajb Rawalpindi,33.4832,72.1671
43231,Dhok Gidran,Norhern Punajb Rawalpindi,33.4761,72.2111
43240,Ikhias,Norhern Punajb Rawalpindi,33.3656,72.2985
43241,Domial,Norhern Punajb Rawalpindi,33.4164,72.3261
43250,Dhok Lahm,Norhern Punajb Rawalpindi,33.3172,72.1872
43251,Tanween,Norhern Punajb Rawalpindi,34.2097,72.3807
43260,Pindi Gheb,Norhern Punajb Rawalpindi,33.2403,72.2636
43261,Dhullian,Norhern Punajb Rawalpindi,33.0208,72.8439
43270,Chakki,Norhern Punajb Rawalpindi,33.0217,71.8381
43300,Khunda,Norhern Punajb Rawalpindi,33.4633,72.3947
43301,Chuntra,Norhern Punajb Rawalpindi,33.4248,72.3674
43320,Mirjal,Norhern Punajb Rawalpindi,33.5136,72.4408
43321,Traggar,Norhern Punajb Rawalpindi,32.9833,72.4
43330,Gaggon,Norhern Punajb Rawalpindi,33.3758,72.669
43331,Jaffar,Norhern Punajb Rawalpindi,33.3758,72.669
43340,Kot Fateh Khan,Norhern Punajb Rawalpindi,33.4619,72.5081
43341,Mekidhok,Norhern Punajb Rawalpindi,33.561,72.7301
43350,Fateh Jang,Norhern Punajb Rawalpindi,33.5822,71.4644
43351,Dhok Selu,Norhern Punajb Rawalpindi,33.3712,72.8353
43360,Kamrial,Norhern Punajb Rawalpindi,33.1611,73.8278
43361,Sohal,Norhern Punajb Rawalpindi,33.1611,73.8278
43370,Gandaskas,Norhern Punajb Rawalpindi,33.2606,72.6839
43371,Khilri,Norhern Punajb Rawalpindi,33.2606,72.6839
43380,Khaur,Norhern Punajb Rawalpindi,33.2497,72.4553
43381,Khaur Village,Norhern Punajb Rawalpindi,33.2388,72.4251
43390,Kutbal,Norhern Punajb Rawalpindi,33.15,73.2
43391,Jangla,Norhern Punajb Rawalpindi,33.3054,73.0127
43400,Jalalia,Norhern Punajb Rawalpindi,33.9586,72.5411
43401,Momanpur,Norhern Punajb Rawalpindi,33.9653,72.5311
43410,Gurgushti,Norhern Punajb Rawalpindi,32.8475,69.6247
43411,Sherabanda,Norhern Punajb Rawalpindi,32.8475,69.6247
43420,Shinka,Norhern Punajb Rawalpindi,33.9422,72.53
43421,Behboodi,Norhern Punajb Rawalpindi,33.9567,72.4896
43430,Barazai,Norhern Punajb Rawalpindi,33.9211,72.5419
43431,Kotkey,Norhern Punajb Rawalpindi,33.9211,72.5419
43440,Hazro,Norhern Punajb Rawalpindi,33.9097,72.4928
43441,Moraria,Norhern Punajb Rawalpindi,33.951,72.4711
43450,Nartopa,Norhern Punajb Rawalpindi,33.9142,72.5186
43451,Sarwana,Norhern Punajb Rawalpindi,33.8964,72.5156
43460,Musa,Norhern Punajb Rawalpindi,32.55,73.9167
43461,Kudlathi,Norhern Punajb Rawalpindi,32.1026,71.3797
43470,Hamid,Norhern Punajb Rawalpindi,27.4333,67.7167
43480,Saman,Norhern Punajb Rawalpindi,33.8975,72.4481
43481,Jatial,Norhern Punajb Rawalpindi,33.8767,72.4397
43490,Shams Abad,Norhern Punajb Rawalpindi,33.01,72.7583
43491,Veero,Norhern Punajb Rawalpindi,33.01,72.7583
43500,Rangoo,Norhern Punajb Rawalpindi,33.5454,72.1854
43510,Waisa,Norhern Punajb Rawalpindi,33.9231,72.4056
43511,Malhu,Norhern Punajb Rawalpindi,33.9256,72.4244
43520,Sirka,Norhern Punajb Rawalpindi,33.9394,72.3908
43521,Haroon,Norhern Punajb Rawalpindi,33.9458,72.4181
43530,Shadi Khan,Norhern Punajb Rawalpindi,33.9231,72.3772
43531,Walia,Norhern Punajb Rawalpindi,33.9114,72.3742
43541,Garhi Matani,Norhern Punajb Rawalpindi,33.9297,72.3386
43550,Mansar Camp,Norhern Punajb Rawalpindi,33.6039,72.0409
43551,Haji Shah,Norhern Punajb Rawalpindi,33.8772,72.3272
43560,Attock Khurd,Norhern Punajb Rawalpindi,33.8936,72.2414
43561,Mullan Mansoor,Norhern Punajb Rawalpindi,33.8953,72.285
43570,P.A.C.Kamra,Norhern Punajb Rawalpindi,33.8633,72.4008
43571,Pind Suleman Makhan,Norhern Punajb Rawalpindi,33.8633,72.4008
43600,Attock G.P.O.,Norhern Punajb Rawalpindi,33.5937,72.3873
43601,Sarwala,Norhern Punajb Rawalpindi,33.7708,72.3219
43670,Pakistan Ordinance Factory Sanjwal,Norhern Punajb Rawalpindi,33.7473,72.4949
43671,Saqqa Abad,Norhern Punajb Rawalpindi,33.7331,72.5503
43680,Mirza,Norhern Punajb Rawalpindi,33.7686,72.3944
43681,Boota,Norhern Punajb Rawalpindi,33.3492,73.0707
43700,Dawoodpur,Norhern Punajb Rawalpindi,31.7199,71.1707
43701,Gharshin,Norhern Punajb Rawalpindi,33.7969,72.535
43710,Burhan,Norhern Punajb Rawalpindi,31.8494,72.2161
43711,Khaliq Dad,Norhern Punajb Rawalpindi,31.8494,72.2161
43720,Mono Nagar,Norhern Punajb Rawalpindi,33.8444,72.6325
43721,Kohlia,Norhern Punajb Rawalpindi,33.8444,72.6325
43730,Hasan Abdal,Norhern Punajb Rawalpindi,30.4333,72.7
43731,Sabzpir,Norhern Punajb Rawalpindi,33.2671,72.8925
43740,Bahtar,Norhern Punajb Rawalpindi,33.6803,72.6433
43741,Darekh,Norhern Punajb Rawalpindi,33.6554,72.6702
44000,Islamabad Gpo,Federal Capial &AJK,,
44001,New Shakrial,Federal Capial &AJK,,
44010,Prime Minister Sectt.,Federal Capial &AJK,,
44790,Shaigon Industries,Federal Capial &AJK,,
44800,I-10/1(N-333),Federal Capial &AJK,,
44810,I-11/4(N-406),Federal Capial &AJK,,
45200,Golra,Federal Capial &AJK,33.6961,72.9772
45210,Noon,Federal Capial &AJK,33.6744,72.8492
45211,Sang Jani,Federal Capial &AJK,33.6744,72.8492
45300,Nurpur Shahan,Federal Capial &AJK,33.75,73.1167
45320,Quaid-E-Azam University,Federal Capial &AJK,33.75,73.1167
45400,Bara Kau,Federal Capial &AJK,33.8308,72.8024
45401,Malpur,Federal Capial &AJK,33.8078,72.7742
45500,National Health Laboratories,Federal Capial &AJK,33.6542,73.1667
45510,Rawal Town,Federal Capial &AJK,33.6542,73.1667
45550,Tarlai Kalan,Federal Capial &AJK,33.6333,73.15
45551,Khanna Dak,Federal Capial &AJK,33.6333,73.1167
45570,Kuri,Federal Capial &AJK,33.6833,73.1833
45600,Ali Pur Frash,Federal Capial &AJK,30.2583,72.8722
45650,Nilore,Federal Capial &AJK,30.2583,72.8722
45651,Kirpa,Federal Capial &AJK,30.2583,72.8722
45680,Chirah,Federal Capial &AJK,30.2583,72.8722
45700,Model Town Humak(N-374),Federal Capial &AJK,33.5611,73.2111
45750,Sihala,Federal Capial &AJK,33.55,73.2167
45751,Bhan,Federal Capial &AJK,33.5667,73.2083
45800,Herdogher,Federal Capial &AJK,33.4758,73.01
45900,Rewat,Federal Capial &AJK,33.4758,73.01
45901,P.C.(Punjab Constablary),Federal Capial &AJK,33.4758,73.01
46000,Rawalpindi G.P.O.,Norhern Punajb Rawalpindi,33.4292,72.8417
46001,Gulshanabad,Norhern Punajb Rawalpindi,33.6014,71.4544
46100,General Head Quarter,Norhern Punajb Rawalpindi,33.4292,72.8417
46120,Presidency Po,Norhern Punajb Rawalpindi,33.4292,72.8417
46200,Chak Lala Cantt,Norhern Punajb Rawalpindi,33.4292,72.8417
46300,Satellite Town,Norhern Punajb Rawalpindi,33.6333,73.0667
46350,Pir Wadhai,Norhern Punajb Rawalpindi,33.4292,72.8417
46600,Attock Oil Coy,Norhern Punajb Rawalpindi,33.4292,72.8417
46610,High Court (Apo),Norhern Punajb Rawalpindi,33.4292,72.8417
47000,Wah,Norhern Punajb Rawalpindi,33.7983,72.6956
47001,Ahmed Nagar,Norhern Punajb Rawalpindi,34.5481,72.5147
47010,Lalarukh Wah Cantt.,Norhern Punajb Rawalpindi,33.3775,72.5555
47020,Wah Cement Works,Norhern Punajb Rawalpindi,33.6956,72.5815
47021,Garhi Afghanan,Norhern Punajb Rawalpindi,33.8014,72.7858
47030,P.O.F. Godwal,Norhern Punajb Rawalpindi,33.3775,72.5555
47040,Wah Cantt West Park (Nd),Norhern Punajb Rawalpindi,30.3,71.9
47041,Losar Sharfoo,Norhern Punajb Rawalpindi,30.3,71.9
47044,Lalazar Colony A.P.O.,Norhern Punajb Rawalpindi,30.3,71.9
47045,Ahmadnagar,Norhern Punajb Rawalpindi,30.3,71.9
47050,Heavy Mechanical Complex Taxila,Norhern Punajb Rawalpindi,33.3775,72.5555
47070,Taxila Cantt,Norhern Punajb Rawalpindi,33.3775,72.5555
47080,Taxila,Norhern Punajb Rawalpindi,33.6436,72.7944
47081,Wani,Norhern Punajb Rawalpindi,33.6225,72.8325
47100,Tret,Federal Capial &AJK,33.8333,73.2833
47101,Khareri,Federal Capial &AJK,33.8333,73.2833
47104,Samli Sanatorium,Federal Capial &AJK,33.8333,73.2833
47110,Ghora Gali,Federal Capial &AJK,33.8833,73.35
47111,Danah,Federal Capial &AJK,33.8833,73.35
47114,Lawrence College,Federal Capial &AJK,33.8833,73.35
47115,Nambai,Federal Capial &AJK,33.8833,73.35
47118,Murree Clifdon,Federal Capial &AJK,33.8833,73.35
47120,Chitta More,Federal Capial &AJK,34.3736,73.6667
47124,Barian Camp,Federal Capial &AJK,34.3736,73.6667
47125,Batnara,Federal Capial &AJK,34.3736,73.6667
47130,Kuldana,Federal Capial &AJK,33.9167,73.4
47140,Sunny Bank,Federal Capial &AJK,34.0007,73.4417
47141,Darya Gali,Federal Capial &AJK,34.0007,73.4417
47150,Murree Gpo,Federal Capial &AJK,34.0007,73.4417
47180,Jhika Gali,Federal Capial &AJK,34.0007,73.4417
47181,Mussiari,Federal Capial &AJK,34.0007,73.4417
47184,Ghariai,Federal Capial &AJK,34.0007,73.4417
47190,Kashmiri Bazar,Federal Capial &AJK,33.9986,73.475
47191,Mohra Sharif,Federal Capial &AJK,33.9986,73.475
47194,Dewal,Federal Capial &AJK,34.0139,73.4833
47195,Ausia,Federal Capial &AJK,33.9833,73.4667
47200,Phagwari,Federal Capial &AJK,33.9833,73.5
47201,Namb Rumal,Federal Capial &AJK,33.9667,73.5
47204,Sehr Bagla,Federal Capial &AJK,33.9667,73.5
47205,Potha,Federal Capial &AJK,33.95,73.5
47210,Upper Topa,Federal Capial &AJK,33.9167,73.4333
47214,Lower Topa,Federal Capial &AJK,33.9,73.4333
47220,Gulehra Gali,Federal Capial &AJK,31.1333,73.1333
47221,Parhana,Federal Capial &AJK,31.1333,73.1333
47224,Mohra Sayyedan,Federal Capial &AJK,31.1333,73.1333
47230,Ban,Federal Capial &AJK,33.7103,72.77
47231,Sanj,Federal Capial &AJK,33.7103,72.77
47234,Dhirkot Sattian (Apo),Federal Capial &AJK,33.7103,72.77
47240,Dhanda,Federal Capial &AJK,33.1897,72.9656
47241,Kohatti,Federal Capial &AJK,33.95,73.5333
47250,Mallot Statian,Norhern Punajb Rawalpindi,33.612,73.0853
47251,Barian,Norhern Punajb Rawalpindi,33.95,73.3833
47260,Kotli,Norhern Punajb Rawalpindi,33.7756,72.6872
47261,Karal,Norhern Punajb Rawalpindi,34.9578,72.5531
47270,Lehtrar Bala,Norhern Punajb Rawalpindi,33.7,73.4333
47271,Jawa,Norhern Punajb Rawalpindi,33.8667,73.5833
47280,Kehrore,Norhern Punajb Rawalpindi,29.6167,71.9167
47281,Biah,Norhern Punajb Rawalpindi,35.5839,72.2944
47290,Sihal,Norhern Punajb Rawalpindi,33.3572,72.8306
47291,Pindi Mahlu,Norhern Punajb Rawalpindi,33.3313,72.8747
47300,Chakri,Norhern Punajb Rawalpindi,33.2922,72.7633
47301,Dhadbumroo,Norhern Punajb Rawalpindi,33.2916,72.8197
47310,Dhagal,Norhern Punajb Rawalpindi,31.9208,73.0167
47311,Dhullah,Norhern Punajb Rawalpindi,31.9208,73.0167
47330,Kahuta,Norhern Punajb Rawalpindi,33.5833,73.3833
47331,Doberan Kalan,Norhern Punajb Rawalpindi,33.45,73.5
47340,Hanesar,Norhern Punajb Rawalpindi,32.9626,72.8768
47350,Panjar,Norhern Punajb Rawalpindi,33.65,73.5167
47351,Salambar,Norhern Punajb Rawalpindi,26.9306,68.0181
47360,Narh,Norhern Punajb Rawalpindi,33.7333,73.55
47361,Hariak,Norhern Punajb Rawalpindi,33.7333,73.55
47370,Mowara,Norhern Punajb Rawalpindi,35.4328,72.5986
47371,Gthariot,Norhern Punajb Rawalpindi,35.4328,72.5986
47374,Matore,Norhern Punajb Rawalpindi,35.4328,72.5986
47375,Bagla,Norhern Punajb Rawalpindi,35.4328,72.5986
47380,Thoha Khalsa,Norhern Punajb Rawalpindi,33.5167,73.4333
47384,Nara,Norhern Punajb Rawalpindi,34.3625,73.7278
47385,Baghoon,Norhern Punajb Rawalpindi,33.5,73.5833
47390,Bagh Jamiri,Norhern Punajb Rawalpindi,32.9626,72.8768
47400,Lehri,Norhern Punajb Rawalpindi,32.8833,73.9833
47410,Chak 257 Rb,Lahore,33.5667,73.5667
47411,Anore,Norhern Punajb Rawalpindi,33.5833,73.5667
47430,Nalla Musilmanan,Norhern Punajb Rawalpindi,35.1931,72.6561
47431,Khad,Norhern Punajb Rawalpindi,35.1931,72.6561
47432,Benahal Pattan,Norhern Punajb Rawalpindi,35.1931,72.6561
47440,Doberan Kalan,Norhern Punajb Rawalpindi,33.45,73.5
47441,Nambal,Norhern Punajb Rawalpindi,30.7023,72.1
47450,Dhamali,Norhern Punajb Rawalpindi,33.4333,73.45
47460,Bhalakhar,Norhern Punajb Rawalpindi,32.7352,72.9396
47470,Chaoha Khalsa,Norhern Punajb Rawalpindi,33.3833,73.4167
47471,Mirgala Khalsa,Norhern Punajb Rawalpindi,33.3833,73.4167
47476,Chakrali Budhal,Norhern Punajb Rawalpindi,33.3833,73.4167
47480,Sir Suba Shah,Norhern Punajb Rawalpindi,32.7352,72.9396
47481,Manianda,Norhern Punajb Rawalpindi,32.7352,72.9396
47490,Samote,Norhern Punajb Rawalpindi,33.35,73.5
47491,Kalian Sihalian,Norhern Punajb Rawalpindi,33.35,73.5
47500,Dhamial Camp,Norhern Punajb Rawalpindi,32.8078,69.5078
47501,Dhamial  Village,Norhern Punajb Rawalpindi,32.8078,69.5078
47510,Dharyala Saigon,Norhern Punajb Rawalpindi,32.7666,72.9354
47520,Kallar,Norhern Punajb Rawalpindi,33.4167,73.3833
47521,Darkali Mehmoori,Norhern Punajb Rawalpindi,32.2028,72.5105
47530,Chowk Pindori,Norhern Punajb Rawalpindi,34.2806,73.0972
47531,Chabutra,Norhern Punajb Rawalpindi,34.2806,73.0972
47540,Sagri,Norhern Punajb Rawalpindi,33.0667,73.6
47541,Lodhra,Norhern Punajb Rawalpindi,30.8056,74.4236
47550,Jhatta Hathial,Norhern Punajb Rawalpindi,33.419,73.0381
47551,Nakrali,Norhern Punajb Rawalpindi,33.3894,72.9911
47560,Banda,Norhern Punajb Rawalpindi,33.3333,73.0333
47561,Kari,Norhern Punajb Rawalpindi,32.8667,73.5667
47570,Bhall,Norhern Punajb Rawalpindi,32.7666,72.9354
47580,Udhowal,Norhern Punajb Rawalpindi,32.6256,73.1554
47581,Chak Amral,Norhern Punajb Rawalpindi,33.3061,72.9011
47590,Chauntra,Norhern Punajb Rawalpindi,31.2167,72.1167
47600,Chak Beli Khan,Norhern Punajb Rawalpindi,33.2369,72.9103
47601,Mari Beer,Norhern Punajb Rawalpindi,33.2217,72.8861
47610,Pindoori,Norhern Punajb Rawalpindi,33.0893,72.8684
47611,Thala Khurd,Norhern Punajb Rawalpindi,33.0893,72.8684
47620,Mahuta Mohra,Norhern Punajb Rawalpindi,33.0893,72.8684
47630,Paryal,Norhern Punajb Rawalpindi,33.2138,72.7925
47631,Karahi,Norhern Punajb Rawalpindi,33.2022,72.7947
47640,Ruper Kalan,Norhern Punajb Rawalpindi,33.0893,72.8684
47641,Banian,Norhern Punajb Rawalpindi,34.175,73.3139
47650,Bassali,Norhern Punajb Rawalpindi,33.0893,72.8684
47651,Kalri,Norhern Punajb Rawalpindi,32.95,73.5333
47660,Jabbar Darvesh,Norhern Punajb Rawalpindi,33.35,73.1167
47661,Saradhray,Norhern Punajb Rawalpindi,33.35,73.0833
47670,Mandra,Norhern Punajb Rawalpindi,33.3667,73.2333
47671,Ranial,Norhern Punajb Rawalpindi,33.5386,72.9786
47680,Kaliam Awan,Norhern Punajb Rawalpindi,33.4167,73.2167
47690,Pothi,Norhern Punajb Rawalpindi,33.3667,73.2
47700,Sang,Norhern Punajb Rawalpindi,33.0833,73.0167
47701,Dera Syedan,Norhern Punajb Rawalpindi,30.8611,71.6569
47710,Mangote,Norhern Punajb Rawalpindi,33.0914,73.0223
47720,Sukho,Norhern Punajb Rawalpindi,33.7803,72.7875
47721,Mohra Dhamial,Norhern Punajb Rawalpindi,33.2833,73.167
47730,Kanyat Khalil,Norhern Punajb Rawalpindi,33.1833,73.2333
47740,Daultala,Norhern Punajb Rawalpindi,33.2,73.15
47741,Bajrana Katyal,Norhern Punajb Rawalpindi,33.175,73.1417
47750,Ahdi,Norhern Punajb Rawalpindi,33.0914,73.0223
47760,Narali,Norhern Punajb Rawalpindi,33.1167,73.1667
47761,Faryal,Norhern Punajb Rawalpindi,33.1042,73.1778
47770,Dhong,Norhern Punajb Rawalpindi,33.0914,73.0223
47771,Chichi Noor,Norhern Punajb Rawalpindi,33.0914,73.0223
47780,Jatli,Norhern Punajb Rawalpindi,33.2,73.1167
47781,Jhangi Phero,Norhern Punajb Rawalpindi,33.225,73.05
47790,Bhair Kalyal,Norhern Punajb Rawalpindi,33.0914,73.0223
47791,Choon Gal,Norhern Punajb Rawalpindi,33.0914,73.0223
47800,Thekherian,Norhern Punajb Rawalpindi,32.77,72.9186
47810,Raman,Norhern Punajb Rawalpindi,30.3772,70.7053
47811,Phim Bal Miana,Norhern Punajb Rawalpindi,33.15,73.1
47820,Sayyad,Norhern Punajb Rawalpindi,32.6542,72.9295
47821,Thanil Kamal,Norhern Punajb Rawalpindi,33.1422,72.7269
47830,Punjgran Khurd,Norhern Punajb Rawalpindi,33.1833,73.0333
47850,Gujar Khan G.P.O.,Norhern Punajb Rawalpindi,33.2774,73.2962
47851,Ghungrilla,Norhern Punajb Rawalpindi,33.2774,73.2962
47880,Gulyana,Norhern Punajb Rawalpindi,32.77,72.9186
47881,Bains Gulyana,Norhern Punajb Rawalpindi,32.77,72.9186
47882,Chik Budhal,Norhern Punajb Rawalpindi,32.77,72.9186
47884,Mohra Noori,Norhern Punajb Rawalpindi,32.77,72.9186
47890,Sasral,Norhern Punajb Rawalpindi,33.15,73.25
47891,Chak Begwa,Norhern Punajb Rawalpindi,33.15,73.25
47900,Kuntrilla,Norhern Punajb Rawalpindi,33.0774,73.3493
47901,Chak Begwal,Norhern Punajb Rawalpindi,33.1611,73.2222
47910,Bewal,Norhern Punajb Rawalpindi,33.3333,73.45
47911,Suichemian,Norhern Punajb Rawalpindi,33.3333,73.45
47930,Kinger,Norhern Punajb Rawalpindi,31.0833,73.45
47931,Nota,Norhern Punajb Rawalpindi,31.0833,73.45
47940,Thathi,Norhern Punajb Rawalpindi,33.1992,72.1322
47941,Miana Potha,Norhern Punajb Rawalpindi,32.9409,73.1973
47950,Pindori,Norhern Punajb Rawalpindi,31.75,73.3
47951,Ratala,Norhern Punajb Rawalpindi,33.2667,73.4667
47960,Kazian,Norhern Punajb Rawalpindi,34.03,72.9258
47961,Pajgran Jandrawali,Norhern Punajb Rawalpindi,31.0139,70.7444
47964,Changa Bangial,Norhern Punajb Rawalpindi,33.3333,73.3333
47965,Nirali Jubar Qaim,Norhern Punajb Rawalpindi,32.7924,72.3345
47970,Jand Mehloo,Norhern Punajb Rawalpindi,32.9409,73.1973
47971,Rumat,Norhern Punajb Rawalpindi,32.9409,73.1973
47980,Missa Kaswal,Norhern Punajb Rawalpindi,33.0314,73.0522
47981,Dhok Gondal,Norhern Punajb Rawalpindi,33.1553,72.6703
47990,Jarmot Kalan,Norhern Punajb Rawalpindi,33.1292,73.3222
47994,Khingar Mamdal,Norhern Punajb Rawalpindi,33.1292,73.3222
48000,Trap,Norhern Punajb Rawalpindi,33.0536,71.9067
48001,Amanpur,Norhern Punajb Rawalpindi,33.2186,72.205
48020,Jabbi Shah Dilawar Edso,Norhern Punajb Rawalpindi,33.0332,72.5857
48030,Multan Khurd,Norhern Punajb Rawalpindi,33.0332,72.5857
48031,Jabbi  Kotehra,Norhern Punajb Rawalpindi,33.0332,72.5857
48040,Tamman,Norhern Punajb Rawalpindi,33.005,72.1106
48041,Khuian,Norhern Punajb Rawalpindi,33.6667,73.5
48050,Budhial,Norhern Punajb Rawalpindi,32.9833,72.1833
48060,Akwal,Norhern Punajb Rawalpindi,32.9333,72.3667
48061,Dhoke Dali,Norhern Punajb Rawalpindi,33.025,72.3038
48070,Tehi,Norhern Punajb Rawalpindi,32.9667,72.4
48071,Naka Rehan,Norhern Punajb Rawalpindi,32.9667,72.4083
48080,Kot Sarang,Norhern Punajb Rawalpindi,33.0372,72.3864
48081,Muthrala,Norhern Punajb Rawalpindi,32.8083,73.8583
48100,Talagang City (Nd),Norhern Punajb Rawalpindi,32.204,72.4924
48101,Shah Muhammad Wali,Norhern Punajb Rawalpindi,33.0581,71.9347
48110,Naka Kahut,Norhern Punajb Rawalpindi,32.029,71.2215
48150,Saghar,Norhern Punajb Rawalpindi,26.5361,62.7589
48151,Bilalabad(Kufri),Norhern Punajb Rawalpindi,26.5361,62.7589
48160,Wanhar,Norhern Punajb Rawalpindi,32.8833,72.1833
48161,Dhoke Mosahib,Norhern Punajb Rawalpindi,32.8917,72.2333
48170,Dhulli,Norhern Punajb Rawalpindi,32.8667,72.2
48171,Bhagtal,Norhern Punajb Rawalpindi,32.8333,72.2333
48180,Dhermond,Norhern Punajb Rawalpindi,32.95,72.1667
48190,Leti Edso,Norhern Punajb Rawalpindi,32.029,71.2215
48200,Pachnand,Norhern Punajb Rawalpindi,32.8875,71.9947
48201,Dhoke Mail,Norhern Punajb Rawalpindi,32.6667,71.85
48210,Dhurnal,Norhern Punajb Rawalpindi,33.355,72.6106
48211,Mial,Norhern Punajb Rawalpindi,33.2253,72.7903
48220,Gatal,Norhern Punajb Rawalpindi,32.8,72.0667
48221,Balwal,Norhern Punajb Rawalpindi,32.4333,72.6
48222,Kot Qazi,Norhern Punajb Rawalpindi,32.8083,72
48223,Dhoke Sher Dast,Norhern Punajb Rawalpindi,32.8667,72.0333
48230,Danda Shah Bilawal,Norhern Punajb Rawalpindi,32.7756,71.9522
48231,Darbatta,Norhern Punajb Rawalpindi,32.7892,71.9378
48240,Changa,Norhern Punajb Rawalpindi,28.0306,66.6222
48250,Lawa,Norhern Punajb Rawalpindi,32.6972,71.9347
48251,Chakki Shaikh Jee,Norhern Punajb Rawalpindi,32.6972,71.9347
48260,Jhatla,Norhern Punajb Rawalpindi,32.8167,72.3833
48261,Shah Said Balo,Norhern Punajb Rawalpindi,32.8167,72.3833
48270,Thoha Mehrum Khan,Norhern Punajb Rawalpindi,32.775,72.2167
48271,Kurakwali,Norhern Punajb Rawalpindi,32.775,72.2167
48280,Chinji,Norhern Punajb Rawalpindi,32.7,72.3667
48281,Dhok Jhanda,Norhern Punajb Rawalpindi,32.7,72.3667
48282,Kotehra Edso,Norhern Punajb Rawalpindi,32.7,72.3667
48290,Bhilomar,Norhern Punajb Rawalpindi,32.7333,72.4333
48291,Misrial,Norhern Punajb Rawalpindi,33.0656,72.1806
48310,Dandot,Norhern Punajb Rawalpindi,32.65,72.9667
48320,Choa Saidan Shah,Norhern Punajb Rawalpindi,32.7167,72.9833
48321,Mustafabad,Norhern Punajb Rawalpindi,32.7,73.0333
48330,Dulmial,Norhern Punajb Rawalpindi,32.7333,72.9167
48331,Dheri Syden,Norhern Punajb Rawalpindi,32.7333,72.9333
48350,Wahula,Norhern Punajb Rawalpindi,32.7194,72.9333
48360,Dalwal,Norhern Punajb Rawalpindi,32.7,72.8833
48361,Badshahan,Norhern Punajb Rawalpindi,32.7,72.8833
48370,Arrar,Norhern Punajb Rawalpindi,32.7333,72.85
48371,Maghal,Norhern Punajb Rawalpindi,32.7333,72.85
48380,Hairpur,Norhern Punajb Rawalpindi,32.7194,72.9333
48400,Lehr Sultan Pur,Norhern Punajb Rawalpindi,32.7167,73.05
48401,Watli,Norhern Punajb Rawalpindi,32.7167,73.05
48410,Basharat,Norhern Punajb Rawalpindi,32.7833,73.1
48411,Lari Shah Nawaz,Norhern Punajb Rawalpindi,32.4972,73.2889
48420,Saloi,Norhern Punajb Rawalpindi,32.75,73.1
48430,Lehri Kakan,Norhern Punajb Rawalpindi,32.6236,73.1861
48490,Jand,Norhern Punajb Rawalpindi,33.4289,72.02
48500,Dhidwal,Norhern Punajb Rawalpindi,31.8614,72.3461
48510,Karriala,Norhern Punajb Rawalpindi,30.3858,70.9306
48511,Tharpali,Norhern Punajb Rawalpindi,26.3139,68.5083
48514,Bhallah,Norhern Punajb Rawalpindi,34.4578,73.3528
48520,Bhaun,Norhern Punajb Rawalpindi,32.8667,72.75
48521,Khai,Norhern Punajb Rawalpindi,31.5667,72.85
48530,Kalar Kahar,Norhern Punajb Rawalpindi,32.7833,72.7
48531,Chak Khushi,Norhern Punajb Rawalpindi,32.7667,72.7667
48540,Bharpur,Norhern Punajb Rawalpindi,32.85,72.5667
48550,Jhamrah,Norhern Punajb Rawalpindi,32.7167,72.6167
48551,Pahar Khan,Norhern Punajb Rawalpindi,25.2472,68.7819
48561,Makhial,Norhern Punajb Rawalpindi,32.6667,72.6667
48564,Dharukna,Norhern Punajb Rawalpindi,32.6176,72.8185
48570,Sarkalan,Norhern Punajb Rawalpindi,31.8614,72.3461
48580,Buchal Khurd,Norhern Punajb Rawalpindi,32.6958,72.6583
48581,Sardhi,Norhern Punajb Rawalpindi,32.6833,72.7167
48582,Wasnal,Norhern Punajb Rawalpindi,32.7167,72.55
48584,Manara,Norhern Punajb Rawalpindi,32.6958,72.6583
48590,Nur Pur,Norhern Punajb Rawalpindi,31.8614,72.3461
48591,Bhell,Norhern Punajb Rawalpindi,31.8614,72.3461
48600,Sadwal,Norhern Punajb Rawalpindi,32.8833,72.8333
48610,Murid,Norhern Punajb Rawalpindi,27.6667,68.6
48620,Bhatti Gujar,Norhern Punajb Rawalpindi,32.8667,72.6333
48621,Hatar,Norhern Punajb Rawalpindi,32.85,72.6167
48624,Dharabi,Norhern Punajb Rawalpindi,32.95,72.5333
48630,Balkasar,Norhern Punajb Rawalpindi,32.9333,72.65
48631,Pipli,Norhern Punajb Rawalpindi,32.9771,72.6093
48640,Sidher,Norhern Punajb Rawalpindi,32.7026,72.4884
48650,Thoyabahadur,Norhern Punajb Rawalpindi,32.9667,72.7167
48651,Hastal,Norhern Punajb Rawalpindi,32.9667,72.7167
48660,Oudherwal,Norhern Punajb Rawalpindi,32.7026,72.4884
48670,Mundey,Norhern Punajb Rawalpindi,32.7026,72.4884
48680,Bhagwal,Norhern Punajb Rawalpindi,33.0756,72.5958
48681,Moolwal,Norhern Punajb Rawalpindi,33.0696,72.7916
48690,Minwal,Norhern Punajb Rawalpindi,33.0483,72.8544
48691,Jamal Wal,Norhern Punajb Rawalpindi,33.0339,72.79
48700,Dhudial,Norhern Punajb Rawalpindi,33.0644,72.9733
48701,Doray,Norhern Punajb Rawalpindi,33.0703,72.9504
48710,Dhok Jhakkar,Norhern Punajb Rawalpindi,32.7922,72.6672
48720,Mangwal,Norhern Punajb Rawalpindi,33.1083,72.8256
48721,Gugh,Norhern Punajb Rawalpindi,33.1083,72.8256
48730,Nila,Norhern Punajb Rawalpindi,29.8208,69.4556
48750,Bhin,Norhern Punajb Rawalpindi,32.1167,72.3
48751,Amir Pur Mangon,Norhern Punajb Rawalpindi,32.1167,72.3
48760,Badshahan,Norhern Punajb Rawalpindi,32.7922,72.6672
48761,Mohra  Awan,Norhern Punajb Rawalpindi,32.7922,72.6672
48800,Ghazi Abad,Norhern Punajb Rawalpindi,34.2631,71.7986
48801,Joya Mair,Norhern Punajb Rawalpindi,33.0081,72.81
48830,Saigal Abad,Norhern Punajb Rawalpindi,32.162,72.95
48831,Panjian,Norhern Punajb Rawalpindi,30.6861,72.9167
48840,Chakrali,Norhern Punajb Rawalpindi,31.9333,74.6
48841,Udhwal,Norhern Punajb Rawalpindi,32.6622,72.9034
48850,Sohawa Village,Norhern Punajb Rawalpindi,32.6622,72.9034
48860,Chakbaqar Shah,Norhern Punajb Rawalpindi,32.6622,72.9034
48870,Khan Pur,Norhern Punajb Rawalpindi,32.2259,73.4694
48871,Chabbar,Norhern Punajb Rawalpindi,30.9778,74.375
48880,Duman,Norhern Punajb Rawalpindi,32.9333,73.0833
48881,Jano Khan Zada,Norhern Punajb Rawalpindi,32.1674,71.9896
48890,Pindi Gujran,Norhern Punajb Rawalpindi,32.9667,73.1167
48900,Nichindi,Norhern Punajb Rawalpindi,33.1648,73.2169
48910,Malhal Mughlan,Norhern Punajb Rawalpindi,33.0083,73.1583
48911,Jur,Norhern Punajb Rawalpindi,33.0333,73.15
48920,Chohan,Norhern Punajb Rawalpindi,33.2008,72.9883
48921,Dhodha,Norhern Punajb Rawalpindi,32.1667,74.7
49000,Dhudhi Thall,Norhern Punajb Rawalpindi,32.5408,73.0404
49020,Lilla,Norhern Punajb Rawalpindi,32.5667,72.75
49021,Kundal,Norhern Punajb Rawalpindi,32.5667,72.7
49030,Tobah,Norhern Punajb Rawalpindi,32.5833,72.8167
49031,Ahmad Abad,Norhern Punajb Rawalpindi,32.55,72.8333
49040,Pind Dadan Khan,Norhern Punajb Rawalpindi,32.5833,73.05
49041,Bhilowal,Norhern Punajb Rawalpindi,32.6167,73.0833
49050,Haran Pur,Norhern Punajb Rawalpindi,32.5408,73.0404
49051,Udowal,Norhern Punajb Rawalpindi,32.5408,73.0404
49060,Khewra,Norhern Punajb Rawalpindi,32.65,73.0167
49061,Kandwal Cpol-394,Norhern Punajb Rawalpindi,32.65,73.0167
49064,Dandot R.S. Nd,Norhern Punajb Rawalpindi,32.65,73.0167
49070,Sauwal,Norhern Punajb Rawalpindi,32.6667,73.15
49071,Wara Phaphra,Norhern Punajb Rawalpindi,31.9375,73.1167
49080,Dhariala Jalap,Norhern Punajb Rawalpindi,32.6503,73.2194
49081,Kothian Jalap,Norhern Punajb Rawalpindi,32.6528,73.2361
49090,Gharibwal Cement,Norhern Punajb Rawalpindi,32.7167,73.1722
49091,Jutana,Norhern Punajb Rawalpindi,32.7167,73.1667
49100,Piananwal,Norhern Punajb Rawalpindi,32.6639,73.3009
49101,Chak Danial,Norhern Punajb Rawalpindi,32.6667,73.2833
49110,Pindi Saidpur,Norhern Punajb Rawalpindi,32.6667,73.3333
49111,Syden Wala,Norhern Punajb Rawalpindi,30.2847,70.6174
49120,Jalal Pur Sharif,Norhern Punajb Rawalpindi,28.5611,66.1194
49121,Pipli,Norhern Punajb Rawalpindi,28.5611,66.1194
49200,Dhaiwal,Norhern Punajb Rawalpindi,32.5333,72.5333
49201,Dhoke Shah Arif,Norhern Punajb Rawalpindi,32.5333,72.5333
49210,Pari Darwaza,Norhern Punajb Rawalpindi,33.0333,73.2167
49211,Gagi Syedan,Norhern Punajb Rawalpindi,33.05,73.2167
49220,Surgdhan,Norhern Punajb Rawalpindi,33.0889,73.3083
49230,Sohawa,Norhern Punajb Rawalpindi,33.1333,73.4333
49231,Pail Mirza,Norhern Punajb Rawalpindi,33.0975,73.3303
49260,Bakrala,Norhern Punajb Rawalpindi,33.0972,73.45
49270,Rohtas,Norhern Punajb Rawalpindi,32.9667,73.5833
49280,Tarkai,Norhern Punajb Rawalpindi,33.1071,73.3145
49281,Umral,Norhern Punajb Rawalpindi,33.3061,72.9011
49300,Domeli,Norhern Punajb Rawalpindi,33.0167,73.35
49301,Raseelakhurd,Norhern Punajb Rawalpindi,32.8634,73.2222
49304,Adrana,Norhern Punajb Rawalpindi,33.3036,72.8889
49305,Kasial,Norhern Punajb Rawalpindi,32.9444,73.45
49310,Dial,Norhern Punajb Rawalpindi,32.85,73.2167
49311,Simbli Rajgan,Norhern Punajb Rawalpindi,32.8333,73.1667
49320,Baragowah,Norhern Punajb Rawalpindi,32.7262,73.4093
49321,Padhri,Norhern Punajb Rawalpindi,32.8833,73.3
49324,Nagial,Norhern Punajb Rawalpindi,32.9,73.4167
49325,Mair,Norhern Punajb Rawalpindi,32.9,73.4333
49330,Bangial,Norhern Punajb Rawalpindi,32.9167,73.4667
49331,Dhok Suba,Norhern Punajb Rawalpindi,32.725,72.825
49350,Bara Gran,Norhern Punajb Rawalpindi,32.892,73.2154
49351,Gurah,Norhern Punajb Rawalpindi,32.6417,73.4833
49360,Garh Mahal,Norhern Punajb Rawalpindi,32.9917,73.5667
49361,Gaggar Kalan,Norhern Punajb Rawalpindi,32.9833,73.55
49380,Khokha,Norhern Punajb Rawalpindi,34.3486,72.38
49381,Natian,Norhern Punajb Rawalpindi,34.3486,72.38
49390,Sagri Edso,Norhern Punajb Rawalpindi,32.892,73.2154
49400,Dina,Norhern Punajb Rawalpindi,33.0333,73.6
49401,Pind Jata,Norhern Punajb Rawalpindi,33.05,73.5667
49410,Budiar  Edso,Norhern Punajb Rawalpindi,32.9064,73.3869
49420,Baral Colony,Norhern Punajb Rawalpindi,31.4,72.6833
49421,Baral,Norhern Punajb Rawalpindi,31.4,72.6833
49430,Mangla Cantt,Norhern Punajb Rawalpindi,32.8675,70.6661
49431,Gidari,Norhern Punajb Rawalpindi,32.8675,70.6661
49450,Army Aviation Base Mangla,Norhern Punajb Rawalpindi,32.9064,73.3869
49460,Chak Akka,Norhern Punajb Rawalpindi,33.0167,73.6333
49471,Panchore,Norhern Punajb Rawalpindi,33.1278,73.5167
49490,Kala Gujran,Norhern Punajb Rawalpindi,33.18,72.9664
49491,Bhalola,Norhern Punajb Rawalpindi,32.8344,73.9146
49500,Kala,Norhern Punajb Rawalpindi,32.9833,73.7
49501,Bhirta,Norhern Punajb Rawalpindi,33.0333,73.65
49510,Maira,Norhern Punajb Rawalpindi,33.7333,73.15
49511,Ara Jasrota,Norhern Punajb Rawalpindi,33.0667,73.6833
49520,Chak Daulat,Norhern Punajb Rawalpindi,33.0167,73.75
49600,Jhelum Npo,Norhern Punajb Rawalpindi,32.9233,73.6967
49601,Kharala,Norhern Punajb Rawalpindi,32.9667,73.75
49602,Jhelum City Npo,Norhern Punajb Rawalpindi,32.9233,73.6967
49604,Jada,Norhern Punajb Rawalpindi,32.95,73.7167
49606,Jhelum Kutchery,Norhern Punajb Rawalpindi,32.9233,73.6967
49608,Tahlian Wala,Norhern Punajb Rawalpindi,32.9233,73.6967
49610,Alliance Textile Milis,Norhern Punajb Rawalpindi,32.9233,73.6967
49700,Sanghoi,Norhern Punajb Rawalpindi,32.8667,73.6
49701,Toor,Norhern Punajb Rawalpindi,32.925,73.6
49704,Malote Edso,Norhern Punajb Rawalpindi,32.9056,73.6
49710,Chotala,Norhern Punajb Rawalpindi,32.8167,73.5833
49711,Jagta,Norhern Punajb Rawalpindi,32.8167,73.5167
49720,Dhoke Bidder,Norhern Punajb Rawalpindi,32.8333,73.45
49721,Dhoke Loona,Norhern Punajb Rawalpindi,32.8333,73.45
49730,Chakri,Norhern Punajb Rawalpindi,33.2922,72.7633
49731,Darapur,Norhern Punajb Rawalpindi,29.5611,71.7444
49740,Khalas Pur,Norhern Punajb Rawalpindi,33.1569,72.0989
49741,Nakka Kalan,Norhern Punajb Rawalpindi,33.1569,72.0989
49750,Jamarghal,Norhern Punajb Rawalpindi,32.7333,73.4667
50000,Sarai Alamgir,Norhern Punajb Rawalpindi,32.9,73.75
50001,Kharka,Norhern Punajb Rawalpindi,32.85,73.6667
50010,Aurangabad,Norhern Punajb Rawalpindi,30.7833,73.0833
50020,Saadat Pur,Norhern Punajb Rawalpindi,32.8833,73.8694
50021,Pind Aziz,Norhern Punajb Rawalpindi,32.8833,73.8694
50030,Baisa,Norhern Punajb Rawalpindi,32.7254,73.6591
50040,Bulani,Norhern Punajb Rawalpindi,32.55,73.4667
50041,Charr,Norhern Punajb Rawalpindi,32.95,73.9333
50050,Khohar,Norhern Punajb Rawalpindi,32.8167,73.65
50070,Kharian Cantt.,Norhern Punajb Rawalpindi,32.7254,73.6591
50090,Kharian City,Norhern Punajb Rawalpindi,32.7667,73.8227
50091,Ruriala,Norhern Punajb Rawalpindi,32.7667,73.8227
50110,Mohri,Norhern Punajb Rawalpindi,34.9667,74.4
50120,Chak Muhammad,Norhern Punajb Rawalpindi,32.8904,73.2624
50130,Dhoria,Norhern Punajb Rawalpindi,32.7667,73.8333
50131,Kolian Habib,Norhern Punajb Rawalpindi,32.7417,73.8167
50140,Barnali,Norhern Punajb Rawalpindi,32.7167,73.8333
50141,Khonan,Norhern Punajb Rawalpindi,34.9408,72.0517
50150,Sehna,Norhern Punajb Rawalpindi,33.95,73.5
50151,Dhal Kake,Norhern Punajb Rawalpindi,32.5722,73.9181
50160,Guliana,Norhern Punajb Rawalpindi,33.2,73.2667
50161,Baghan Wala,Norhern Punajb Rawalpindi,33.2,73.2667
50170,Malka,Norhern Punajb Rawalpindi,29.5,71.1042
50171,Senthal,Norhern Punajb Rawalpindi,29.5,71.1042
50180,Thutha Rai Bahadar,Norhern Punajb Rawalpindi,32.8904,73.2624
50181,Pind Junja,Norhern Punajb Rawalpindi,32.8904,73.2624
50190,Anjan Kasana,Norhern Punajb Rawalpindi,32.8904,73.2624
50200,Lala Musa,Norhern Punajb Rawalpindi,32.6889,73.9611
50201,Chandala,Norhern Punajb Rawalpindi,31.9567,74.2794
50211,Dalibanth,Norhern Punajb Rawalpindi,32.5992,73.788
50220,National Wood Industries Lala Musa,Norhern Punajb Rawalpindi,32.724,73.9111
50221,Jatria Kalan,Norhern Punajb Rawalpindi,32.7167,73.9028
50230,Machiwal,Norhern Punajb Rawalpindi,31.3833,72.0833
50250,Jaurah,Norhern Punajb Rawalpindi,32.6667,73.8333
50251,Dhakran Wali,Norhern Punajb Rawalpindi,32.3111,73.6833
50260,Sikariali,Norhern Punajb Rawalpindi,32.6167,73.8167
50270,Karariwala Kalan,Norhern Punajb Rawalpindi,32.6833,73.8
50280,Dinga,Norhern Punajb Rawalpindi,32.6333,73.7167
50281,Attowala,Norhern Punajb Rawalpindi,32.7,73.7833
50300,Pahrianwali,Norhern Punajb Rawalpindi,32.4833,73.7667
50301,Hegar Wala Kalan,Norhern Punajb Rawalpindi,32.45,73.7667
50310,Chak Jano Khurd,Norhern Punajb Rawalpindi,32.45,73.7167
50330,B.G.Pur,Norhern Punajb Rawalpindi,32.7934,73.458
50331,Dhok Kasab,Norhern Punajb Rawalpindi,32.5667,73.6333
50340,Amra Kalan,Norhern Punajb Rawalpindi,32.6667,73.6667
50350,Chak No.1 (Cpol-45),Norhern Punajb Rawalpindi,31.9,73.3111
50354,Murala,Norhern Punajb Rawalpindi,32.5333,73.6333
50355,Makhnan Wali,Norhern Punajb Rawalpindi,31.5833,73.15
50360,Chellian Wala,Norhern Punajb Rawalpindi,32.6333,73.55
50361,Chak Fateh Shah,Norhern Punajb Rawalpindi,32.6333,73.55
50370,Rasul,Norhern Punajb Rawalpindi,32.7,73.5667
50371,Rasul Dhapai,Norhern Punajb Rawalpindi,32.7,73.5667
50390,Mong,Norhern Punajb Rawalpindi,32.65,73.5167
50400,Mandi Bahauddin Npo,Norhern Punajb Rawalpindi,32.654,73.5457
50401,Shaheedan Wali,Norhern Punajb Rawalpindi,32.654,73.5457
50410,Mangat,Norhern Punajb Rawalpindi,33.0167,73.2167
50411,Jhulana,Norhern Punajb Rawalpindi,32.5333,73.4833
50420,Wapda Colony (Mandi Bahauddin),Norhern Punajb Rawalpindi,32.3739,73.5318
50430,Phalia,Norhern Punajb Rawalpindi,32.4333,73.5833
50431,Saida,Norhern Punajb Rawalpindi,32.35,73.5167
50440,Helan,Norhern Punajb Rawalpindi,32.4833,73.6667
50441,Kot Rehm Shah,Norhern Punajb Rawalpindi,32.4667,73.65
50450,Dharkan Kalan,Norhern Punajb Rawalpindi,32.3739,73.5318
50451,Baghsar,Norhern Punajb Rawalpindi,32.3739,73.5318
50460,Kadirabad,Norhern Punajb Rawalpindi,32.2454,73.9796
50461,Korey Karam Shah,Norhern Punajb Rawalpindi,32.2454,73.9796
50470,Sohawa Bulani,Norhern Punajb Rawalpindi,32.55,73.4667
50471,Chak 14,Norhern Punajb Rawalpindi,32.0026,73.3478
50480,Kathiala Sheikhan,Norhern Punajb Rawalpindi,32.4667,73.4167
50481,Busal Masoor,Norhern Punajb Rawalpindi,31.8875,73.4375
50490,Mianwali,Norhern Punajb Rawalpindi,31.8833,73.1
50491,Anney Sharif,Norhern Punajb Rawalpindi,32.3722,73.4167
50500,G.C.T.,Norhern Punajb Rawalpindi,31.4129,72.3413
50510,Rukkan,Norhern Punajb Rawalpindi,32.4167,73.2667
50511,Daffar,Norhern Punajb Rawalpindi,27.5903,67.9097
50520,Matsonabad,Norhern Punajb Rawalpindi,32.4694,73.2556
50521,Chak 18,Norhern Punajb Rawalpindi,29.7547,71.9647
50531,Sahna,Norhern Punajb Rawalpindi,32.55,73.35
50550,Kallas Sharif,Norhern Punajb Rawalpindi,32.5667,73.1667
50551,Chak Nizam,Norhern Punajb Rawalpindi,32.5667,73.1667
50560,Mona Remount Depot,Norhern Punajb Rawalpindi,32.4,73.1
50561,Pind Makko,Norhern Punajb Rawalpindi,32.4,73.1
50580,Miana Gondal,Norhern Punajb Rawalpindi,32.3722,73.1508
50581,Chak 45,Norhern Punajb Rawalpindi,31.87,73.1997
50600,Basco,Norhern Punajb Rawalpindi,32.5944,73.9722
50601,Dittowal,Norhern Punajb Rawalpindi,32.5944,73.9722
50610,Khokhar Gharbi,Norhern Punajb Rawalpindi,32.4832,73.9092
50620,Unjah,Norhern Punajb Rawalpindi,32.5521,73.9451
50621,Jassoki,Norhern Punajb Rawalpindi,32.5521,73.9451
50630,Saroki,Norhern Punajb Rawalpindi,32.4832,73.9092
50640,Mangowal,Norhern Punajb Rawalpindi,32.4833,73.9
50641,Gakhra Kalan,Norhern Punajb Rawalpindi,32.5042,73.8417
50660,Jokalian,Norhern Punajb Rawalpindi,32.4,73.7833
50661,Kabligate,Norhern Punajb Rawalpindi,32.4114,73.8489
50670,Lala Chak,Norhern Punajb Rawalpindi,32.6306,74.2389
50680,Shadiwal,Norhern Punajb Rawalpindi,32.5167,74.0333
50681,Power House,Norhern Punajb Rawalpindi,32.4861,74.0222
50700,Gujrat G.P.O.,Norhern Punajb Rawalpindi,31.8758,73.1878
50701,Kathala,Norhern Punajb Rawalpindi,32.5167,74.1
50730,Adowal,Norhern Punajb Rawalpindi,32.6167,73.1833
50750,Sabowal,Norhern Punajb Rawalpindi,32.1667,72.35
50760,Moinuddin Pur,Norhern Punajb Rawalpindi,32.1968,73.5503
50764,Sheikh Pur,Norhern Punajb Rawalpindi,32.1968,73.5503
50770,Sook Kalan,Norhern Punajb Rawalpindi,32.1968,73.5503
50780,Jalal Pur Jattan,Norhern Punajb Rawalpindi,32.6083,74.1553
50781,Bawah,Norhern Punajb Rawalpindi,32.6083,74.1553
50800,Lakhan Wal,Norhern Punajb Rawalpindi,32.3064,74.0365
50801,Chopala,Norhern Punajb Rawalpindi,32.6333,74.3333
50810,Tanda,Norhern Punajb Rawalpindi,33.79,70.8067
50811,Barila,Norhern Punajb Rawalpindi,32.75,74.4
50820,Bhagowal Kalan,Norhern Punajb Rawalpindi,32.6439,74.2724
50830,Karianwala,Norhern Punajb Rawalpindi,32.75,74.2833
50831,Khan Pur Khokhar,Norhern Punajb Rawalpindi,32.7556,74.3278
50840,Chak Kamala,Norhern Punajb Rawalpindi,32.7111,74.3042
50841,Baroo,Norhern Punajb Rawalpindi,32.7111,74.3042
50860,Ajnala,Norhern Punajb Rawalpindi,32.8,74.25
50870,Awan Sharif,Norhern Punajb Rawalpindi,32.6439,74.2724
50880,Kawankh,Norhern Punajb Rawalpindi,32.6439,74.2724
50881,Jalalpur Sobthian,Norhern Punajb Rawalpindi,32.6439,74.2724
50890,Hajiwala,Norhern Punajb Rawalpindi,32.7333,74.2333
50891,Santhel,Norhern Punajb Rawalpindi,32.8444,74.1889
50900,Fateh Pur,Norhern Punajb Rawalpindi,32.3097,73.7738
50901,Chaudowal,Norhern Punajb Rawalpindi,32.3097,73.7738
50910,Daulat Nagar,Norhern Punajb Rawalpindi,32.7472,74.0833
50911,Khori Donna Singh,Norhern Punajb Rawalpindi,32.7715,74.0424
50920,Makiana,Norhern Punajb Rawalpindi,32.6833,74.0667
50930,Buzurg Wal,Norhern Punajb Rawalpindi,32.8,74.0667
50931,Sabour,Norhern Punajb Rawalpindi,32.8,74.0667
50940,Bhakhre Wali,Norhern Punajb Rawalpindi,32.3097,73.7738
50950,Pero Shah,Norhern Punajb Rawalpindi,32.7569,74.1611
50960,Bhota,Norhern Punajb Rawalpindi,32.7667,74.0167
50961,Jakhar,Norhern Punajb Rawalpindi,29.1046,72.1407
50970,Burch Basuha,Norhern Punajb Rawalpindi,30.9833,72.85
50971,Ladian,Norhern Punajb Rawalpindi,30.9833,72.85
50980,Kakrali,Norhern Punajb Rawalpindi,32.8333,74.0833
50981,Rajuwal,Norhern Punajb Rawalpindi,32.8167,74.1
50990,Kotla,Norhern Punajb Rawalpindi,33.2194,73.9639
50991,Kharana,Norhern Punajb Rawalpindi,32.8472,74.1722
50992,Sadwal Kalan,Norhern Punajb Rawalpindi,32.9194,74.0156
51010,Daska,Lahore,32.3333,74.35
51011,Salloki,Lahore,32.6918,73.6911
51020,Jamki,Lahore,32.3833,74.4
51021,Rajuke,Lahore,30.8213,72.1431
51030,Bhopal Wala,Lahore,32.3944,74.341
51031,Pasia,Lahore,32.4042,74.3347
51040,Ghunike,Lahore,27.6472,69.9938
51041,Beer,Lahore,24.0944,67.4542
51050,Ugoki,Lahore,32.4833,74.45
51051,Moman Kalan,Lahore,32.5319,74.3981
51060,Sahowala,Lahore,32.45,74.4167
51070,Mandi Sambrial  Nd,Lahore,32.4667,74.35
51071,Kotli Noona,Lahore,32.4667,74.35
51080,Begowala,Lahore,32.4333,74.2667
51081,Gojra,Lahore,32.3833,74.2833
51090,Ghartal,Lahore,32.4,74.3
51091,Thakra Meh,Lahore,32.4188,74.309
51100,Jatheki,Lahore,32.5106,74.2907
51101,Hadoke,Lahore,32.5106,74.2907
51120,Mundair Syyioan,Lahore,32.4231,74.3611
51121,Gunjan Wali,Lahore,32.4231,74.3611
51130,Kullowal,Lahore,32.4231,74.3611
51140,Mundeke,Lahore,32.3,74.4333
51141,Rani Key,Lahore,32.2833,74.5
51200,Marala,Lahore,32.7833,73.8833
51201,Chak Rala,Lahore,32.7833,73.8833
51210,Kotli Loharan East,Lahore,32.7222,74.417
51220,Kotli Loharan West,Lahore,32.7222,74.417
51230,Maraki Wal,Lahore,32.7222,74.417
51240,Kharota Syedan,Lahore,32.7222,74.417
51250,Bhirth,Lahore,32.7222,74.417
51260,Bhoth,Lahore,32.5333,74.5667
51261,Kan Pur,Lahore,32.8306,74.2514
51270,Chaprar,Lahore,32.6333,74.6333
51280,Phuklian,Lahore,32.7333,74.6167
51281,Chak Santhal,Lahore,32.7167,74.5667
51300,Regimental Bazar   Nd,Lahore,32.55,74.5167
51301,Ballan Wala,Lahore,32.55,74.5167
51310,Ramtalai Nd,Lahore,32.4228,74.2898
51311,Kotli Amir Ali,Lahore,32.45,74.4792
51330,Kotli Behram,Lahore,32.4319,74.306
51340,Small Insutries Estate,Lahore,32.4319,74.306
51350,Fateh Garh,Lahore,32.4319,74.306
51360,Gohadapur Muradpur,Lahore,32.4319,74.306
51400,Lengriali,Lahore,32.2327,74.5669
51410,Badiana,Lahore,32.3667,74.6167
51411,Purab Kaleer,Lahore,32.3667,74.6167
51420,Chawinda,Lahore,32.35,74.7
51421,Jhatoke,Lahore,32.12,74.27
51430,Mahrajke,Lahore,32.4667,74.8
51431,Khanoor,Lahore,32.4667,74.8
51450,Chobara,Lahore,32.4,74.7833
51451,Paktal,Lahore,32.2117,74.7635
51460,Khan Pur Syedan,Lahore,32.2327,74.5669
51461,Sabzkot,Lahore,32.2327,74.5669
51480,Pasrur,Lahore,32.2667,74.6667
51481,Pejoke,Lahore,32.675,74.2847
51490,Ban Bajwa,Lahore,32.2833,74.5667
51500,Satrah,Lahore,32.1833,74.5167
51501,Change,Lahore,32.15,74.5333
51510,Wadala Sandhuan,Lahore,32.1833,74.4
51520,Nowshera Kakezian,Lahore,31.7546,74.1538
51530,Kalas Wala,Lahore,32.1583,74.6667
51531,Thatta Bawa,Lahore,32.1667,74.6833
51540,Kila Sobha Singh,Lahore,32.2333,74.7667
51541,Bagh Bajwa,Lahore,32.2583,74.8167
51560,Qila Sooba Singh,Lahore,32.0616,74.5375
51561,Manga,Lahore,32.0667,74.5667
51570,Talwandi Bhindran,Lahore,32.1,74.7
51571,Malook Pur,Lahore,32.1069,74.6653
51580,Nonar,Lahore,26.6444,67.6611
51600,Narowal G.P.O.,Lahore,30.9434,72.2562
51601,Pakhoke,Lahore,30.9042,74.1194
51650,Sankhatra,Lahore,32.2333,74.9167
51651,Pindi Amoluck,Lahore,32.2389,74.9611
51660,Dhamthal,Lahore,32.7472,74.3
51670,Zafar Wal,Lahore,32.7713,74.1931
51671,Malla,Lahore,34.05,73.1
51680,Jabbal,Lahore,28.2278,68.05
51700,Badomali,Lahore,31.75,73.3833
51701,Bathan Wala,Lahore,32.0556,74.65
51750,Jassar,Lahore,32.1,74.95
51751,Kakkay Kay,Lahore,32.1,74.95
51760,Kanjrur,Lahore,32.15,75
51761,Mandiala,Lahore,32.857,74.3817
51770,Nurkot,Lahore,32.2,75.1167
51771,Fateh Pur,Lahore,32.2139,75.0694
51780,Baramanga,Lahore,32.15,75.2
51781,Bhikho Chak,Lahore,32.15,75.2
51800,Shakar Garh,Lahore,32.6084,74.5803
51801,Basra Jala,Lahore,32.6084,74.5803
51820,Naina Kot,Lahore,32.2333,75.2833
51821,Karwal,Lahore,32.2167,75.3167
51830,Ikhlaspur,Lahore,32.2667,75.3167
51840,Sukho Chak,Lahore,32.3833,75.2
51841,Chhamal,Lahore,32.35,75.2167
52000,Wazirabad,Lahore,32.45,74.1167
52001,Laveri Wala,Lahore,32.4417,74.1028
52020,Nizam Abad,Lahore,32.0914,73.4276
52030,Sohdra,Lahore,32.4667,74.1833
52031,Tal Wara,Lahore,32.4667,74.1833
52050,Khanki,Lahore,32.4,73.9833
52051,Kakka Kaula,Lahore,31.1833,72.6333
52060,Jamke Chatha,Lahore,32.3333,73.9
52061,Dilawar Cheema,Lahore,31.7899,72.7164
52070,Ahmad Nagar,Lahore,32.25,73.975
52071,Kalaske,Lahore,32.2333,74.0167
52074,Kalaskey,Lahore,32.25,73.975
52080,Ali Pur Chatha,Lahore,32.225,73.7833
52081,Hazrat Kailian Wala,Lahore,32.225,73.7833
52090,Rasul Nagar,Lahore,32.2872,72.8231
52091,Rukh Singh Pura,Lahore,32.2872,72.8231
52100,Qadir Abad Colony,Lahore,32.2261,73.8144
52101,Ramke,Lahore,32.1611,74.3972
52104,Wanike Tarar,Lahore,32.2167,73.5833
52110,Hafiz Abad,Lahore,32.8458,70.7547
52111,Jalil Town,Lahore,32.1037,73.7321
52140,Kassoki,Lahore,31.9794,73.7397
52150,Kaleke,Lahore,31.9794,73.5872
52151,Nahrianwala,Lahore,31.9358,73.6117
52160,Sukhe-Ke Mandi,Lahore,31.9181,73.4527
52161,Udhoke,Lahore,31.9181,73.4527
52170,Jalalpur Nau,Lahore,32.0667,73.3833
52171,Kasso Key,Lahore,32.0583,73.4
52180,Pindi Bhatian,Lahore,31.9,73.2667
52181,Ghabrika,Lahore,31.9417,73.4167
52200,Ghakhar,Lahore,32.3,74.15
52201,Sohian,Lahore,32.2806,74.2417
52220,Mitran Wali,Lahore,32.3667,74.2333
52221,Phungat,Lahore,32.3639,74.2444
52230,Gujranwala Cantt,Lahore,32.2187,74.2218
52250,Gujranwala G.P.O.,Lahore,32.036,74.2524
52251,Feroz Wala,Lahore,32.14,74.2414
52254,Wahdat Colony,Lahore,31.5161,74.3075
52280,Talwandi Rahwali,Lahore,32.25,74.1667
52290,Climax Abad,Lahore,32.2187,74.2218
52300,Anwar Industries,Lahore,32.3833,73.6976
52301,Sansura Goraya,Lahore,32.3833,73.6976
52310,Gondlan Wala,Lahore,32.225,74.0722
52311,Kot Bare Khan,Lahore,32.225,74.0722
52320,Ladhe Wala Karaich,Lahore,32.3833,73.6976
52321,Bhakhre Wali Kalan,Lahore,32.3833,73.6976
52330,Qila Didar Singh,Lahore,32.1333,74.0167
52331,Philo Ke,Lahore,32.1833,74.0278
52340,Botala Sardar Jhanda Sing,Lahore,32.3833,73.6976
52341,Kot Jahangeer,Lahore,32.3833,73.6976
52360,Qila Mian Singh,Lahore,31.3667,73.9236
52361,Jajoke,Lahore,35.8192,71.6464
52370,Naushera Virkan,Lahore,31.9056,73.9608
52371,Karial Bagh Wala,Lahore,31.9056,73.9608
52380,Tatley Aali Apo,Lahore,32.3833,73.6976
52400,Aroop,Lahore,32.2333,74.2417
52401,Lamban Wali,Lahore,32.2333,74.2417
52410,Nizam Pur,Lahore,32.2667,74.2833
52411,Othian,Lahore,32.2667,74.2833
52450,Emin Abad More,Lahore,32.0244,74.2516
52451,Chian Wali,Lahore,32.0244,74.2516
52460,Emin Abad,Lahore,32.0371,74.4398
52461,Kotli Nawab,Lahore,32.05,74.3431
52470,Kamo Ke,Lahore,31.9356,74.156
52471,Kolo Tarar,Lahore,31.9356,74.156
53000,Unico,Lahore,31.4425,73.883
53100,Khana Nau,Lahore,31.3692,74.3653
53101,Lakhoki,Lahore,31.4086,74.3919
53200,Barki,Lahore,31.0478,74.085
53201,Bauli Camp,Lahore,30.86,73.4458
53300,Padhana,Lahore,31.4681,74.6225
53400,Baghbanpura N.P.O.,Lahore,33.2382,72.8347
53401,Jallo,Lahore,33.7597,72.6528
53700,Niaz Beg Thokar,Lahore,31.4425,73.883
53701,Mehdi Pur,Lahore,31.4425,73.883
53800,Chung,Lahore,31.4331,74.1742
53801,Maraka,Lahore,31.3842,74.1572
54000,Lahore G.P.O.,Lahore,31.4888,74.3686
54500,Multan Road,Lahore,31.4888,74.3686
54550,Pt & T Audit,Lahore,31.4888,74.3686
54560,Peoples Colony,Lahore,31.4888,74.3686
54590,New University Campus,Lahore,31.4888,74.3686
54600,Ferozepur Road,Lahore,31.4888,74.3686
54650,Secondary Board,Lahore,31.4888,74.3686
54660,Gulberg-Iii,Lahore,31.4888,74.3686
54700,Faisal Town,Lahore,31.4778,74.3083
54770,Township Sector A-1,Lahore,31.4811,74.3164
54781,Azad Kot,Lahore,31.4811,74.3164
54792,Defence Housing Society,Lahore,31.4811,74.3164
54800,C.M.A. Cantt.,Lahore,31.5761,74.4247
54810,Lahore Cantt. G.P.O.,Lahore,31.5761,74.4247
54840,Moghalpura,Lahore,31.5761,74.4247
54850,Harbanspura,Lahore,31.5761,74.4247
54880,Punjab Governor House,Lahore,31.5761,74.4247
54890,Engineering University,Lahore,31.5761,74.4247
54900,Chah Miran,Lahore,31.4649,74.3846
54920,Baghbanpura,Lahore,31.2242,74.0997
54921,Manhala,Lahore,31.5333,74.55
54950,Shahdara Bagh,Lahore,31.4649,74.3846
54951,Rana Town,Lahore,31.4649,74.3846
55000,Kanganpur,Lahore,30.7667,74.1333
55001,Landian Wala,Lahore,31.6253,74.0843
55010,Usman Wala,Lahore,30.9333,74.3667
55011,Kull,Lahore,30.9,74.2
55030,Khudian,Lahore,30.9833,74.2833
55031,Said Pur,Lahore,30.9773,74.2692
55050,Kasur G.P.O.,Lahore,31.0781,74.4777
55051,Bhedian,Lahore,30.9667,74.4556
55110,Mustafabad,Lahore,31.5503,74.3647
55111,Sir Hali Kalan,Lahore,30.7397,73.2531
55150,Raiwind,Lahore,31.2544,74.2178
55151,Jia Bagga,Lahore,31.3286,74.2906
55180,Kot Radha Kishan,Lahore,31.1725,74.0997
55181,Zaffar Ke,Lahore,30.9212,73.6712
55190,Clarkabad,Lahore,31.1789,74.1503
55200,Chhanga Manga,Lahore,31.0833,73.9667
55201,Wan Khara,Lahore,31.05,73.95
55220,Chunian,Lahore,30.9667,73.9833
55221,Gujan Singh Wala,Lahore,33,73.7333
55250,Jamber Kalan,Lahore,31.3437,73.9535
55260,Bhai Pheru,Lahore,31.2,73.95
55261,Natha Khalsa,Lahore,31.2,73.95
55270,Manga Mandi,Lahore,31.3044,74.0636
55271,Mudke,Lahore,31.2511,74.0644
55300,Pattoki,Lahore,31.0167,73.85
55301,Jaguwala Chak-40,Lahore,31.1004,73.8672
55360,Wan Radha Ram,Lahore,30.95,73.75
55361,Sehjowal,Lahore,31.0567,73.6892
56000,Hira Singh,Lahore,30.4964,73.4572
56001,Fazal Abad,Lahore,34.2936,71.8736
56010,Basir Pur,Lahore,30.5521,73.8979
56011,Dar-Ul-Aloom Hanfia,Lahore,30.5521,73.8979
56020,Haveli Lakkha,Lahore,30.4593,73.1634
56021,Pir Ghani,Lahore,30.3667,73.6
56030,Sulemanki Head Works,Lahore,30.4964,73.4572
56031,Kamal Kot,Lahore,30.4964,73.4572
56100,Akhtar Abad,Lahore,30.831,73.696
56101,Chak 17/1-Al,Lahore,30.831,73.696
56130,Renala Khurd,Lahore,30.8833,73.6
56131,Chak 7/1-R,Lahore,31.1129,73.5513
56140,Sher Garh,Lahore,30.831,73.696
56141,Agricultural Farm,Lahore,30.831,73.696
56150,Anwar Shaheed Colony Renala Khurd,Lahore,30.831,73.696
56151,Chak 14/1-L,Lahore,30.831,73.696
56170,Hujra,Lahore,30.7333,73.8167
56171,Bhaike Lal Chand,Lahore,30.7722,73.8625
56180,Depalpur,Lahore,30.6759,73.5954
56181,Ratta Khanna,Lahore,30.7,73.6667
56200,Gogera,Lahore,30.1167,72.65
56201,Mardani,Lahore,30.1167,72.65
56250,Baba Farid Suger Mill,Lahore,30.9167,73.5167
56251,Chak 25/2r,Lahore,30.9167,73.5167
56290,Jaboka,Lahore,30.9606,73.4528
56291,Mirak,Lahore,27.2556,68.3528
56300,Okara G.P.O.,Lahore,30.8662,73.3353
56301,Akbar,Lahore,30.8989,73.2869
56350,Military Farms Okara,Lahore,30.8662,73.3353
56400,Okara Contonment,Lahore,30.7411,73.5332
56401,Chak 64/4-R.,Lahore,30.7411,73.5332
56410,Ammunation Depot,Lahore,30.7411,73.5332
56411,Chak 34/4-L,Lahore,30.7411,73.5332
56451,Chak 20/2-L,Lahore,30.7411,73.5332
57000,Sahiwal G.P.O.,Lahore,30.5167,71.7889
57001,Muhammadpur,Lahore,30.4806,72.0667
57030,Chak 91/6-R,Lahore,30.276,71.9892
57031,Chak 9/11l,Lahore,30.276,71.9892
57051,Jamman Shah,Lahore,29.1875,71.1625
57070,Chak No.85/6r Kot Khadim Ali Shah,Lahore,30.276,71.9892
57071,Chak Bhawani,Lahore,30.276,71.9892
57080,Noor  Shah,Lahore,30.8833,73.2167
57081,Tibbi Jai Singh,Lahore,30.8833,73.2167
57110,Malka Hans,Lahore,30.4167,73.2833
57111,Chak Dhapai,Lahore,30.4167,73.3333
57130,Chak 120/9-L,Lahore,30.4167,73.3083
57131,Dillu Wala,Lahore,30.4167,73.3083
57160,Harappa Rs.,Lahore,30.4167,73.3083
57161,Chak 137/9-L,Lahore,30.4167,73.3083
57170,Harappa City,Lahore,30.4167,73.3083
57171,Chak 100/A-6-R,Lahore,30.4167,73.3083
57180,Chak 145/9-L,Lahore,30.4167,73.3083
57181,Chak 160/9-L,Lahore,30.4167,73.3083
57200,Chichawatni,Lahore,30.5333,72.7
57201,Chak 12/11-L,Lahore,30.5333,72.7
57210,Ghazi Abad,Lahore,34.2631,71.7986
57211,Chak 20/11-L,Lahore,30.5333,72.7
57231,Chak 165/9-L,Lahore,30.5333,72.7
57300,Kassowal,Lahore,30.5389,72.55
57301,Chak 99/12-L,Lahore,30.7667,72.8
57330,Chak 120/13-Al,Lahore,30.6528,72.675
57340,Chak 119/13-Al,Lahore,30.6528,72.675
57350,Iqbal Nagar,Lahore,32.0917,73.7903
57351,Chak 90/12-L,Lahore,30.6528,72.675
57400,Pak Pattan Sharif,Lahore,30.4253,73.2681
57401,Kot Hira Singh,Lahore,30.3333,73.2167
57440,Chak Bedi,Lahore,30.4833,73.5
57441,Boyle Ganj,Lahore,30.5,73.5167
57450,Chak Shafi,Lahore,32.6361,73.0722
57451,Hota,Lahore,30.1833,73.2
57470,Al-Jamia,Lahore,30.4753,73.2174
57480,Qabula,Lahore,30.1833,73.0667
57481,Chak 19/Kb,Lahore,30.15,73.1208
58000,Mian Channu,Souhern Punajb Mulan,30.45,72.3667
58001,Chak No.20/8-B.R,Souhern Punajb Mulan,30.45,72.3667
58030,Mian Channu R.S.,Souhern Punajb Mulan,30.4917,72.3
58031,Bangla Canal Chhab,Souhern Punajb Mulan,30.4917,72.3
58040,Chak No.102/15-L,Souhern Punajb Mulan,30.4917,72.3
58041,Chak No.92/15-L,Souhern Punajb Mulan,30.4917,72.3
58080,Talamba,Souhern Punajb Mulan,30.5333,72.2333
58081,Rotla,Souhern Punajb Mulan,30.55,72.2667
58100,Kacha Khuh,Souhern Punajb Mulan,30.6148,72.1252
58101,Chak No.45/10-R,Souhern Punajb Mulan,30.6148,72.1252
58110,Hanumangarh,Souhern Punajb Mulan,30.4167,72.1333
58111,Chak 10/8 R,Souhern Punajb Mulan,30.4167,72.1333
58120,Ammunition Depot,Souhern Punajb Mulan,30.6148,72.1252
58150,Khanewal Npo,Souhern Punajb Mulan,30.3,71.85
58151,Shamkot,Souhern Punajb Mulan,30.3,71.85
58170,Makhdumpur Pahooran,Souhern Punajb Mulan,30.6148,72.1252
58171,Chak No.13/8-R,Souhern Punajb Mulan,30.6148,72.1252
58180,Abdul Hakim,Souhern Punajb Mulan,30.55,72.1167
58181,Din Pur,Souhern Punajb Mulan,30.7665,72.2942
58190,Sarai Sidhu,Souhern Punajb Mulan,30.6,71.9667
58191,Baqir Purl-5932,Souhern Punajb Mulan,30.6,71.8833
58200,Jahania,Souhern Punajb Mulan,30.0333,71.8167
58201,Vehniwal,Souhern Punajb Mulan,30.0875,71.9208
58210,Thatta Sadiqabad,Souhern Punajb Mulan,30.5124,72.1099
58211,Gulshan Mills,Souhern Punajb Mulan,30.5124,72.1099
58220,Chak 136/10-R,Souhern Punajb Mulan,30.5124,72.1099
58221,Chak 123-10-R,Souhern Punajb Mulan,30.5124,72.1099
58250,Kabir Wala,Souhern Punajb Mulan,30.5083,71.9444
58251,Mulepur,Souhern Punajb Mulan,30.3833,71.8333
58260,Kohiwala,Souhern Punajb Mulan,30.35,71.7667
58261,Haji Pur,Souhern Punajb Mulan,30.4333,71.7167
58264,Jawind Singhwala L-1183,Souhern Punajb Mulan,30.8219,72.6015
58265,Kot Mulchand,Souhern Punajb Mulan,31.6825,74.3211
58270,Kukkar Hatta,Souhern Punajb Mulan,30.5124,72.1099
58271,Thullnbajeeb  L-5856,Souhern Punajb Mulan,30.5124,72.1099
59000,Kadirpur Rawan,Souhern Punajb Mulan,31.1278,72.0514
59001,Basti Jalwala,Souhern Punajb Mulan,31.1278,72.0514
59020,Tatepur,Souhern Punajb Mulan,30.2333,71.65
59021,Sanda Ghulam Hussain,Souhern Punajb Mulan,30.0564,71.9451
59030,Piran Ghaib,Souhern Punajb Mulan,30.2,71.5667
59060,Fertilizer Project,Souhern Punajb Mulan,30.0333,71.4833
59061,Jahangirabad,Souhern Punajb Mulan,30.0333,71.4833
59070,Suraj Miani,Souhern Punajb Mulan,30.2197,71.435
59071,Lutafabad,Souhern Punajb Mulan,30.3981,71.5963
59100,Makhdum Rashid,Souhern Punajb Mulan,30.0833,71.65
59101,Chak 8/Mr,Souhern Punajb Mulan,28.7431,70.6222
59110,Kutabpur,Souhern Punajb Mulan,29.9,71.7667
59111,Chak 319/Wb,Souhern Punajb Mulan,29.9,71.8333
59130,Lar,Souhern Punajb Mulan,32.9611,73.8833
59131,Qadir Pur Lar,Souhern Punajb Mulan,32.9611,73.8833
59140,Ayazabad Marhal,Souhern Punajb Mulan,30.5278,72.2556
59141,Ghazi Panda,Souhern Punajb Mulan,30.5333,72.3
59200,Ismailabad,Souhern Punajb Mulan,30.1333,71.35
59201,Usmanabad,Souhern Punajb Mulan,24.8667,67.0167
59210,Sikandar Abad,Souhern Punajb Mulan,29.6436,71.2511
59211,Khokhar,Souhern Punajb Mulan,32.65,74.0828
59220,Shujabad,Souhern Punajb Mulan,30.4833,72.5833
59221,Manzoor Abad,Souhern Punajb Mulan,30.1569,71.5701
59240,Matotli,Souhern Punajb Mulan,29.7667,71.3333
59241,Sheikhpur Shijra,Souhern Punajb Mulan,29.6833,71.35
59250,Jalalpur Pirwala,Souhern Punajb Mulan,29.5,71.2167
59251,Chak No.73/M,Souhern Punajb Mulan,30.5917,72.3764
59300,Bahadar Pur,Souhern Punajb Mulan,29.8257,71.8627
59310,Kotali Nijabat,Souhern Punajb Mulan,30.2431,72.0562
59311,Rawani,Souhern Punajb Mulan,30.3,71.7333
59320,Lodhran,Souhern Punajb Mulan,29.5333,71.6333
59321,Chak No.49/M,Souhern Punajb Mulan,29.9538,71.7587
59340,Kahror Pakka,Souhern Punajb Mulan,29.6167,71.9167
59341,Bahawal Garh,Souhern Punajb Mulan,29.6207,71.9488
60000,Multan G.P.O.,Souhern Punajb Mulan,30.1599,71.5189
60001,Basti Jhal Pur,Souhern Punajb Mulan,30.1599,71.5189
60550,New Central Jail,Souhern Punajb Mulan,30.1599,71.5189
60600,Mumtaz Abad,Souhern Punajb Mulan,30.1,71.5667
60601,Gulzarpur,Souhern Punajb Mulan,30.1,71.5667
60650,New Multan,Souhern Punajb Mulan,30.1,71.5667
60700,Gulgasht Colony,Souhern Punajb Mulan,30.2197,71.4711
60750,Secondary Board,Souhern Punajb Mulan,30.2197,71.4711
60800,Jamhoor Textile Mills,Souhern Punajb Mulan,30.1599,71.5189
60801,Chak 132/15-L,Souhern Punajb Mulan,30.1599,71.5189
60900,Industrial Estate,Souhern Punajb Mulan,30.1599,71.5189
60901,Hamid Pur,Souhern Punajb Mulan,30.1599,71.5189
60950,Khudadad Colony,Souhern Punajb Mulan,30.1599,71.5189
61000,Gaggo,Lahore,30.2167,72.8333
61001,Chak 195/Eb,Lahore,30.075,72.8889
61010,Burewala,Lahore,30.3944,72.9194
61011,Muhammad Nagar,Lahore,30.4167,72.7833
61050,Dawood Abad,Lahore,30.0083,72.7417
61051,Sahuka,Lahore,30.0167,72.8167
61060,Chak No 273/E.B.(A.P.O.),Lahore,30.1866,72.8181
61070,Machhian Wala,Lahore,30.1866,72.8181
61071,Chak 539 Eb,Lahore,30.1866,72.8181
61100,Vehari G.P.O.,Lahore,30.5764,72.294
61101,Qadirabad,Lahore,30.8583,72.3444
61120,Vehari Peoples Colony,Lahore,30.3571,71.9948
61121,Chak 87/Wb,Lahore,30.3571,71.9948
61140,Shitab Garh,Lahore,30.3571,71.9948
61150,Garaha More,Lahore,30.0958,71.025
61151,Wanwala,Lahore,30.0958,71.025
61160,Mitru,Lahore,29.9606,72.0672
61170,Tiba Sultan Pur,Lahore,30.3571,71.9948
61171,Chak No.122/Wb,Lahore,30.3571,71.9948
61180,Dokota,Lahore,30.3571,71.9948
61181,Chak 107/Wb,Lahore,30.3571,71.9948
61200,Mailsi,Lahore,29.8003,72.1758
61201,Khan Pur,Lahore,29.8003,72.1758
61210,Mailsi Colony,Lahore,28.7295,71.2607
61220,Karampur,Lahore,24.5867,67.82
61230,Jalla Jim,Lahore,29.7172,72.1326
61231,Fatehpur,Lahore,29.6678,72.1486
61240,Sardar Pur Jhandeer,Lahore,29.8261,72.0425
61241,Kot Haru,Lahore,29.8261,72.0425
62000,Fort Marot,Souhern Punajb Mulan,29.8462,71.8435
62001,Chak 338/Hr,Souhern Punajb Mulan,29.8462,71.8435
62020,Fort Abbas,Souhern Punajb Mulan,29.1925,72.8536
62021,Chak 227/9-R,Souhern Punajb Mulan,29.1925,72.8536
62040,Khichi Wala,Souhern Punajb Mulan,29.8462,71.8435
62041,Chak 191/7-R,Souhern Punajb Mulan,29.8462,71.8435
62050,Faqir Wali,Souhern Punajb Mulan,30.5,70.8333
62051,Chak 144/6-R,Souhern Punajb Mulan,30.5,70.8333
62070,Chak 132/6 R,Souhern Punajb Mulan,29.8462,71.8435
62071,Chak 433/6-R,Souhern Punajb Mulan,29.8462,71.8435
62080,Chak 69/4-R Edso,Souhern Punajb Mulan,29.8462,71.8435
62100,Haroonabadnpo,Souhern Punajb Mulan,29.7131,73.2517
62101,Chak 76/4-R,Souhern Punajb Mulan,29.7131,73.2517
62110,Dunga Bunga,Souhern Punajb Mulan,29.75,73.25
62111,Khatranwal,Souhern Punajb Mulan,29.7007,73.2522
62120,Ram Pura,Souhern Punajb Mulan,29.7131,73.2517
62130,Mohar Wali Edso,Souhern Punajb Mulan,29.7131,73.2517
62210,Mandi Sadiq Ganj,Souhern Punajb Mulan,29.8777,72.9872
62211,Aurang,Souhern Punajb Mulan,29.8777,72.9872
62220,Hasil Sarooh,Souhern Punajb Mulan,29.8777,72.9872
62230,Minchin Abad,Souhern Punajb Mulan,29.8777,72.9872
62231,Khalis Khurd,Souhern Punajb Mulan,29.8777,72.9872
62250,Sadiqia,Souhern Punajb Mulan,29.8777,72.9872
62300,Bahawalnagar G.P.O.,Souhern Punajb Mulan,29.9592,73.1867
62301,Sawaiwala,Souhern Punajb Mulan,29.8444,73.2483
62320,Madrissa,Souhern Punajb Mulan,29.9433,73.099
62350,Chishtian,Souhern Punajb Mulan,29.901,72.8653
62351,Shahr Farid,Souhern Punajb Mulan,29.8233,72.7675
62380,Dahran Wala,Souhern Punajb Mulan,29.9433,73.099
62381,Chak 130/M,Souhern Punajb Mulan,29.9433,73.099
62400,Bakhshan Khan,Souhern Punajb Mulan,29.8777,72.9872
62401,Chak 10/F,Souhern Punajb Mulan,29.8777,72.9872
63000,Hasil Pur Mandi,Souhern Punajb Mulan,29.425,71.8489
63001,Chak 61/F,Souhern Punajb Mulan,29.425,71.8489
63020,Chhonawala,Souhern Punajb Mulan,29.425,71.8489
63021,Chak  161/M,Souhern Punajb Mulan,29.425,71.8489
63030,Pallah,Souhern Punajb Mulan,29.8061,72.5514
63040,Qaim Pur,Souhern Punajb Mulan,29.7068,72.3874
63041,Jamalpur,Souhern Punajb Mulan,29.7686,72.4106
63060,Khairpur Tamiwali,Souhern Punajb Mulan,29.6347,72.2787
63061,Tali Talbani,Souhern Punajb Mulan,29.6125,72.325
63070,Dera Bakha,Souhern Punajb Mulan,29.45,71.8667
63071,Abbas Nagar,Souhern Punajb Mulan,27.8264,68.7625
63080,Bahawalpur Cantt,Souhern Punajb Mulan,29.425,71.8489
63100,Model Town A,Souhern Punajb Mulan,31.0035,71.0485
63101,Karna,Souhern Punajb Mulan,31.0942,69.9731
63120,Islamiauniversitycampus,Souhern Punajb Mulan,31.0035,71.0485
63160,Small Industries Estate,Souhern Punajb Mulan,31.0035,71.0485
63170,Intermediate Secondry Board,Souhern Punajb Mulan,31.0035,71.0485
63180,Sadiq Public School,Souhern Punajb Mulan,31.0035,71.0485
63210,Yazman,Souhern Punajb Mulan,29.1333,71.75
63211,Chak 99/D.B.,Souhern Punajb Mulan,29.1333,71.75
63220,Chak 108/Db,Souhern Punajb Mulan,29.0085,71.1259
63230,Chak 117/Db,Souhern Punajb Mulan,29.1056,71.2639
63231,Chak 7/Dnb,Souhern Punajb Mulan,29.1056,71.2639
63236,Head Rajkan,Souhern Punajb Mulan,29.1056,71.2639
63237,Chak 36/D.N.B.,Souhern Punajb Mulan,29.1056,71.2639
63250,Samasatta,Souhern Punajb Mulan,29.35,71.55
63251,Nahar Wali,Souhern Punajb Mulan,29.35,71.55
63260,Paras Textile Mills,Souhern Punajb Mulan,29.3333,71.5667
63261,Dera Masti,Souhern Punajb Mulan,29.3333,71.5667
63270,Khanqah Mubarik,Souhern Punajb Mulan,26.5306,67.7639
63271,Karani,Souhern Punajb Mulan,26.5306,67.7639
63275,Klanchwala,Souhern Punajb Mulan,26.5306,67.7639
63290,Mubarikpur,Souhern Punajb Mulan,29.9333,71.55
63291,Pipli Rajon,Souhern Punajb Mulan,29.2302,71.5628
63300,Noor Pur Nauranga,Souhern Punajb Mulan,29.1444,71.2444
63301,Rehman Abad,Souhern Punajb Mulan,29.1444,71.2444
63310,Chak 22/Dnb,Souhern Punajb Mulan,29.1444,71.2444
63350,Ahmad Pur East,Souhern Punajb Mulan,29.15,71.225
63351,Kulab,Souhern Punajb Mulan,29.1167,71.1333
63360,Sadiq Garh Palace,Souhern Punajb Mulan,29.1333,71.2833
63361,Mehrabwala,Souhern Punajb Mulan,29.1333,71.2833
63400,Kotla Musa Khan,Souhern Punajb Mulan,29.2667,71.2167
63401,Joya Abad,Souhern Punajb Mulan,28.1333,69.0833
63410,Uch Sharif,Souhern Punajb Mulan,29.2333,71.05
63411,Uch Mughlan,Souhern Punajb Mulan,29.2333,71.05
63420,Panjnad,Souhern Punajb Mulan,28.9667,70.6667
63450,Chani Goth,Souhern Punajb Mulan,29.1,71.0167
63451,Channi Goth Rs,Souhern Punajb Mulan,29.1,70.9667
64000,Liaqat Pur,Souhern Punajb Mulan,29.237,70.7978
64001,Chak 6/A,Souhern Punajb Mulan,29.237,70.7978
64020,Allah Abad,Souhern Punajb Mulan,29.0542,70.8028
64021,Dera Faridi,Souhern Punajb Mulan,29.0917,70.7889
64030,Trinda Muhammad Panah,Souhern Punajb Mulan,29.1,70.9
64031,Jehelan Wali,Souhern Punajb Mulan,28.7292,70.7639
64040,Khan Bela,Souhern Punajb Mulan,28.9667,70.7333
64041,Shahiabad,Souhern Punajb Mulan,28.9965,70.6868
64070,Feroza,Souhern Punajb Mulan,28.75,70.8167
64071,Chak 35/A,Souhern Punajb Mulan,31.4861,70.9875
64080,Heysons Sugar Mills  Jetha Bhutta,Souhern Punajb Mulan,29.237,70.7978
64081,Havli Gharib Shah,Souhern Punajb Mulan,29.237,70.7978
64100,Khan Pur,Souhern Punajb Mulan,28.1244,70.2394
64101,Nawan Kot,Souhern Punajb Mulan,28.5681,70.5903
64130,Zahir Peer,Souhern Punajb Mulan,28.3687,70.2123
64131,Tarinda Molvian,Souhern Punajb Mulan,28.3687,70.2123
64140,Chachran Sharif,Souhern Punajb Mulan,28.8667,70.45
64150,Rukan Pur,Souhern Punajb Mulan,28.7167,69.2833
64151,Heran,Souhern Punajb Mulan,28.7167,69.2833
64160,Bagho Bahar,Souhern Punajb Mulan,28.3687,70.2123
64170,Kot Somaba,Souhern Punajb Mulan,28.5403,70.6056
64171,Basti Sialan,Souhern Punajb Mulan,28.5403,70.6056
64180,Tarinda R.S.,Souhern Punajb Mulan,28.5722,70.375
64181,Tarinda Ali Murad,Souhern Punajb Mulan,28.5722,70.375
64200,Chowk Makki Masjid,Souhern Punajb Mulan,28.5167,70.3
64201,Chak Abbas,Souhern Punajb Mulan,28.5167,70.3
64220,Chak 116/P,Souhern Punajb Mulan,28.5167,70.3
64250,Old Sadik Abad,Souhern Punajb Mulan,28.5167,70.3
64300,Wapda Scarp Colony,Souhern Punajb Mulan,28.7064,70.3837
64301,Basti Pir Abdul Malik,Souhern Punajb Mulan,28.7064,70.3837
64310,Iqbalabad,Souhern Punajb Mulan,28.5921,70.2324
64311,Kot Karam Khan,Souhern Punajb Mulan,28.5889,70.1444
64320,Mian Wali Qureshian,Souhern Punajb Mulan,28.7064,70.3837
64321,Ihsan Pur,Souhern Punajb Mulan,28.7064,70.3837
64330,Fateh Pur Kamal,Souhern Punajb Mulan,28.7064,70.3837
64331,Jhoran,Souhern Punajb Mulan,28.7064,70.3837
64350,Sadikabad Npo,Souhern Punajb Mulan,28.4139,70.1278
64351,Lakarwali,Souhern Punajb Mulan,28.3611,70.1556
64354,Chak 175/P,Souhern Punajb Mulan,28.4139,70.1278
64370,Jamal Din Wali,Souhern Punajb Mulan,30.65,72.7833
64371,Kot Fazil,Souhern Punajb Mulan,30.65,72.7833
64380,Ahmadpur Lama,Souhern Punajb Mulan,28.3701,69.8938
64381,Nawazabad,Souhern Punajb Mulan,28.3403,69.8542
64385,Rahimabad,Souhern Punajb Mulan,28.4,69.9333
64410,Bangla Manthar,Souhern Punajb Mulan,24.5167,68.1
64411,Chak 140/P,Souhern Punajb Mulan,24.5167,68.1
64450,Machi Goth,Souhern Punajb Mulan,24.5167,68.1
64460,Sanjar Pur,Souhern Punajb Mulan,24.5167,68.1
64461,Walhar,Souhern Punajb Mulan,24.5167,68.1
64470,Kot Subzal,Souhern Punajb Mulan,24.5167,68.1
65010,Dharki,Hyderabad,28.1944,69.8917
65011,Maruwala,Hyderabad,30.6417,71.1333
65020,Fertilizer Factory Dharki,Hyderabad,28.2327,69.8964
65030,Ubauro,Hyderabad,28.1667,69.7333
65031,Kamoo Shaheed,Hyderabad,28.1813,69.709
65034,Khambara,Hyderabad,28.4162,70.0699
65035,Dauwala,Hyderabad,29.6056,71.85
65040,Mirpur Mathelo,Hyderabad,28.0333,69.55
65041,Darvesh Naich,Hyderabad,28.0333,69.55
65050,Pak Saudi Fertilizer Mirpur Mathelo,Hyderabad,28.2327,69.8964
65052,Dad Laghari,Hyderabad,28.2327,69.8964
65053,Ghulam Hussain Laghari,Hyderabad,28.2327,69.8964
65060,Jarwar,Hyderabad,27.9167,69.5333
65061,Gerhi Chachar,Hyderabad,27.8,69.5833
65070,Khan Pur Mahar,Hyderabad,28.2327,69.8964
65071,Centre Mohammad,Hyderabad,28.2327,69.8964
65100,Sarhad,Hyderabad,28.05,69.4167
65101,Jahanpur,Hyderabad,29.8364,72.0667
65110,Ghotki,Hyderabad,28.0167,69.3167
65111,Walrah,Hyderabad,27.9333,69.3833
65120,Pano Akil,Hyderabad,27.85,69.1167
65121,Nauraja,Hyderabad,27.8333,69.05
65130,Pano Akil Contonment,Hyderabad,27.8124,69.1652
65150,Saleh Pat,Hyderabad,27.5194,69.0444
65151,Dholwaro,Hyderabad,27.5194,69.0444
65168,Tarechani,Hyderabad,27.8124,69.1652
65170,Rohri,Hyderabad,27.6833,68.9
65171,Bhiro,Hyderabad,27.65,69.0167
65180,Rohri Cement Works,Hyderabad,27.8124,69.1652
65181,Patni,Hyderabad,27.5667,68.8833
65200,New Sabzi Mandi (Nd),Hyderabad,27.65,68.8333
65201,Shah Ladhani,Hyderabad,27.65,68.8333
65270,Babarloi,Hyderabad,27.65,68.8333
65280,Central Prision,Hyderabad,27.65,68.8333
65290,Mumbrani,Hyderabad,27.65,68.8333
65300,Kandira Kandhra,Hyderabad,27.5208,68.8479
65301,Dara Wahan,Hyderabad,27.5083,68.8625
65310,Paf Airport,Hyderabad,27.1972,68.5653
65320,Arain Road,Hyderabad,26.55,68
65321,Arain,Hyderabad,26.55,68
66000,Pir Yaloi,Hyderabad,28.3194,69.1199
66001,Mori,Hyderabad,25.3833,68.4667
66020,Luqman,Hyderabad,32.0333,73.0167
66021,Rafiq Mahesar,Hyderabad,27.4911,68.5436
66030,Pir Jo Goth,Hyderabad,27.6,68.6167
66031,Bahar Larik,Hyderabad,27.55,68.55
66060,Kot Diji,Hyderabad,27.3433,68.7089
66061,Malhar Khaskheli,Hyderabad,27.2667,68.5833
66070,Gambat,Hyderabad,34.8875,71.5258
66071,Munshi Abdullah Arain,Hyderabad,31.7449,71.2475
66074,Agra,Hyderabad,30.4833,72.6833
66075,Jado Wahan,Hyderabad,29.8639,69.5333
66080,F.S. Mills Gambat,Hyderabad,28.3194,69.1199
66081,Hajitafial  Khan,Hyderabad,28.3194,69.1199
66090,Khuhra,Hyderabad,27.3806,68.5167
66091,Derip Pir Mehar Shah,Hyderabad,27.3167,68.3028
66100,Rani Pur,Hyderabad,27.2903,68.4243
66101,Pir Hayat Shah,Hyderabad,27.3306,68.3653
66110,Sobho Dero,Hyderabad,27.3,68.4
66111,Sorah Edso,Hyderabad,27.3,68.4
66120,Kumb,Hyderabad,27.2961,68.6128
66121,Jaskani,Hyderabad,27.3206,68.65
66130,Board Of Intermediate & Secondary Education,Hyderabad,27.3113,68.376
66150,Mirwah,Hyderabad,27.4538,69.0402
66151,Mandan,Hyderabad,29.695,72.1339
66160,Thehri,Hyderabad,27.5833,68.7833
66161,Goth Channa,Hyderabad,27.7722,68.0639
66190,Hingorja,Hyderabad,27.2167,68.4167
66191,Lal Bux Solangi,Hyderabad,26.9173,67.0218
66200,Setharja,Hyderabad,27.7074,68.5917
66201,Walidad,Hyderabad,27.7806,68.2417
66300,Chang,Hyderabad,29.2792,71.0792
66301,Fakir Ali Nawaz,Hyderabad,28.1184,70.6382
67000,Mahrab Pur,Hyderabad,30.6507,71.1785
67001,Goth Ali Khan,Hyderabad,27.8319,68.4236
67010,Kotri Kabir,Hyderabad,27.3433,68.4828
67030,Khan Wahan,Hyderabad,27.1833,68.3
67031,Jaro Khan Ran.,Hyderabad,27.2722,68.2778
67040,Aqil Shah,Hyderabad,27.3433,68.4828
67041,Khenato Mehesser,Hyderabad,27.3433,68.4828
67050,Kandiaro,Hyderabad,27.0667,68.2167
67051,Allahabad Sharif,Hyderabad,27.1681,68.2288
67060,Mohabat Dero,Hyderabad,25.075,68.7625
67061,Bakhri,Hyderabad,27.15,68.1667
67070,Darbelo,Hyderabad,27.0167,68.1333
67071,K.M.Dasti,Hyderabad,27.0667,67.5667
67080,Tharu Shah,Hyderabad,26.95,68.1167
67081,Manjhut,Hyderabad,26.892,68.0722
67100,Mithiani,Hyderabad,26.8667,67.9833
67101,Sehra,Hyderabad,26.8917,68.0028
67110,New Jatoi,Hyderabad,29.4578,67.9379
67111,Salehpur,Hyderabad,28.15,68.5389
67120,Sadoja,Hyderabad,27.1655,68.0493
67130,Moro,Hyderabad,26.6667,68
67131,Ghulam Muhammad Jamali,Hyderabad,27.9944,67.8667
67150,M.K Buriro,Hyderabad,27.1655,68.0493
67160,Qamarabad,Hyderabad,27.1655,68.0493
67180,Noor Jahania,Hyderabad,27.1655,68.0493
67181,Shahpur Jahania,Hyderabad,27.1655,68.0493
67190,Daulatpur,Hyderabad,26.5,67.9667
67191,Ghulam Qadir Jokhio,Hyderabad,26.5,67.9667
67200,Qazi Ahmed,Hyderabad,26.1167,68.2958
67201,Fatohal  Lardari,Hyderabad,26.1167,68.2958
67210,Sakrand,Hyderabad,26.1333,68.2667
67211,Sabu Rahu,Hyderabad,26.0667,68.3333
67300,Lakha Road,Hyderabad,28.2693,69.494
67310,Bhiria Road,Hyderabad,25.8042,68.6333
67311,Hot Khan Jamali,Hyderabad,25.8042,68.6333
67320,Bhiria City,Hyderabad,29.3595,69.7163
67321,Dali,Hyderabad,26.9667,68.1833
67330,Padidan,Hyderabad,27.4222,68.7819
67331,Miranpur,Hyderabad,28.0611,69.2972
67340,Padidan Town,Hyderabad,28.2693,69.494
67341,Hakim Ali Naz,Hyderabad,28.2693,69.494
67350,Kalhora,Hyderabad,26.6639,67.7194
67370,Naushahro Feroz,Hyderabad,28.2693,69.494
67371,Haji Beg Mohammad,Hyderabad,28.2693,69.494
67380,Phul,Hyderabad,24.6044,67.6931
67381,Talib Hussain Maree,Hyderabad,24.6044,67.6931
67390,Darya Khan Mari,Hyderabad,26.6833,68.2833
67391,Gharibabad,Hyderabad,30.1333,71.575
67400,Bandhi,Hyderabad,26.6,68.3
67401,H. Khan Jamali,Hyderabad,26.6,68.3
67410,Daur,Hyderabad,26.45,68.3167
67411,Liary,Hyderabad,26.45,68.3167
67420,Haberi,Hyderabad,26.4667,68.1667
67421,Goth Akil Rahu,Hyderabad,26.4222,68.1472
67430,Nusrat 60 Mile Mori,Hyderabad,26.4741,68.3992
67431,Colonal Staff,Hyderabad,26.4741,68.3992
67450,Nawabshah G.P.O.,Hyderabad,26.4656,68.5325
67451,Bucheri,Hyderabad,26.3667,68.3167
67500,Jam Sahib,Hyderabad,26.2958,68.6292
67501,Shafiabad,Hyderabad,26.2236,68.6833
68010,Sarhari,Hyderabad,26.1,68.4833
68011,Taj Khan Jamali,Hyderabad,26.3861,68.1396
68030,Shahdad Pur,Hyderabad,25.716,68.8087
68031,Shuja Jakhro,Hyderabad,26,68.6667
68040,Shahdadpur Pts,Hyderabad,25.8862,68.6323
68060,Berani,Hyderabad,25.7833,68.8
68080,Tando Adam Npo,Hyderabad,25.7667,68.6667
68081,Jam Nawaz Ali,Hyderabad,25.7792,68.8583
68100,Sanchgar Npo,Hyderabad,28.0167,69.3472
68101,Jamrao Head,Hyderabad,26.4333,68.8667
68200,Shahpur Chakar,Hyderabad,26.15,68.65
68201,Deh 4 Dad,Hyderabad,26.1056,68.6347
68210,Khadro,Hyderabad,26.15,68.7167
68211,Nabipur,Hyderabad,28.7236,70.3167
68220,Sinjhoro,Hyderabad,26.0333,68.8
68221,Chak 39,Hyderabad,25.9917,68.7708
68230,Jhol,Hyderabad,25.95,68.8833
68231,Rahimabad,Hyderabad,25.9847,68.8972
68300,Junejo Farm,Hyderabad,25.6603,69.1817
68310,Kandiari,Hyderabad,25.8,69.0667
68311,Goth Bassi,Hyderabad,25.7167,69.1333
68330,Khipro,Hyderabad,25.6167,69.4167
68331,Bhit Bhitai,Hyderabad,25.584,69.1458
68350,Hatango,Hyderabad,25.6603,69.1817
68351,Dhalyar,Hyderabad,25.6603,69.1817
69000,Mirpur Khas G.P.O,Hyderabad,28.4436,69.3458
69001,Jhando Mari,Hyderabad,25.65,68.9
69040,Mirpurkhas Sugar Mill,Hyderabad,27.3156,69.3714
69050,Shadi Pali,Hyderabad,27.3156,69.3714
69060,Pithoro,Hyderabad,25.5167,69.3833
69061,Akri,Hyderabad,26.9667,68.4167
69070,Dhoro Naro,Hyderabad,25.5,69.5667
69071,Mohammad Saleh Palli,Hyderabad,27.1389,70.8333
69080,Muhammad Alam Palli,Hyderabad,27.3156,69.3714
69090,Chhor,Hyderabad,25.7514,66.6583
69091,Haveli,Hyderabad,29.8083,69.5028
69094,New Chhor,Hyderabad,26.681,68.4481
69100,Umar Kot,Hyderabad,25.3222,69.8035
69101,Gogasar,Hyderabad,25.1931,69.8917
69120,Khokhropar,Hyderabad,25.5,69.6083
69121,Vasarbah,Hyderabad,25.5,69.6083
69160,Kunri,Hyderabad,25.1833,69.5667
69161,Cheel,Hyderabad,25.2583,69.4917
69170,Chachro,Hyderabad,25.1167,70.25
69171,Kantio,Hyderabad,25.1667,69.9667
69200,Nab-Isir Road,Hyderabad,25.6553,70.2198
69201,Hassan Rind,Hyderabad,25.6553,70.2198
69210,Talhi,Hyderabad,24.9833,69.4833
69211,Ahori,Hyderabad,27.0167,67.6333
69220,Nau Kot,Hyderabad,28.675,72.0833
69221,Fazal Bhambhro,Hyderabad,24.9,69.45
69230,Mithi,Hyderabad,24.3333,69.0167
69240,Islamkot,Hyderabad,24.7,70.1833
69241,Bo-E-Ali,Hyderabad,24.8167,70.6167
69260,Nagar Parkar,Hyderabad,24.3667,70.75
69261,Dano Dhandal,Hyderabad,24.5197,70.7644
69280,Diplo,Hyderabad,24.4667,69.5833
69281,Verhar,Hyderabad,24.4667,69.5833
69310,Jhudo,Hyderabad,26.4333,69.2988
69311,Khairpur Gambo,Hyderabad,24.8806,69.2503
69320,Tando Jan Muhammad,Hyderabad,25.0667,69.2167
69321,Deh 194,Hyderabad,25.0264,69.0986
69330,Digri,Hyderabad,25.1667,69.1167
69331,Rano Ramdan,Hyderabad,25.1639,69.1944
69340,Tando Vassu,Hyderabad,32.8922,69.6722
69341,Dehgan,Hyderabad,32.8922,69.6722
69350,Samaro,Hyderabad,25.2833,69.3958
69351,Rahimabad,Hyderabad,25.3542,68.7861
69360,Kot Mirs. Edsi,Hyderabad,26.3195,69.1174
69370,Mir Wah Gorchani,Hyderabad,26.3195,69.1174
69371,Wahaghreji,Hyderabad,26.3195,69.1174
70010,Tando Allahyar,Hyderabad,25.4667,68.7167
70011,Dasuri,Hyderabad,25.5833,68.75
70020,Mehran Sugar Mills Tando Allahyar,Hyderabad,26.3617,69.1331
70030,G.O.R. Shahnawaz,Hyderabad,26.3617,69.1331
70040,Nasarpur,Hyderabad,34.0244,71.6783
70041,Tajpur,Hyderabad,31.4722,73.4583
70050,Tando Jam,Hyderabad,25.4333,68.5333
70051,Tando Kaiser,Hyderabad,25.3833,68.5167
70060,Sindh Agriculture University Tando Jam,Hyderabad,26.3617,69.1331
70090,Oderolal R.S.,Hyderabad,26.3617,69.1331
70091,Pali Jani,Hyderabad,26.3617,69.1331
70100,Saeedabad,Hyderabad,34.1383,71.6069
70101,Bakhar Jamali,Hyderabad,26.05,68.4
70120,Hala,Hyderabad,25.8167,68.4167
70121,Bhanote,Hyderabad,26.4806,68.4042
70130,Hala Old,Hyderabad,25.8,68.3833
70140,Bhitshah,Hyderabad,27.1196,68.8282
70141,Mehmood Thaheem,Hyderabad,27.1196,68.8282
70150,Matiari,Hyderabad,25.6,68.45
70151,Kot Jamali,Hyderabad,28.5299,69.7049
70210,Husri,Hyderabad,25.3167,68.4167
70211,Sachal Sarmast Colony,Hyderabad,25.3167,68.4167
70220,Tando Mohammad Khan,Hyderabad,25.1333,68.5333
70221,Dhandi,Hyderabad,27.2083,68.4472
71000,Jama Masjid,Hyderabad,27.6461,69.0124
71001,Masu Bhurgari,Hyderabad,25.5,68.4667
71020,Hala Npo  Nd,Hyderabad,27.6461,69.0124
71800,Liaqat Colony,Hyderabad,27.6461,69.0124
71801,Latifabad No.10,Hyderabad,27.6461,69.0124
71810,Civil Aviation Trgg.Institute,Hyderabad,27.6461,69.0124
71850,Sindh Regimental Centre,Hyderabad,27.6461,69.0124
71900,Sindh Industrial Trading Estate Hyderabad,Hyderabad,27.6461,69.0124
72010,Matli,Hyderabad,25.0333,68.65
72011,Ahmad Dars,Hyderabad,25.0236,68.7611
72020,Kario Ghanwar,Hyderabad,25.0667,68.7831
72050,Tando Ghulam Ali,Hyderabad,25.1167,68.8833
72051,Chutto Mandrani,Hyderabad,25.1931,68.9542
72070,Haji Ali Mohammad,Hyderabad,25.0667,68.7831
72071,Gudho Kambrani,Hyderabad,25.0667,68.7831
72100,Talhar,Hyderabad,24.8833,68.8167
72110,Rajo Khanani,Hyderabad,24.9833,68.85
72111,Tando Iqbal,Hyderabad,24.9833,68.85
72120,Tando Bago,Hyderabad,24.7833,68.9667
72121,Dei,Hyderabad,24.925,69.0583
72130,Pangrio,Hyderabad,24.7639,69.1986
72131,Goth Chaudri Din Mohammad,Hyderabad,24.7639,69.1986
72200,Badin,Hyderabad,24.65,68.8333
72201,Sirani,Hyderabad,24.5,68.7833
72210,P.A.F. Badin,Hyderabad,26.663,69.45
72220,Tando Ikram,Hyderabad,31.5999,71.6656
72221,Arifabad,Hyderabad,30.3167,73.3181
72250,Nando Shahar,Hyderabad,26.663,69.45
72260,Fauji Sugar Mills Khoski,Hyderabad,26.663,69.45
72261,Signal Chak,Hyderabad,26.663,69.45
72270,Khadhan,Hyderabad,26.663,69.45
73010,Jhock Sharif,Hyderabad,26.0319,68.8647
73020,Bulri Shah Karim,Hyderabad,26.0319,68.8647
73024,Sindh Abadgar Sugar Mills T.M. Khan,Hyderabad,26.0319,68.8647
73030,Mirpur Bathoro,Hyderabad,24.7333,68.2667
73031,Korewah,Hyderabad,24.7333,68.2667
73040,Darro,Hyderabad,34.4903,73.1528
73041,Bunno,Hyderabad,24.9333,68.2333
73050,Sujawal,Hyderabad,24.6,68.0833
73051,Belo,Hyderabad,24.7167,68.0667
73060,Jati,Hyderabad,24.35,68.2667
73061,Tar Khawaja,Hyderabad,24.35,68.2667
73070,Chuhar Jamali,Hyderabad,24.4,67.9833
73080,Lodiun,Hyderabad,26.0319,68.8647
73081,Latifabad No.11,Hyderabad,26.0319,68.8647
73090,Nooriabad,Hyderabad,26.0319,68.8647
73091,Koreja,Hyderabad,25.85,68.3917
73100,Jhimpir R.S.,Hyderabad,25.4156,67.9926
73110,Jangshahi,Hyderabad,24.7586,67.6144
73111,Ali Muhammad Jokhio,Hyderabad,24.7586,67.6144
73130,Thatta,Hyderabad,24.7469,67.9242
73131,Sonda,Hyderabad,24.9833,68.1333
73150,Hashimabad,Hyderabad,25.4156,67.9926
73160,Thatta Cement Factory,Hyderabad,25.4156,67.9926
73170,Vur,Hyderabad,24.5508,67.8425
73200,Fulleli,Hyderabad,28.075,69.1
73201,Bhambore,Hyderabad,28.075,69.1
73210,Gharo,Hyderabad,24.7414,67.5858
73220,Filter Plant Gharo,Hyderabad,25.6406,68.1094
73230,Shafiabad,Hyderabad,25.6406,68.1094
73240,Mirpur Sakro,Hyderabad,24.5469,67.6281
73241,Ahmad Khan Blouch,Hyderabad,24.3,67.6
76000,Kotri,Hyderabad,25.3667,68.3
76001,Khuda Ki Basti,Hyderabad,25.3167,68.2167
76010,Site Kotri,Hyderabad,25.3417,68.2583
76020,Locoshed Kotri,Hyderabad,25.3417,68.2583
76030,Telegraph Workshop Kotri,Hyderabad,25.3417,68.2583
76040,Behar Colony Kotri,Hyderabad,25.3417,68.2583
76050,Thana Bula Khan,Hyderabad,25.3417,68.2583
76051,Thana Ahmed Khan,Hyderabad,25.3417,68.2583
76060,Railway Crossing Jamshoro,Hyderabad,25.3417,68.2583
76080,University New Campur Colony,Hyderabad,25.3417,68.2583
76090,Liaqat Medical College Jamshoro,Hyderabad,25.3417,68.2583
76120,Petaro Cadet College,Hyderabad,26.7135,68.1322
76130,Sann,Hyderabad,26.0333,68.1333
76131,Lakki Shah,Hyderabad,26.0333,68.1333
76140,Sehwan Sharif,Hyderabad,26.3167,68.0167
76141,Jhangara,Hyderabad,26.3333,67.7167
76150,Bubak,Hyderabad,26.45,67.7167
76151,Duri Dero,Hyderabad,26.5222,67.8556
76160,Talti,Hyderabad,26.5333,67.8167
76170,Bhan Saeedabad,Hyderabad,26.7135,68.1322
76171,Khuda Abux Brohi,Hyderabad,26.7135,68.1322
76190,Johi,Hyderabad,26.6833,67.6167
76191,Sukhio Channa,Hyderabad,26.7283,67.4457
76200,Dadu,Hyderabad,26.7333,67.7833
76201,Khudabad,Hyderabad,26.65,67.75
76210,Purano Dero,Hyderabad,28.255,69.0597
76220,Phulji,Hyderabad,26.8833,67.6833
76221,Ibrahim Kachhi,Hyderabad,26.8833,67.6833
76230,Dadu Sugar Mills,Hyderabad,32.0965,72.8
76231,Rasulpur,Hyderabad,30.3167,71.6
76250,Sita,Hyderabad,27.0167,67.9167
76251,Goth Nazimabad,Hyderabad,25.4944,69.6667
76260,Khairpur Nathan Shah,Hyderabad,27.1,67.7333
76261,Kolachi,Hyderabad,27.8208,68.7361
76264,Khanpur,Hyderabad,28.65,70.65
76265,Gul Mohd  Chandio,Hyderabad,28.1194,68.2745
76270,Gozo,Hyderabad,27.1,67.6667
76280,Burera,Hyderabad,28.255,69.0597
76290,Kakar,Hyderabad,27.9667,68.8222
76310,Radhan,Hyderabad,27.1833,67.95
76311,But Sarai,Hyderabad,27.1271,67.9722
76320,Tharri Mohammad,Hyderabad,27.8534,69.0359
76330,Mehar,Hyderabad,28.8625,70.8875
76331,Ali Mardand Jatoi,Hyderabad,28.2245,69.4898
77010,Badah,Hyderabad,29.5465,70.392
77011,Ismailabad,Hyderabad,30.1333,71.35
77020,Nasirabad,Hyderabad,27.3833,67.9167
77021,Hakim Depar,Hyderabad,27.075,68.1194
77030,Gaji Khuhawar,Hyderabad,28.6874,69.3379
77040,Warah,Hyderabad,27.45,67.8
77041,Hamal,Hyderabad,27.3833,67.6167
77060,Dokri,Hyderabad,27.3833,68.1
77061,Ahsan Wahan,Hyderabad,27.4,68.1167
77070,Moenjodaro,Hyderabad,28.6874,69.3379
77080,Rice Research Institute Dokri,Hyderabad,31.6525,71.1833
77081,Qafila,Hyderabad,34.0967,71.1458
77100,Hyder Jatoi,Hyderabad,27.782,68.6666
77110,Bakrani Village,Hyderabad,27.5729,68.4542
77111,Pathan,Hyderabad,27.35,68.3667
77120,Garelo,Hyderabad,27.4333,68.0833
77121,Umar Bhayo,Hyderabad,27.45,68.1
77150,Larkana Gpo.,Hyderabad,27.4319,68.3115
77151,Kehar,Hyderabad,27.8389,68.5389
77170,Chandka Medical College,Hyderabad,27.782,68.6666
77190,Abbas Colony T.So.,Hyderabad,27.782,68.6666
77200,Bero Chandio,Hyderabad,27.8316,68.3005
77210,Kambar,Hyderabad,27.6,68
77211,Ghaibi Dero,Hyderabad,27.6,67.65
77214,Miran Machi,Hyderabad,27.7,67.8167
77230,Wagan,Hyderabad,27.5,67.9667
77231,Ghogharo,Hyderabad,27.4833,68.0167
77240,Khair Pur Joso,Hyderabad,27.8316,68.3005
77250,Lalu Raunk,Hyderabad,27.5,67.9
77260,Bahram,Hyderabad,31.0542,72.7764
77270,Miro Khan,Hyderabad,27.7667,68.1
77271,Sain Dad Lashari,Hyderabad,27.4507,68.016
77300,Shahdad Kot,Hyderabad,27.8667,68.0167
77301,Dhing,Hyderabad,27.8667,68.0167
77306,Umed Ali Junejo,Hyderabad,27.8667,68.0167
77320,Chak Yani,Hyderabad,28.3177,68.7666
77350,Mahota,Hyderabad,33.1925,72.855
77360,Naodero,Hyderabad,27.7306,68.3681
77361,Burra,Hyderabad,27.7778,68.4028
77370,Pir Bux Butio,Hyderabad,28.3177,68.7666
77371,Abad Bhutto,Hyderabad,28.3177,68.7666
77380,Ratodero,Hyderabad,27.8,68.3
77381,Nabi Shah Wagan,Hyderabad,27.8833,68.3333
77390,Lashari,Hyderabad,27.1833,68.0333
77400,Bangul Dero,Hyderabad,24.9556,69.0806
77410,Mena,Hyderabad,24.9556,69.0806
78000,Bagarji,Hyderabad,27.75,68.75
78001,Jahan Khan,Hyderabad,31.4047,72.2853
78030,Madiji,Hyderabad,27.8208,68.4347
78031,Gaheja,Hyderabad,27.7917,68.5028
78050,Chak,Hyderabad,27.8667,68.8333
78051,Abdoo,Hyderabad,27.8333,68.7833
78060,Lakhi Ghulam Shah,Hyderabad,27.8542,68.6201
78061,Habib Kot,Hyderabad,27.8917,68.5903
78064,Ruk,Hyderabad,27.8167,68.65
78100,Shikarpur Gpo,Hyderabad,27.7454,68.8593
78101,Jamra,Hyderabad,27.9028,68.6611
78150,Garhi Yasin,Hyderabad,27.9,68.5167
78151,Kakepota,Hyderabad,27.85,68.4667
78200,Khanpur,Hyderabad,28.65,70.65
78201,Haji Khan Kalhoro,Hyderabad,28.0827,68.9373
78220,Karam  Pur,Hyderabad,28.0827,68.9373
78250,Sultan Kot,Hyderabad,28.0667,68.5833
79000,Jacobabad Shahi Bazar  (Nd),Hyderabad,28.5714,69.6139
79001,Karim Bux,Hyderabad,28.3833,68.6167
79050,Garhi Khairo,Hyderabad,28.0667,67.9833
79051,Gulab Mari,Hyderabad,28.0667,67.9833
79100,Thul,Hyderabad,28.3819,69.8694
79101,Jamia Mahmoodia Chowk,Hyderabad,32.3639,73.6722
79120,Mirpur Buriro,Hyderabad,28.0146,69.3118
79121,Garhi Syed,Hyderabad,28.0146,69.3118
79130,Ghulam Khan Dhani,Hyderabad,28.0146,69.3118
79150,Tangwani,Hyderabad,28.2833,69
79151,Tangwari,Hyderabad,28.2833,69
79160,Kandhkot,Hyderabad,28.2333,69.1833
79161,Risaldar,Hyderabad,28.4,69.2
79180,Ghous Pur,Hyderabad,24.9496,67.0456
79181,Ahmad Ali,Hyderabad,24.0736,67.4722
79190,Buxapur,Hyderabad,28.2847,69.3951
79191,Badani,Hyderabad,28.3028,69.4236
79200,Kashmore,Hyderabad,28.2036,69.3239
79210,Kashmor Colony,Hyderabad,28.2036,69.3239
79220,Giddu Barrage,Hyderabad,28.2036,69.3239
80000,Sui Gas Field,Balochisan,28.3668,68.4539
80100,Dera Bugti,Balochisan,29.0333,69.15
80101,Kahan,Balochisan,29.3,68.9
80200,Manjhi Pur,Balochisan,28.3668,68.4539
80201,Mehopur,Balochisan,28.3668,68.4539
80300,Usta Mohammad,Balochisan,28.1833,68.0667
80301,Goth Rustam Khan,Balochisan,28.1833,68.0667
80400,Gandakha,Balochisan,28.0167,67.85
80401,Baghtial,Balochisan,28.0167,67.85
80500,Dera Allayyar,Balochisan,27.999,68.6397
80501,Rojhan,Balochisan,28.6833,69.95
80600,Sohbat Pur,Balochisan,28.3668,68.4539
80700,Dera Murhd Jamali,Balochisan,28.8694,67.9699
80701,Goth Said Khan,Balochisan,29.0583,67.5597
80800,Chattar,Balochisan,33.1667,73.1667
81050,Gandawa,Balochisan,28.3444,67.2333
81051,Panjuk,Balochisan,28.45,67.5333
81100,Jhal Magsi,Balochisan,28.9414,67.5614
81101,Goth Shabani,Balochisan,28.9414,67.5614
81200,Lehri,Balochisan,32.8833,73.9833
81201,Tunia,Balochisan,29.1639,68.0806
81250,Bhag,Balochisan,29.0333,67.8167
81251,Jalal Khan,Balochisan,29.0333,67.7333
81300,Haji Sher,Balochisan,28.9414,67.5614
81350,Mithri Village,Balochisan,28.9414,67.5614
81400,Dhadar,Balochisan,29.15,67.5667
81450,Sanni,Balochisan,29.15,67.5667
81500,Much,Balochisan,29.9,67.1333
81550,Kolpur,Balochisan,29.9,67.1333
82000,Sibi G.P.O.,Balochisan,30.2131,69.4572
82001,Sultan Kot,Balochisan,28.0667,68.5833
82100,Sibbi Railway Colony,Balochisan,28.7709,66.8381
82200,Sibi Petrol Pump,Balochisan,28.7709,66.8381
82300,Harnai,Balochisan,30.0994,67.9344
82301,Mian Kachh,Balochisan,29.9403,68.0611
82400,Sharigh,Balochisan,30.2233,67.5772
82401,Khost,Balochisan,30.2233,67.5772
82601,Kosh Kalat,Balochisan,26.1025,62.4217
83000,Kohlu,Balochisan,29.9,69.25
83001,Tamboo,Balochisan,29.9,69.25
84100,Chutiali Sharif,Balochisan,30.7301,68.9536
84200,Duki,Balochisan,30.15,68.5667
84201,Killi Habib,Balochisan,30.15,68.5667
84300,Sinjawi,Balochisan,30.2833,68.35
84301,Chutiar,Balochisan,30.495,67.7122
84400,Barkhan,Balochisan,29.9,69.5167
84500,Rakhni,Balochisan,30.05,69.9167
84501,Tagaoo Hassani,Balochisan,30.05,69.9167
84600,Saranan,Balochisan,30.5844,66.8728
84601,Bohanilli Kuchh,Balochisan,31.1236,69.4014
84700,Musa Khel,Balochisan,32.9328,70.6444
84701,Killi Afzal,Balochisan,30.8667,70.1833
84800,Loralai,Balochisan,30.3667,68.6
84801,Hosri,Balochisan,30.0167,69.2167
85100,Murgha,Balochisan,31.05,67.4667
85200,Zhob,Balochisan,31.3422,69.4486
85201,Shegaloo,Balochisan,31.5307,69.7369
85300,Qamar-Ud-Din Karez,Balochisan,31.4463,68.8516
85400,Killa Saifullah,Balochisan,30.7042,68.3611
85401,Sharan Jogezai,Balochisan,30.7042,68.3611
85500,Muslim Bagh,Balochisan,32.7953,70.7728
85501,Kajir,Balochisan,31.2167,67.4833
86000,Chaman,Balochisan,30.925,66.4464
86001,Old Chaman,Balochisan,30.85,66.5167
86100,Shella Bagh,Balochisan,30.3074,66.6242
86200,Killa Abdullah,Balochisan,30.7303,66.6617
86201,Killi Kamat,Balochisan,30.7303,66.6617
86300,Gulistan,Balochisan,30.6072,66.5839
86301,Killi Lajbar,Balochisan,30.3074,66.6242
86500,Bostan,Balochisan,30.4264,67.02
86501,Chakwal Killi,Balochisan,30.4264,67.02
86600,Khanozai,Balochisan,30.4292,66.5553
86700,Pishin,Balochisan,30.5911,67.0028
86701,Killi Kamal Zai,Balochisan,28.2,66.1667
86800,Barshore,Balochisan,30.3074,66.6242
87000,Kuchlak,Balochisan,30.3564,66.9497
87001,Simli,Balochisan,32.8542,73.1889
87100,Baleli,Balochisan,30.2781,66.9094
87101,Ghazaband Scouts,Balochisan,30.2781,66.9094
87300,Quetta G.P.O.,Balochisan,30.0156,67.016
87301,Kotwal,Balochisan,30.2361,67.0028
87310,Balochistan Civil Sectt,Balochisan,30.0156,67.016
87330,Hazara Town,Balochisan,30.0156,67.016
87500,Satellite Town,Balochisan,33.6333,73.0667
87501,New Baloch Colony,Balochisan,30.0721,67.1342
87550,Sariab Road,Balochisan,30.0721,67.1342
87551,Killi Kambrani,Balochisan,30.0721,67.1342
87600,Samungli,Balochisan,30.2333,66.9333
87601,Samungli Town,Balochisan,30.2333,66.9333
87650,Air Port Quetta,Balochisan,30.2333,66.9333
87700,Karbala,Balochisan,30.6575,66.9072
87750,Infantory School,Balochisan,30.6575,66.9072
87800,Staff Collete (Quetta),Balochisan,30.0721,67.1342
87900,Sariab,Balochisan,26.5617,62.9803
88050,Sorange,Balochisan,30.1697,67.2197
88100,Mastung Road,Balochisan,29.8833,66.8333
88101,Killi Nawab Raisani,Balochisan,29.8833,66.8333
88150,Degari,Balochisan,30.0586,67.2228
88200,Mastung,Balochisan,29.8,66.85
88201,Khad Kucha,Balochisan,29.8,66.85
88250,Mango Char,Balochisan,29.3333,66.9667
88251,Johan,Balochisan,29.3333,66.9667
88300,Kalat,Balochisan,29.0333,66.5833
88301,Sheikhri,Balochisan,29.0333,66.6833
88350,Nichara,Balochisan,28.8667,66.75
88400,Sorab,Balochisan,27.3167,64.75
88401,Toba,Balochisan,28.3167,66.0167
88450,Zehri,Balochisan,27.9444,65.7
88451,Zehri Hat,Balochisan,27.9444,65.7
89100,Khuzdar G.P.O.,Balochisan,28.0796,66.5519
89101,Nokjo,Balochisan,28.3889,66.2222
89150,Khuzdar Cantt.,Balochisan,28.0796,66.5519
89200,Mashke,Balochisan,29.2276,67.8577
89300,Kalwan,Balochisan,32.6717,71.7753
90050,Bela,Balochisan,26.2333,66.3167
90051,Arif Wala,Balochisan,25.4723,66.9083
90100,Wayaroo,Balochisan,25.8072,66.6219
90150,Uthal,Balochisan,25.8072,66.6219
90151,Kunraj,Balochisan,25.8072,66.6219
90200,Miani Beach,Balochisan,25.4832,67.1432
90250,Hub Chowki,Balochisan,25.4832,67.1432
90251,Daro Hotel,Balochisan,25.4832,67.1432
90300,Gadani,Balochisan,25.1156,66.7247
91100,Jiwani,Balochisan,25.05,61.7417
91200,Gawadar,Balochisan,25.1748,63.2845
91201,Peshkan,Balochisan,25.1748,63.2845
91300,Pasni,Balochisan,25.2639,63.4744
91301,Kalagkulanch,Balochisan,25.2639,63.4744
91400,Ormara,Balochisan,25.2106,64.6375
92100,Mand,Balochisan,26.1167,62.05
92101,Bullo,Balochisan,26.1058,62.0767
92300,Tump,Balochisan,26.0969,62.3703
92301,Pullabad,Balochisan,26.0969,62.3703
92350,Balicha,Balochisan,26.0969,62.3703
92400,Kalatuk,Balochisan,26.03,62.9147
92500,Shahi Tump,Balochisan,26.1299,62.509
92600,Turbat G.P.O.,Balochisan,26.1299,62.509
92700,Geshkore,Balochisan,26.1299,62.509
92800,Buleda,Balochisan,26.3,63.1333
92801,Mehnaz,Balochisan,26.3,63.1333
92900,Nasir Abad,Balochisan,26.1299,62.509
93000,Panjgur,Balochisan,26.9667,64.1
93001,Kohebun,Balochisan,28.5667,65.5333
93100,Patak,Balochisan,27.7667,64.8167
93200,Katagari,Balochisan,27.7667,64.8167
93401,Jandala,Norhern Punajb Rawalpindi,33.5667,73.2333
94050,Basima,Balochisan,26.4028,62.8489
94051,Nag,Balochisan,26.4028,62.8489
94100,Kharan,Balochisan,28.5833,65.4167
94101,Washuk,Balochisan,27.7333,64.8
94150,Ladgasht,Balochisan,27.9,62.9525
95000,Kohi Taftan,Balochisan,28.8197,62.765
95050,Nok Kundi,Balochisan,28.8197,62.765
95100,Dalbandin,Balochisan,28.8833,64.4167
95150,Ahmedwal,Balochisan,29.4167,65.9333
95200,Nushki,Balochisan,29.55,66.0167
96000,Ziarat,Balochisan,30.3444,67.7417
96001,Ahmadoon,Balochisan,29.7833,67.9833
97320,Sumbalgah,Norhern Punajb Rawalpindi,,
