Postal Code,Place Name,State,State Abbreviation,Latitude,Longitude
974 01,Špania Dolina,Banská Bystrica,BC,48.8167,19.1333
974 05,Rakytovce,Banská Bystrica,BC,48.7083,19.1194
974 11,Sásová,Banská Bystrica,BC,48.7667,19.1667
976 02,Jergaly,Banská Bystrica,BC,48.85,19.1417
976 03,"Polkanová (?.d.1,2,3)",Banská Bystrica,BC,48.8,19.0833
976 11,Baláže,Banská Bystrica,BC,48.775,19.2167
976 13,Slovenská ?up?a,Banská Bystrica,BC,48.7667,19.2833
976 31,Vlkanová,Banská Bystrica,BC,48.6667,19.15
976 32,Badín,Banská Bystrica,BC,48.6667,19.1333
976 33,Ponická Lehôtka,Banská Bystrica,BC,48.6917,19.2833
976 34,Jabriková,Banská Bystrica,BC,48.75,19.0667
976 37,Hrocho?,Banská Bystrica,BC,48.6667,19.3167
976 39,Donovaly,Banská Bystrica,BC,48.8833,19.2333
976 55,Strelníky,Banská Bystrica,BC,48.7167,19.4
976 61,Hiade?,Banská Bystrica,BC,48.8167,19.3333
976 62,Brusno - kúpele,Banská Bystrica,BC,48.8,19.3833
976 81,Štiavni?ka,Banská Bystrica,BC,48.8333,18.3833
976 96,Medzibrod,Banská Bystrica,BC,48.8,19.35
966 15,Banská Belá,Banská Štiavnica,BC,48.4833,18.9333
969 01,Banky,Banská Štiavnica,BC,48.4833,18.8667
969 72,Svätý Anton,Banská Štiavnica,BC,48.4167,18.9333
969 73,Pren?ov,Banská Štiavnica,BC,48.3667,18.9333
969 75,Klastava,Banská Štiavnica,BC,48.3333,18.8667
969 81,Štiavnické Bane,Banská Štiavnica,BC,48.4333,18.8667
969 82,Žakýl,Banská Štiavnica,BC,48.525,18.9333
976 43,Piesok,Brezno,BC,48.8,19.5667
976 44,Mýto pod ?umbierom,Brezno,BC,48.85,19.6333
976 45,Osrblie,Brezno,BC,48.75,19.5333
976 46,Valaská,Brezno,BC,48.8167,19.5833
976 51,Brucha?ka,Brezno,BC,48.7244,19.6222
976 52,Fajtov,Brezno,BC,48.75,19.6833
976 53,Drábsko,Brezno,BC,48.65,19.65
976 56,Pohronská Polhora,Brezno,BC,48.75,19.8
976 57,Michalová,Brezno,BC,48.7667,19.7833
976 63,Predajná,Brezno,BC,48.8167,19.4667
976 64,Bacúch,Brezno,BC,48.8667,19.8167
976 66,Hámor,Brezno,BC,48.85,19.9
976 67,Závadka nad Hronom,Brezno,BC,48.85,19.9167
976 68,He?pa,Brezno,BC,48.8667,19.9667
976 69,Zlatno,Brezno,BC,48.8333,20.0833
976 71,?ervená Skala,Brezno,BC,48.8167,20.15
976 73,Telgárt,Brezno,BC,48.85,20.2
976 75,Jasenie,Brezno,BC,48.8333,19.4667
976 97,Dubová,Brezno,BC,48.8167,19.4333
976 98,Dolná Lehota,Brezno,BC,48.8167,19.5083
977 01,Predné Halny,Brezno,BC,48.85,19.6917
977 03,Mazorníkovo,Brezno,BC,48.85,19.6917
962 02,Víg?aš,Detva,BC,48.5667,19.3
962 04,Korytárky,Detva,BC,48.5167,19.4667
962 05,Slanec,Detva,BC,48.6083,19.5417
962 06,Bratkovica,Detva,BC,48.6,19.6333
962 12,Krné,Detva,BC,48.6063,19.2167
962 25,Slatinské Lazy,Detva,BC,48.5,19.3333
962 75,Dolný Tisovník,Detva,BC,48.4,19.3833
985 45,?echánky,Detva,BC,48.55,19.6
985 51,Zubria,Detva,BC,48.5167,19.4833
962 41,Jalšovík,Krupina,BC,48.3188,19.1125
962 43,Horné Mladonice,Krupina,BC,48.35,19.15
962 44,Litava,Krupina,BC,48.3,19.1833
962 51,Selce,Krupina,BC,48.2583,19.075
962 52,Duchenec,Krupina,BC,48.25,19.2
962 55,Dolné Rykyn?ice,Krupina,BC,48.2,18.9667
962 65,Rakovec,Krupina,BC,48.2972,18.9972
962 66,Sebechleby,Krupina,BC,48.2833,18.95
962 67,Ladzany,Krupina,BC,48.2667,18.9167
962 68,Bá?ovce,Krupina,BC,48.2333,18.9167
962 71,Hontianske Moravce,Krupina,BC,48.1972,18.8694
963 01,Žibritov,Krupina,BC,48.4,18.9833
980 33,Šurice,Lu?enec,BC,48.2333,19.9167
984 01,Mikušovce,Lu?enec,BC,48.35,19.775
985 11,Hali?,Lu?enec,BC,48.35,19.5833
985 12,Tuhár,Lu?enec,BC,48.4333,19.5167
985 13,Ábelová,Lu?enec,BC,48.4167,19.4333
985 22,To?nica,Lu?enec,BC,48.4167,19.65
985 31,Trebe?ovce,Lu?enec,BC,48.2833,19.7167
985 32,Šára,Lu?enec,BC,48.2667,19.6167
985 41,Dora,Lu?enec,BC,48.3083,19.8
985 42,Ve?ké Dravce,Lu?enec,BC,48.35,19.85
985 52,Divínske Lazy,Lu?enec,BC,48.4417,19.5417
985 53,Herman,Lu?enec,BC,48.5,19.55
985 54,Lovinoba?a,Lu?enec,BC,48.4333,19.6
985 55,Podre?any,Lu?enec,BC,48.4,19.6167
985 56,Gregorova Vieska,Lu?enec,BC,48.3833,19.5833
985 57,Holiša,Lu?enec,BC,48.3167,19.75
985 58,?akanovce,Lu?enec,BC,48.2167,19.8333
985 59,Vidiná,Lu?enec,BC,48.3667,19.65
986 01,Kurtá?,Lu?enec,BC,48.2729,19.8271
980 12,Hrn?iarske Zalužany,Poltár,BC,48.4,19.8833
980 13,Selce,Poltár,BC,48.4333,19.8667
985 01,Ve?ká Ves,Poltár,BC,48.3833,19.6833
985 02,Brezni?ka,Poltár,BC,48.4333,19.7
985 03,Va?kovo,Poltár,BC,48.4667,19.8333
985 04,Zlatno,Poltár,BC,48.55,19.75
985 05,Kokava nad Rimavicou,Poltár,BC,48.5667,19.8333
985 06,Uteká?,Poltár,BC,48.6,19.8
985 07,?ubienka,Poltár,BC,48.575,19.7417
985 23,Hrn?iarky,Poltár,BC,48.4667,19.6333
985 24,Bystri?ka,Poltár,BC,48.4583,19.7167
985 25,Uhorské,Poltár,BC,48.4667,19.75
985 26,Vl?ovo,Poltár,BC,48.5667,19.7167
987 01,Slaná Lehota,Poltár,BC,48.45,19.8
049 01,Muránska Huta,Revúca,BC,48.7833,20.1167
049 13,Nová?any,Revúca,BC,48.575,20.3083
049 14,Šivetice,Revúca,BC,48.5833,20.2833
049 16,Gemerské Teplice,Revúca,BC,48.6367,20.26
049 18,Tur?ok,Revúca,BC,48.6333,20.15
049 61,Rákošská Ba?a,Revúca,BC,48.6,20.1333
049 62,Kame?any,Revúca,BC,48.5833,20.2
049 64,?erve?any,Revúca,BC,48.6167,20.1
050 01,Revú?ka,Revúca,BC,48.7167,20.1333
982 01,Behynce,Revúca,BC,48.4292,20.325
982 52,Gregorovce,Revúca,BC,48.4444,20.2139
982 62,Držkovce,Revúca,BC,48.55,20.2333
982 63,Viš?ové,Revúca,BC,48.5083,20.2
982 64,Rybník,Revúca,BC,48.55,20.1333
982 65,Repištia,Revúca,BC,48.5833,20.1167
982 66,Hrlica,Revúca,BC,48.6333,20.05
979 01,Zacharovce,Rimavská Sobota,BC,48.4167,20.05
980 01,Belín,Rimavská Sobota,BC,48.35,20.1167
980 02,Širkovce,Rimavská Sobota,BC,48.2833,20.0833
980 03,Dr?a,Rimavská Sobota,BC,48.2667,20.1167
980 04,Hostice,Rimavská Sobota,BC,48.2333,20.0667
980 11,Ož?any,Rimavská Sobota,BC,48.3833,19.9
980 21,Žíp,Rimavská Sobota,BC,48.3667,20.2
980 22,Uzovská Panica,Rimavská Sobota,BC,48.4167,20.15
980 23,Slizké,Rimavská Sobota,BC,48.5167,20.0833
980 25,Hrušovo,Rimavská Sobota,BC,48.5167,20.05
980 26,Babinec,Rimavská Sobota,BC,48.5167,20
980 31,?ierny Potok,Rimavská Sobota,BC,48.6167,19.85
980 32,Blhovce,Rimavská Sobota,BC,48.2667,19.9667
980 34,Ve?elkov,Rimavská Sobota,BC,48.1667,19.9333
980 35,Gemerský Jablonec,Rimavská Sobota,BC,48.2,19.9833
980 41,Dubovec,Rimavská Sobota,BC,48.2833,20.1667
980 42,Zádor,Rimavská Sobota,BC,48.3167,20.25
980 43,?íž,Rimavská Sobota,BC,48.3167,20.2833
980 44,Chanava,Rimavská Sobota,BC,48.3333,20.3
980 45,Neporadza,Rimavská Sobota,BC,48.3667,20.4
980 50,V?elince,Rimavská Sobota,BC,48.3833,20.3
980 51,Krásna,Rimavská Sobota,BC,48.4167,19.9667
980 52,Vrbovce nad Rimavou,Rimavská Sobota,BC,48.4633,19.9467
980 53,Lehota nad Rimavicou,Rimavská Sobota,BC,48.5083,19.9417
980 54,Kyjatice,Rimavská Sobota,BC,48.5333,20.0167
980 55,Klenovec,Rimavská Sobota,BC,48.6,19.9
980 61,Tisovec,Rimavská Sobota,BC,48.6833,19.95
981 01,Hnúš?a,Rimavská Sobota,BC,48.5833,19.9667
982 51,Barca,Rimavská Sobota,BC,48.3667,20.2333
982 67,Popro?,Rimavská Sobota,BC,48.5833,20.0333
990 01,Ve?ký Krtíš,Ve?ký Krtíš,BC,48.2,19.35
991 01,Senné,Ve?ký Krtíš,BC,48.3333,19.4167
991 02,Bukovec,Ve?ký Krtíš,BC,48.2333,19.4
991 03,Horné Strháre,Ve?ký Krtíš,BC,48.2667,19.3667
991 05,Obeckov,Ve?ký Krtíš,BC,48.1667,19.3333
991 06,Kiarov,Ve?ký Krtíš,BC,48.1167,19.4167
991 07,Iliašov,Ve?ký Krtíš,BC,48.1167,19.2833
991 08,Chrastince,Ve?ký Krtíš,BC,48.1,19.25
991 09,Ve?ká ?alomija,Ve?ký Krtíš,BC,48.0667,19.2
991 10,Ve?ká Ves nad Ip?om,Ve?ký Krtíš,BC,48.0833,19.1
991 11,Balog nad Ip?om,Ve?ký Krtíš,BC,48.0833,19.1333
991 21,Imrov Kopec,Ve?ký Krtíš,BC,48.3083,19.4667
991 22,Glabušovce,Ve?ký Krtíš,BC,48.15,19.4667
991 23,Ve?ké Zlievce,Ve?ký Krtíš,BC,48.2,19.45
991 24,Stredné Plachtince,Ve?ký Krtíš,BC,48.2333,19.3
991 25,Dolné Príbelce,Ve?ký Krtíš,BC,48.2,19.2667
991 26,Bátorová,Ve?ký Krtíš,BC,48.1333,19.2833
991 27,Trebušovce,Ve?ký Krtíš,BC,48.1167,19.2
991 28,Vinica,Ve?ký Krtíš,BC,48.1167,19.1333
991 35,Da?ov Lom,Ve?ký Krtíš,BC,48.3167,19.2667
991 41,?elovce,Ve?ký Krtíš,BC,49.0833,21.4
991 42,Hrušov,Ve?ký Krtíš,BC,48.15,19.1
992 01,Kamenný Vrch,Ve?ký Krtíš,BC,48.25,19.3333
960 01,Krá?ová,Zvolen,BC,48.4333,19.2
962 01,Slatinka,Zvolen,BC,48.55,19.2167
962 21,Lukové,Zvolen,BC,48.6,19.2
962 23,O?ová,Zvolen,BC,48.6,19.2833
962 31,Lukavica,Zvolen,BC,48.625,19.1611
962 32,Slia? - kúpele,Zvolen,BC,48.6152,19.1061
962 33,Bud?a,Zvolen,BC,48.5833,19.0667
962 34,Budi?ka,Zvolen,BC,48.6,19.0333
962 37,Ková?ová,Zvolen,BC,48.6333,20.7
962 61,Dubové,Zvolen,BC,48.5037,19.0981
962 62,Sása,Zvolen,BC,48.4167,19.1333
962 63,Dolinky,Zvolen,BC,48.4167,19.1833
966 12,Hronská Breznica,Zvolen,BC,48.5667,19
966 41,Ve?ká Lehota,Žarnovica,BC,48.7,18.5833
966 42,Malá Lehota,Žarnovica,BC,48.7,18.6167
966 51,Rudno nad Hronom,Žarnovica,BC,48.4333,18.6833
966 52,Tekovská Breznica,Žarnovica,BC,48.3833,18.6167
966 53,Hronský Be?adik,Žarnovica,BC,48.3333,18.55
966 61,Hámre - Dolné Hámre,Žarnovica,BC,48.45,18.775
966 63,Banská Hodruša,Žarnovica,BC,48.4667,18.8167
966 71,Kostivrch,Žarnovica,BC,48.5167,18.65
966 74,Ve?ké Pole,Žarnovica,BC,48.55,18.5667
966 77,K?ak,Žarnovica,BC,48.5833,18.65
966 78,Hrabi?ov,Žarnovica,BC,48.5333,18.6667
966 81,Lukavica,Žarnovica,BC,48.4933,18.7233
968 01,Bukovina,Žarnovica,BC,48.4567,18.6033
965 01,Vieska,Žiar nad Hronom,BC,48.5889,18.8889
966 01,Bukovina,Žiar nad Hronom,BC,48.56,18.7667
966 02,Vyhne,Žiar nad Hronom,BC,48.5,18.8
966 03,Repište,Žiar nad Hronom,BC,48.5167,18.85
966 04,Horná Žda?a,Žiar nad Hronom,BC,48.5667,18.75
966 11,Trnavá Hora,Žiar nad Hronom,BC,48.6,18.9667
966 21,Dolná Trnávka,Žiar nad Hronom,BC,48.5667,18.8
966 22,Lutila,Žiar nad Hronom,BC,48.6167,18.85
966 23,Trubín,Žiar nad Hronom,BC,48.6167,18.7833
966 24,Janova Lehota,Žiar nad Hronom,BC,48.6667,18.7833
966 32,Jastrabá,Žiar nad Hronom,BC,48.6333,18.9333
967 01,Dolná Ves,Žiar nad Hronom,BC,48.6667,18.9167
821 06,Bratislava - Podunajské Biskupice,Bratislava II,BL,48.15,17.1167
821 07,Bratislava - Vraku?a,Bratislava II,BL,48.15,17.1167
831 07,Bratislava - Vajnory,Bratislava III,BL,48.15,17.1167
841 03,Bratislava - Lama?,Bratislava IV,BL,48.15,17.1167
841 06,Bratislava - Záhorská Bystrica,Bratislava IV,BL,48.15,17.1167
841 10,Bratislava - Devín,Bratislava IV,BL,48.15,17.1167
851 10,Bratislava - ?unovo,Bratislava V,BL,48.15,17.1167
900 31,Stupava,Malacky,BL,48.2833,17.0333
900 32,Borinka,Malacky,BL,48.2667,17.0833
900 33,Marianka,Malacky,BL,48.25,17.0667
900 51,Zohor,Malacky,BL,48.3667,17.1222
900 52,Kuchy?a,Malacky,BL,48.4,17.1667
900 53,Pernek,Malacky,BL,48.3667,17.15
900 54,Jablonové,Malacky,BL,49.1833,18.5667
900 55,Lozorno,Malacky,BL,48.3333,17.05
900 61,Gajary,Malacky,BL,48.3667,17
900 62,Kostolište,Malacky,BL,48.3667,17
900 63,Jakubov,Malacky,BL,48.3667,17
900 64,Suchohrad,Malacky,BL,48.3667,17
900 65,Záhorská Ves,Malacky,BL,48.3667,17
900 66,Vysoká pri Morave,Malacky,BL,48.3667,17
900 67,Láb,Malacky,BL,48.3667,17
900 68,Plavecký Štvrtok,Malacky,BL,48.3667,17
901 01,Vinohrádok,Malacky,BL,48.4167,17
906 35,Plavecký Mikuláš,Malacky,BL,48.5167,17.3
906 36,Plavecké Podhradie,Malacky,BL,48.4833,17.2667
906 37,Sološnica,Malacky,BL,48.4667,17.2333
906 38,Rohožník,Malacky,BL,49.1167,21.7667
908 72,Závod,Malacky,BL,48.55,17.0333
908 73,Ve?ké Leváre,Malacky,BL,48.5,17
908 74,Malé Leváre,Malacky,BL,48.5833,17.1258
908 75,Studienka,Malacky,BL,48.5333,17.1333
900 01,Harmónia,Pezinok,BL,48.3667,17.3167
900 21,Svätý Jur,Pezinok,BL,48.25,17.2167
900 23,Vini?né,Pezinok,BL,48.2667,17.3
900 26,Slovenský Grob,Pezinok,BL,48.25,17.2833
900 81,Šenkvice,Pezinok,BL,48.3233,17.43
900 84,Báho?,Pezinok,BL,48.3,17.45
900 85,Vištuk,Pezinok,BL,48.3333,17.4
900 86,Štefanová,Pezinok,BL,48.3833,17.4
900 88,Do?any,Pezinok,BL,49.0167,20.6667
900 89,Píla,Pezinok,BL,48.4,17.3667
900 90,Dubová,Pezinok,BL,49.3667,21.4333
900 91,Limbach,Pezinok,BL,48.2833,17.2167
902 01,Vinosady,Pezinok,BL,48.2667,17.25
902 03,Myslenice,Pezinok,BL,48.2667,17.25
900 24,Malý Biel,Senec,BL,48.2167,17.3667
900 25,Chorvátsky Grob,Senec,BL,48.2333,17.3
900 27,Bernolákovo,Senec,BL,48.2,17.3
900 28,Ivanka pri Dunaji,Senec,BL,48.1833,17.2667
900 29,Dedinka pri Dunaji,Senec,BL,48.1833,17.35
900 41,Rovinka,Senec,BL,48.1,17.2333
900 42,Nová Lipnica,Senec,BL,48.0833,17.2833
900 43,Hamuliakovo,Senec,BL,48.0333,17.25
900 44,Tomášov,Senec,BL,48.15,17.3333
900 45,Malinovo,Senec,BL,48.1667,17.3
900 46,Studené,Senec,BL,48.1076,17.2924
900 50,Krá?ová pri Senci,Senec,BL,48.3667,17.1222
900 82,Blatné,Senec,BL,48.2667,17.4167
900 83,?ataj,Senec,BL,48.2667,17.4833
903 01,Senec,Senec,BL,48.2167,17.4
925 23,Hrubá Borša,Senec,BL,48.1833,17.4833
925 26,Boldog,Senec,BL,48.2333,17.4667
053 33,Závadka,Gelnica,KI,48.8111,20.6111
053 34,Švedlár,Gelnica,KI,48.8167,20.7167
053 51,Štefanská Huta,Gelnica,KI,48.9333,20.9278
055 01,Margecany,Gelnica,KI,48.8833,21
055 51,Ve?ký Folkmar,Gelnica,KI,48.85,21.0167
055 52,Kojšov,Gelnica,KI,48.8167,21
055 61,Jaklovce,Gelnica,KI,48.8667,21
055 62,Prakovce,Gelnica,KI,48.8167,20.9
055 63,Helcmanovce,Gelnica,KI,48.8333,20.8667
055 64,Mníšek nad Hnilcom,Gelnica,KI,48.8,20.8
055 65,Smolnícka Huta,Gelnica,KI,48.75,20.7833
055 66,Smolník,Gelnica,KI,48.7333,20.75
055 71,Žakarovce,Gelnica,KI,48.8833,20.9333
056 01,Gelnica,Gelnica,KI,48.85,20.9333
040 01,Košice - Kave?any,Košice I,KI,48.7167,21.25
040 13,Košice - ?ahanovce,Košice I,KI,48.7167,21.25
040 11,Košice - Lorin?ík,Košice II,KI,48.7167,21.25
040 15,Košice - Po?ov,Košice II,KI,48.7167,21.25
040 16,Košice - Myslava,Košice II,KI,48.7167,21.25
044 54,Košice - Železiarne,Košice II,KI,48.7167,21.25
040 14,Košice - Košická Nová Ves,Košice III,KI,48.7097,21.2681
040 17,Košice - Barca,Košice IV,KI,48.7167,21.25
040 18,Košice - Krásna,Košice IV,KI,48.7167,21.25
044 01,Drienovec,Košice-okolie,KI,48.6167,20.95
044 02,Žarnov,Košice-okolie,KI,48.5833,20.9333
044 05,Janík,Košice-okolie,KI,48.55,20.9667
044 10,Ge?a,Košice-okolie,KI,48.6333,21.3167
044 11,Žda?a,Košice-okolie,KI,48.6,21.35
044 12,Hý?ov,Košice-okolie,KI,48.7333,21.1167
044 13,Koš?any,Košice-okolie,KI,48.6333,21.3
044 14,?a?a,Košice-okolie,KI,48.6,21.3333
044 15,Nižná Myš?a,Košice-okolie,KI,48.6167,21.3667
044 16,Bohdanovce,Košice-okolie,KI,48.65,21.4
044 17,Nový Salaš,Košice-okolie,KI,48.6167,21.4833
044 18,Kalša,Košice-okolie,KI,48.6167,21.5333
044 19,?urkov,Košice-okolie,KI,48.7,21.45
044 20,Baška,Košice-okolie,KI,48.7,21.1833
044 21,Šemša,Košice-okolie,KI,48.6833,21.1167
044 23,Jasov,Košice-okolie,KI,48.6833,20.9833
044 24,Popro?,Košice-okolie,KI,48.5833,20.0333
044 25,Nižný Medzev,Košice-okolie,KI,48.7167,20.9111
044 26,Štós,Košice-okolie,KI,48.7167,20.7833
044 31,Soko?,Košice-okolie,KI,48.8167,21.2167
044 32,Malá Lodina,Košice-okolie,KI,48.8833,21.1333
044 41,Sady nad Torysou,Košice-okolie,KI,48.7,21.3417
044 42,Hrašovík,Košice-okolie,KI,48.75,21.3167
044 43,Vajkovce,Košice-okolie,KI,48.7833,21.3333
044 44,Chrastné,Košice-okolie,KI,48.8,21.35
044 45,?ur?ošík,Košice-okolie,KI,48.7562,21.4646
044 46,Vyšná Kamenica,Košice-okolie,KI,48.7833,21.4833
044 47,Vtá?kovce,Košice-okolie,KI,48.85,21.3833
044 55,Gomboš,Košice-okolie,KI,48.6,21.1667
044 56,Bo?iar,Košice-okolie,KI,48.5833,21.25
044 57,Haniska,Košice-okolie,KI,48.9667,21.25
044 58,Se?a,Košice-okolie,KI,48.5667,21.2667
044 61,Zlatá Idka,Košice-okolie,KI,48.75,21.0167
044 65,Košická Belá,Košice-okolie,KI,48.8,21.1167
044 71,?e?ejovce,Košice-okolie,KI,48.6,21.0667
044 73,Buzica,Košice-okolie,KI,48.5333,21.0667
044 74,Chym,Košice-okolie,KI,48.5444,21.1778
044 81,Trebejov,Košice-okolie,KI,48.8333,21.2333
045 01,Debra?,Košice-okolie,KI,48.65,20.9833
071 01,Vybúchanec,Michalovce,KI,48.8167,21.8167
072 01,Šamudovce,Michalovce,KI,48.7,21.8833
072 02,Tušice,Michalovce,KI,48.7333,21.75
072 03,Moravany,Michalovce,KI,48.7333,21.7833
072 04,Bánovce nad Ondavou,Michalovce,KI,48.6833,21.8167
072 05,Bracovce,Michalovce,KI,48.6333,21.8333
072 06,Mal?ice,Michalovce,KI,48.5833,21.85
072 11,Jastrabie pri Michalovciach,Michalovce,KI,48.7167,22.0083
072 13,Zemplínska Široká,Michalovce,KI,48.6458,22
072 14,Vysoká nad Uhom,Michalovce,KI,48.6333,22.1
072 15,Komanica,Michalovce,KI,48.6333,21.8833
072 16,Vrbnica,Michalovce,KI,48.6833,21.8833
072 17,Zemplínske Kop?any,Michalovce,KI,48.5833,21.9167
072 21,Vo?a,Michalovce,KI,48.85,21.85
072 22,Strážske,Michalovce,KI,48.8667,21.8333
072 23,Staré,Michalovce,KI,48.8667,21.8667
072 31,Trnava pri Laborci,Michalovce,KI,48.8167,21.9333
072 32,Jovsa,Michalovce,KI,48.8333,22.1
072 33,Závadka,Michalovce,KI,48.775,22.075
072 34,Ve?ké Zalužice,Michalovce,KI,48.75,21.9833
072 36,Kaluža,Michalovce,KI,48.8167,22
072 37,Sliepkovce,Michalovce,KI,48.6667,21.95
072 54,Bajany,Michalovce,KI,48.6,22.1167
076 71,?i?arovce,Michalovce,KI,48.55,22.0333
076 72,Beša,Michalovce,KI,48.5583,21.9667
076 74,Drah?ov,Michalovce,KI,48.5833,21.9667
076 75,Ve?ké Raškovce,Michalovce,KI,48.55,21.9167
076 77,Ve?ké Slemence,Michalovce,KI,48.5167,22.15
079 01,?ierne Pole,Michalovce,KI,48.5667,22.0833
048 01,?u?ma,Rož?ava,KI,48.6833,20.55
049 11,Vidová,Rož?ava,KI,48.5667,20.45
049 12,Bohú?ovo,Rož?ava,KI,48.5167,20.3708
049 21,Betliar,Rož?ava,KI,48.7,20.5167
049 22,Gemerská Poloma,Rož?ava,KI,48.7593,20.3926
049 23,Nižnoslanská Ba?a,Rož?ava,KI,48.7333,20.4056
049 24,Vlachovo,Rož?ava,KI,48.7833,20.4167
049 25,Dobšiná,Rož?ava,KI,48.8167,20.3667
049 26,Vyšná Slaná,Rož?ava,KI,48.7833,20.3167
049 31,Rakovnica,Rož?ava,KI,48.6667,20.4667
049 32,Štítnik,Rož?ava,KI,48.6667,20.3667
049 34,Brdárka,Rož?ava,KI,48.7667,20.3333
049 35,Koce?ovce,Rož?ava,KI,48.7167,20.35
049 36,Slavošovce,Rož?ava,KI,48.7167,20.2833
049 41,Pa?a,Rož?ava,KI,48.6833,20.6167
049 42,Bôrka,Rož?ava,KI,48.6333,20.7667
049 43,Silická Jablonica,Rož?ava,KI,48.5667,20.6167
049 44,Hrhov,Rož?ava,KI,48.6,20.75
049 45,Jovice,Rož?ava,KI,48.6333,20.55
049 51,Brzotín,Rož?ava,KI,48.6333,20.5
049 52,Silica,Rož?ava,KI,48.55,20.5333
049 55,Ardovo,Rož?ava,KI,48.5333,20.4167
049 71,Stratená,Rož?ava,KI,48.8667,20.35
049 73,Dedinky,Rož?ava,KI,48.8667,20.3833
980 46,Bretka,Rož?ava,KI,48.4833,20.35
072 41,Vyšné Remety,Sobrance,KI,48.8333,22.1667
072 42,Ruskovce,Sobrance,KI,48.7833,22.1667
072 43,Blatné Revištia,Sobrance,KI,48.7333,22.0833
072 44,Blatná Polianka,Sobrance,KI,48.6833,22.1
072 51,Mo?idlá,Sobrance,KI,48.6833,22.2567
072 52,Jenkovce,Sobrance,KI,48.65,22.2167
072 53,Záhor,Sobrance,KI,48.6333,22.2
072 55,Svätuš,Sobrance,KI,48.6833,22.1333
072 61,Kolibabovce,Sobrance,KI,48.7167,22.2667
072 62,Korom?a,Sobrance,KI,48.7167,22.3
072 63,Ko?uš,Sobrance,KI,48.7833,22.2667
072 64,Ruský Hrabovec,Sobrance,KI,48.85,22.35
073 01,Sobranecké Kúpele,Sobrance,KI,48.7583,22.1944
052 01,Spišské Tomášovce,Spišská Nová Ves,KI,48.95,20.4667
053 01,Harichovce,Spišská Nová Ves,KI,48.9667,20.5833
053 11,Smižany,Spišská Nová Ves,KI,48.9667,20.5333
053 13,Arnutovce,Spišská Nová Ves,KI,48.9833,20.5
053 15,Betlanovce,Spišská Nová Ves,KI,48.9833,20.4
053 21,Lieskovany,Spišská Nová Ves,KI,48.9333,20.6167
053 22,Danišovce,Spišská Nová Ves,KI,48.95,20.6333
053 23,Rud?any,Spišská Nová Ves,KI,48.8833,20.6833
053 31,Novoveská Huta,Spišská Nová Ves,KI,48.8354,20.6208
053 32,Bindt,Spišská Nová Ves,KI,48.8833,20.5833
053 40,Slovinky,Spišská Nová Ves,KI,48.8833,20.85
053 42,Ka?ava,Spišská Nová Ves,KI,48.9333,20.8667
053 61,Spišské Vlachy,Spišská Nová Ves,KI,48.95,20.8
053 62,Bystrany,Spišská Nová Ves,KI,48.95,20.7667
053 63,Vítkovce,Spišská Nová Ves,KI,48.9333,20.7333
053 75,Delava,Spišská Nová Ves,KI,48.8333,20.5
053 76,Rakovec,Spišská Nová Ves,KI,48.8583,20.4125
075 01,Ve?ký Ruskov,Trebišov,KI,48.65,21.6833
076 01,Kožuchov,Trebišov,KI,48.5667,21.7333
076 02,Zemplínsky Bran?,Trebišov,KI,48.55,21.7333
076 03,Hra?,Trebišov,KI,48.5167,21.8167
076 05,Zemplínske Jastrabie,Trebišov,KI,48.475,21.7917
076 11,Egreš,Trebišov,KI,48.6167,21.6167
076 12,Slivník,Trebišov,KI,48.6,21.55
076 13,Byšta,Trebišov,KI,48.5333,21.55
076 14,Lastovce,Trebišov,KI,48.55,21.6333
076 15,Hr?e?,Trebišov,KI,48.5333,21.7
076 16,Stan?a,Trebišov,KI,48.5667,21.6667
076 17,?e?ovce,Trebišov,KI,48.6,21.6333
076 22,Voj?ice,Trebišov,KI,48.6833,21.7167
076 31,Vini?ky,Trebišov,KI,48.4,21.75
076 32,Borša,Trebišov,KI,48.3833,21.7167
076 33,Slovenské Nové Mesto,Trebišov,KI,48.4,21.6667
076 34,Zemplín,Trebišov,KI,48.4333,21.8167
076 35,Svätá Mária,Trebišov,KI,48.45,21.8333
076 36,Ve?ký Kamenec,Trebišov,KI,48.3667,21.8167
076 37,Hrušov,Trebišov,KI,48.4667,21.875
076 41,Kolónia,Trebišov,KI,48.4167,22.0417
076 42,Kolónia,Trebišov,KI,48.3917,22.1083
076 43,Bo?any,Trebišov,KI,48.45,22.1
076 51,Pribeník,Trebišov,KI,48.3833,22
076 52,On?a,Trebišov,KI,48.3833,21.9111
076 53,Zatín,Trebišov,KI,48.4833,21.9
076 61,Dargov,Trebišov,KI,48.7556,21.65
076 62,Hunkovce,Trebišov,KI,48.7458,21.7125
076 63,Ve?ké Ozorovce,Trebišov,KI,48.6667,21.6167
076 64,Zemplínska Teplica,Trebišov,KI,48.65,21.5667
076 81,?erhov,Trebišov,KI,48.4667,21.65
076 82,Ve?ká T??a,Trebišov,KI,48.4667,21.6833
076 83,Vojka,Trebišov,KI,48.4667,21.9167
076 84,Ba?ka,Trebišov,KI,48.4333,22.05
077 01,Fejséš,Trebišov,KI,48.4167,21.9833
078 01,Trnávka,Trebišov,KI,48.6917,21.6417
945 01,Malá Iža,Komárno,NI,47.7875,18.125
945 04,?erhát,Komárno,NI,47.7667,18.0333
946 01,Balvany,Komárno,NI,47.8333,18.0167
946 02,Violín,Komárno,NI,47.8,17.9833
946 03,?ásta,Komárno,NI,47.9417,18
946 12,Zlatná na Ostrove,Komárno,NI,47.7667,17.9667
946 13,Štúrová,Komárno,NI,47.8333,17.95
946 14,Sokolce - lúky,Komárno,NI,47.8,17.8667
946 15,Tô?,Komárno,NI,47.8,17.8333
946 16,Bodza,Komárno,NI,47.8333,17.8333
946 17,Sokolce,Komárno,NI,47.85,17.8333
946 19,Klížska Nemá,Komárno,NI,47.75,17.8167
946 21,Ve?ké Kosihy,Komárno,NI,47.7667,17.8833
946 31,Chotín,Komárno,NI,47.8,18.2333
946 32,Krátke Kesy,Komárno,NI,47.7833,18.2833
946 33,Modrany,Komárno,NI,47.8333,18.35
946 34,Bátorove Kosihy,Komárno,NI,47.8333,18.4167
946 35,Bú?,Komárno,NI,47.8167,18.45
946 36,Kravany nad Dunajom,Komárno,NI,47.7667,18.4833
946 37,Mo?a,Komárno,NI,47.7667,18.4167
946 38,Žitava,Komárno,NI,47.75,18.3667
946 39,Bokroš,Komárno,NI,47.75,18.2333
946 51,A?ala,Komárno,NI,47.9667,18.1333
946 52,Ime?,Komárno,NI,47.9,18.15
946 54,Chras?,Komárno,NI,47.9417,18.225
946 55,Pribeta,Komárno,NI,47.9,18.3167
946 56,Dulovce,Komárno,NI,47.8667,18.2667
946 57,Svätý Peter,Komárno,NI,47.85,18.2667
946 65,Kava,Komárno,NI,47.8357,18.1159
947 01,Holanovo,Komárno,NI,47.85,18.1667
947 03,Bohatá,Komárno,NI,47.8833,18.2
934 01,Nixbrod,Levice,NI,48.2125,18.675
935 02,Brhlovce,Levice,NI,48.2667,18.75
935 03,Jalakšová,Levice,NI,48.2833,18.75
935 04,Devi?any,Levice,NI,48.3333,18.7167
935 05,Majere,Levice,NI,48.375,18.7417
935 06,Jablo?ovce,Levice,NI,48.3167,18.8
935 21,Lipník,Levice,NI,48.2833,18.5278
935 22,Kozárovce,Levice,NI,48.3167,18.5333
935 23,Rybník,Levice,NI,48.55,20.1333
935 24,?ajkov,Levice,NI,48.2833,18.6
935 25,Gondovo,Levice,NI,48.2833,18.6667
935 26,Starý Tekov,Levice,NI,48.25,18.5333
935 27,Hronské Kosihy,Levice,NI,48.2667,18.6
935 29,Hronské K?a?any,Levice,NI,48.2333,18.5667
935 31,Vyšné nad Hronom,Levice,NI,48.1667,18.5833
935 32,Kalná,Levice,NI,48.1885,18.4688
935 33,Šándorhalma,Levice,NI,48.2417,18.525
935 34,Ve?ký ?ur,Levice,NI,48.2083,18.4583
935 35,Lula,Levice,NI,48.1833,18.3667
935 36,Beša,Levice,NI,48.15,18.4
935 37,Dolný Pial,Levice,NI,48.1333,18.4667
935 38,Lok,Levice,NI,48.1833,18.4667
935 39,Mochovce,Levice,NI,48.2667,18.45
935 41,Arma,Levice,NI,48.125,18.5583
935 51,Turá,Levice,NI,48.15,18.5278
935 52,Veselá,Levice,NI,48.2667,18.3667
935 55,Pežer?a,Levice,NI,48.125,18.7083
935 56,Dobogov,Levice,NI,48.1583,18.65
935 57,Žemliare,Levice,NI,48.15,18.6
935 61,Domaša,Levice,NI,48,18.65
935 62,Pohronský Ruskov,Levice,NI,47.9833,18.6667
935 63,?ata,Levice,NI,47.95,18.6667
935 64,Ke?,Levice,NI,47.9667,18.5667
935 65,Ve?ké Ludince,Levice,NI,47.9667,18.5167
935 66,Farná,Levice,NI,48,18.5167
935 67,Málaš,Levice,NI,48.05,18.5333
935 68,?aka,Levice,NI,48.05,18.4833
935 69,Plavé Vozokany,Levice,NI,48.0667,18.4833
935 71,Šalov,Levice,NI,48,18.7167
935 74,Bielovce,Levice,NI,48,18.7833
935 75,Lontov,Levice,NI,48.05,18.7833
935 77,Vyškovce nad Ip?om,Levice,NI,48.05,18.8667
935 81,Ve?ké Turovce,Levice,NI,48.1222,18.95
935 82,Pláš?ovce,Levice,NI,48.1667,18.9833
935 84,Krá?ovi?ová,Levice,NI,48.1333,18.8933
935 85,Dolné Semerovce,Levice,NI,48.1167,18.85
935 86,Hontianske Trs?any,Levice,NI,48.1373,18.8745
935 87,Bory,Levice,NI,48.1833,18.75
936 01,Hrkovce,Levice,NI,48.0833,18.9167
937 01,Jarok,Levice,NI,48.0333,18.7
949 01,?ermá?,Nitra,NI,48.32,18.0567
949 05,Horné Krškany,Nitra,NI,48.2833,18.1
949 07,Janíkovce,Nitra,NI,48.2833,18.15
949 11,Kloko?ina,Nitra,NI,48.3042,18.0792
951 01,Štitáre,Nitra,NI,48.3333,18.1333
951 02,Dolné Obdokovce,Nitra,NI,48.3167,18.2167
951 03,?e?adice,Nitra,NI,48.3333,18.25
951 04,Ve?ký Lapáš,Nitra,NI,48.3,18.1833
951 05,Ve?ký Cetín,Nitra,NI,48.2167,18.2
951 06,Dolný Vinodol,Nitra,NI,48.1833,18.2167
951 07,?echynce,Nitra,NI,48.25,18.1667
951 08,Golianovo,Nitra,NI,48.2667,18.2
951 12,Ivanka pri Nitre,Nitra,NI,48.2333,18.1167
951 13,Ve?ká Ves,Nitra,NI,48.2167,18.15
951 15,Ba?ala,Nitra,NI,48.1833,18
951 16,Svätoplukovo,Nitra,NI,48.2333,18.05
951 17,Cabaj,Nitra,NI,48.25,18.0333
951 21,Riš?ovce,Nitra,NI,48.3667,17.9
951 22,Alekšince,Nitra,NI,48.3667,17.95
951 23,Luká?ovce,Nitra,NI,48.4,17.9333
951 24,Ceroviny,Nitra,NI,48.4333,17.9792
951 25,Su?any,Nitra,NI,48.45,18.0167
951 26,Perkovce,Nitra,NI,48.4,18.0333
951 34,Malý Báb,Nitra,NI,48.3,17.8667
951 35,Ve?ké Zálužie,Nitra,NI,48.3,17.95
951 36,Lehota,Nitra,NI,48.3167,18
951 37,Rumanová,Nitra,NI,48.3333,17.8667
951 41,Lužianky,Nitra,NI,48.3333,18.05
951 42,Anda?,Nitra,NI,48.3833,17.9833
951 43,?akajovce,Nitra,NI,48.3667,18.0333
951 44,Opatovce - Vý?apy,Nitra,NI,48.4,18.0833
951 45,Horné Lefantovce,Nitra,NI,48.4167,18.15
951 46,Sokolníky,Nitra,NI,48.3833,18.1167
951 48,Jarok,Nitra,NI,48.0333,18.7
951 51,Nová Ves nad Žitavou,Nitra,NI,48.2833,18.3333
951 53,Babindol,Nitra,NI,48.2833,18.25
951 54,Ve?ké Chyndice,Nitra,NI,48.2833,18.3
951 61,?ifáre,Nitra,NI,48.2333,18.4
951 73,Jelenec,Nitra,NI,48.3833,18.2333
951 74,Žirany,Nitra,NI,48.3833,18.1833
951 78,Kolí?any,Nitra,NI,48.3667,18.2
951 88,Martinová,Nitra,NI,48.2167,18.3
952 01,Horný Ohaj,Nitra,NI,48.25,18.3167
940 01,Nový Gúg,Nové Zámky,NI,47.9548,18.252
941 01,Bánov,Nové Zámky,NI,48.05,18.2
941 02,Ondrochov,Nové Zámky,NI,48.1333,18.1833
941 03,Ú?any nad Žitavou,Nové Zámky,NI,48.1,18.25
941 04,Mojzesovo,Nové Zámky,NI,48.1333,18.2333
941 05,?erník,Nové Zámky,NI,48.15,18.2333
941 06,Komjatice,Nové Zámky,NI,48.15,18.1833
941 07,Ve?ký Kýr,Nové Zámky,NI,48.1833,18.1667
941 08,Rastislavice,Nové Zámky,NI,48.1333,18.1
941 09,Kendereš,Nové Zámky,NI,48.1333,18.025
941 10,Tvrdošovce,Nové Zámky,NI,48.1,18.0667
941 11,?udovítov,Nové Zámky,NI,48.0333,18.1167
941 21,Komo?a,Nové Zámky,NI,47.95,18.0333
941 22,Zemné,Nové Zámky,NI,47.9833,18
941 23,Andovce,Nové Zámky,NI,48,18.1167
941 31,Branovo,Nové Zámky,NI,48.0333,18.3
941 32,Semerovo,Nové Zámky,NI,48.0167,18.35
941 33,Kolta,Nové Zámky,NI,48.0167,18.4167
941 34,Jasová,Nové Zámky,NI,47.9833,18.4
941 35,Dubník,Nové Zámky,NI,48.9167,21.4667
941 36,Rúba?,Nové Zámky,NI,47.9333,18.4
941 37,Štefan,Nové Zámky,NI,47.8833,18.3667
941 41,Beše?ov,Nové Zámky,NI,48.05,18.2667
941 42,Ve?ké Lovce,Nové Zámky,NI,48.0667,18.3333
941 43,Dolný Ohaj,Nové Zámky,NI,48.0833,18.25
941 44,Vlkas,Nové Zámky,NI,48.1167,18.2833
941 45,Malá Ma?a,Nové Zámky,NI,48.15,18.2667
941 46,Trávnica,Nové Zámky,NI,48.15,18.3333
941 47,Radava,Nové Zámky,NI,48.1,18.3
941 48,Belek,Nové Zámky,NI,48.1,18.35
941 49,Bardo?ovo,Nové Zámky,NI,48.1167,18.4167
941 50,Dedinka,Nové Zámky,NI,48.0667,18.4333
941 51,Pozba,Nové Zámky,NI,48.1167,18.3833
941 61,Michal nad Žitavou,Nové Zámky,NI,48.1833,18.2833
941 62,Kme?ovo,Nové Zámky,NI,48.1667,18.2833
942 01,Nitriansky Hrádok,Nové Zámky,NI,48.0667,18.2
943 04,Obid,Nové Zámky,NI,47.7833,18.65
943 41,Arad,Nové Zámky,NI,47.8833,18.4833
943 42,Nová Osada,Nové Zámky,NI,47.8611,18.5556
943 52,Jurský Chlm,Nové Zámky,NI,47.8556,18.5611
943 53,Belá,Nové Zámky,NI,47.85,18.6
943 54,Svodín,Nové Zámky,NI,47.9167,18.5
943 55,Bruty,Nové Zámky,NI,47.9167,18.5833
943 56,Kolónia,Nové Zámky,NI,47.9167,18.65
943 57,Kamenín,Nové Zámky,NI,47.8833,18.65
943 58,Kamenný Most,Nové Zámky,NI,47.85,18.6667
943 59,Sikeni?ka,Nové Zámky,NI,47.9333,18.6833
943 60,Nána,Nové Zámky,NI,47.8167,18.7167
943 61,Salka,Nové Zámky,NI,47.8833,18.7667
943 65,Malá nad Hronom,Nové Zámky,NI,47.85,18.6833
943 66,Ková?ov,Nové Zámky,NI,47.8583,18.7333
925 71,Horný Jatov,Ša?a,NI,48.15,17.9667
925 72,Selice,Ša?a,NI,48.0833,17.9833
925 81,Diakovce,Ša?a,NI,48.1333,17.85
925 82,Tešedíkovo,Ša?a,NI,48.1,17.85
925 83,Žihárec,Ša?a,NI,48.0667,17.9
925 84,Vl?any,Ša?a,NI,48.0333,17.95
925 85,Neded,Ša?a,NI,48.0167,17.9833
925 91,Krá?ová nad Váhom,Ša?a,NI,48.1667,17.85
927 01,Hetmé?,Ša?a,NI,48.1667,17.8667
927 05,Dlhá nad Váhom,Ša?a,NI,48.1667,17.8667
951 31,Mo?enok,Ša?a,NI,48.2333,17.9333
951 32,Horná Krá?ová,Ša?a,NI,48.2333,17.9167
951 33,Hájske,Ša?a,NI,48.2938,17.9104
955 01,Tovarníky,Topo??any,NI,48.5667,18.15
956 01,Blesovce,Topo??any,NI,48.55,18.0333
956 02,K?a?any,Topo??any,NI,48.5333,18.1
956 03,Hajná Nová Ves,Topo??any,NI,48.5333,18.0333
956 05,Nitrianska Blatnica,Topo??any,NI,48.55,17.9667
956 06,Svrbice,Topo??any,NI,48.5167,17.8833
956 07,Behynce,Topo??any,NI,48.5167,17.9667
956 08,?ermany,Topo??any,NI,48.4667,18.0333
956 11,Dvorany nad Nitrou,Topo??any,NI,48.4833,18.1167
956 12,Belince,Topo??any,NI,48.4667,18.1
956 13,Hrušovany,Topo??any,NI,48.4333,18.1
956 14,Súlovce,Topo??any,NI,48.4667,18.1667
956 15,Kovarce,Topo??any,NI,48.5,18.1667
956 16,?e?adince,Topo??any,NI,48.5167,18.1667
956 17,Sol?any,Topo??any,NI,48.5333,18.2
956 19,Krn?a,Topo??any,NI,48.55,18.25
956 21,Tesáre,Topo??any,NI,48.6,18.0833
956 22,Tvrdomestice,Topo??any,NI,48.6333,18.1333
956 31,Horné Chlebany,Topo??any,NI,48.6,18.2333
956 32,Raj?any,Topo??any,NI,48.6167,18.2333
956 38,Sol?ianky,Topo??any,NI,48.6167,18.2
951 52,Vieska nad Žitavou,Zlaté Moravce,NI,48.3167,18.3667
951 62,Nevidzany,Zlaté Moravce,NI,48.85,18.4833
951 71,Dolné S?ažany,Zlaté Moravce,NI,48.3833,18.3333
951 72,Neverice,Zlaté Moravce,NI,48.3667,18.2833
951 75,Pustý Chotár,Zlaté Moravce,NI,48.35,18.3
951 76,Cho?a,Zlaté Moravce,NI,48.3667,18.3333
951 77,Ladice,Zlaté Moravce,NI,48.4,18.2667
951 81,Nem?i?any,Zlaté Moravce,NI,48.3,18.4667
951 82,Ve?ké Vozokany,Zlaté Moravce,NI,48.3167,18.4167
951 85,Skýcov,Zlaté Moravce,NI,48.5167,18.4167
951 87,Závada,Zlaté Moravce,NI,48.3333,18.4667
951 91,Zlatno,Zlaté Moravce,NI,48.425,18.35
951 92,Žikava,Zlaté Moravce,NI,48.45,18.3833
951 93,Topo??ianky,Zlaté Moravce,NI,48.4167,18.4167
951 94,Hostie,Zlaté Moravce,NI,48.45,18.45
951 95,Obyce,Zlaté Moravce,NI,48.4333,18.45
951 96,Jed?ové Kosto?any,Zlaté Moravce,NI,48.4667,18.5
951 97,Žitavany,Zlaté Moravce,NI,48.437,18.4111
953 01,Chyzerovce,Zlaté Moravce,NI,48.3667,18.3833
953 05,?ierne K?a?any,Zlaté Moravce,NI,48.3667,18.4167
966 54,Tekovské Nemce,Zlaté Moravce,NI,48.3667,18.5333
085 01,Bardejovská Zábava,Bardejov,PV,49.3,21.2667
086 01,Tarnov,Bardejov,PV,49.3167,21.1667
086 02,Cige?ka,Bardejov,PV,49.3667,21.1567
086 04,Bogliarka,Bardejov,PV,49.2667,21.15
086 05,Lukov,Bardejov,PV,49.3,21.0833
086 06,Snakov,Bardejov,PV,49.3167,21.05
086 11,Komárov,Bardejov,PV,49.2667,21.35
086 12,Dubinné,Bardejov,PV,49.25,21.45
086 14,Hažlín,Bardejov,PV,49.3,21.4333
086 21,Vyšná Vo?a,Bardejov,PV,49.25,21.3667
086 22,K?ušovská Zábava,Bardejov,PV,49.2375,21.25
086 31,Bardejovské Kúpele,Bardejov,PV,49.3333,21.2667
086 33,Stebnícka Huta,Bardejov,PV,49.4167,21.25
086 35,Becherov,Bardejov,PV,49.4167,21.3167
086 36,Varadka,Bardejov,PV,49.4167,21.3833
086 37,Andrejová,Bardejov,PV,49.3333,21.35
086 41,Abrahámovce,Bardejov,PV,49.1595,21.3238
086 42,Bartošovce,Bardejov,PV,49.2,21.2833
086 43,Buclovany,Bardejov,PV,49.15,21.3667
086 45,Lascov,Bardejov,PV,49.1667,21.4833
086 46,Hankovce,Bardejov,PV,49.2,21.4167
087 01,Brezov,Bardejov,PV,49.15,21.5
066 01,Brestov,Humenné,PV,48.9667,21.8833
067 01,Hrabovec nad Laborcom,Humenné,PV,49.1,21.95
067 11,Vyšné Ladi?kovce,Humenné,PV,49.0333,21.9
067 12,Deda?ov,Humenné,PV,49.0333,21.9833
067 13,Jablo?,Humenné,PV,49.0667,21.9833
067 22,Slovenská Volová,Humenné,PV,48.9833,21.85
067 23,Baškovce,Humenné,PV,49.0333,21.8333
067 24,Ví?azovce,Humenné,PV,49.0167,21.8
067 31,Udavské,Humenné,PV,48.9833,21.9667
067 32,Adidovce,Humenné,PV,49.0167,22.05
067 33,Nechválova Polianka,Humenné,PV,49.075,22.0667
067 34,Vyšná Jablonka,Humenné,PV,49.15,22.1167
067 41,Chlmec,Humenné,PV,48.8833,21.9333
067 45,Karná,Humenné,PV,48.9833,21.8
067 82,Modra nad Cirochou,Humenné,PV,48.9667,22.0667
067 83,Hažín nad Cirochou,Humenné,PV,48.9333,21.9667
094 06,Košarovce,Humenné,PV,49.05,21.7833
094 07,Ruská Kaj?a,Humenné,PV,49.1167,21.8333
094 08,Závada,Humenné,PV,49.1833,21.7833
059 01,Strážky,Kežmarok,PV,49.1667,20.45
059 02,Slovenská Ves,Kežmarok,PV,49.2333,20.4333
059 04,Zálesie,Kežmarok,PV,49.3167,20.3833
059 06,?ervený Kláštor,Kežmarok,PV,49.4,20.4167
059 07,Lendak,Kežmarok,PV,49.2333,20.35
059 52,Ve?ká Lomnica,Kežmarok,PV,49.1167,20.3667
059 71,Hradisko,Kežmarok,PV,49.0833,20.475
059 72,Vrbov,Kežmarok,PV,49.0833,20.4333
059 73,Žakovce,Kežmarok,PV,49.0833,20.4
059 76,Stráne pod Tatrami,Kežmarok,PV,49.1667,20.3667
059 78,Ve?ká Franková,Kežmarok,PV,49.3333,20.3
059 79,Ostur?a,Kežmarok,PV,49.3333,20.2333
059 92,Huncovce,Kežmarok,PV,49.1167,20.3833
059 93,Bušovce,Kežmarok,PV,49.2167,20.4833
059 94,Jurské,Kežmarok,PV,49.2,20.5333
059 95,Toporec,Kežmarok,PV,49.2667,20.5
060 01,Malý Slavkov,Kežmarok,PV,49.1333,20.3833
061 01,Spišská Stará Ves,Kežmarok,PV,49.3833,20.3667
053 02,Roškovce,Levo?a,PV,49.0042,20.6667
053 03,Jablonov,Levo?a,PV,49.0167,20.7333
053 04,Studenec,Levo?a,PV,49.0167,20.7667
053 05,Beharovce,Levo?a,PV,49,20.8167
053 06,Bijacovce,Levo?a,PV,49.0333,20.8
053 14,Spišský Štvrtok,Levo?a,PV,49,20.4667
053 71,Nižné Repaše,Levo?a,PV,49.0833,20.7167
053 72,Torysky,Levo?a,PV,49.1,20.6833
053 73,Brutovce,Levo?a,PV,49.0833,20.7833
053 74,Vyšný Slavkov,Levo?a,PV,49.0667,20.8667
054 01,Levo?ské Lúky,Levo?a,PV,49.0222,20.5556
067 02,?abiny,Medzilaborce,PV,49.225,21.8667
067 04,Repejov,Medzilaborce,PV,49.2,21.9833
067 16,Výrava,Medzilaborce,PV,49.2,22
067 52,?ertižné,Medzilaborce,PV,49.35,21.8333
068 01,Kalinov,Medzilaborce,PV,49.3167,21.9333
058 01,Spišská Sobota,Poprad,PV,49.0667,20.3333
059 11,Úsvit,Poprad,PV,49.0333,20.35
059 12,Ondrej,Poprad,PV,49.025,20.2
059 13,Jánovce,Poprad,PV,49.0167,20.45
059 14,Spišský Štiavnik,Poprad,PV,49,20.3667
059 16,Hranovnica,Poprad,PV,48.9833,20.3167
059 17,Vernár,Poprad,PV,48.9167,20.2667
059 18,Spišské Bystré,Poprad,PV,48.9833,20.25
059 19,Vikartovce,Poprad,PV,48.9833,20.1667
059 21,Svit,Poprad,PV,49.0667,20.2
059 31,Lu?ivná,Poprad,PV,49.05,20.15
059 34,Spišská Teplica,Poprad,PV,49.05,20.25
059 35,Batizovce,Poprad,PV,49.0833,20.2
059 36,Mengusovce,Poprad,PV,49.0667,20.15
059 37,Štôla,Poprad,PV,49.1,20.15
059 38,Štrba,Poprad,PV,49.0667,20.0833
059 39,Šu?ava,Poprad,PV,49.0333,20.1
059 40,Liptovská Tepli?ka,Poprad,PV,48.9667,20.1
059 41,Tatranská Štrba,Poprad,PV,48.9667,20.1
059 42,Gerlachov,Poprad,PV,49.3167,21.15
059 51,Matejovce,Poprad,PV,48.9167,20.6833
059 53,Tatranské Matliare,Poprad,PV,49.2167,20.2667
059 54,Tatranská Kotlina,Poprad,PV,49.2333,20.3167
059 55,Ždiar,Poprad,PV,49.2667,20.2667
059 56,Tatranská Javorina,Poprad,PV,49.275,20.1667
059 60,Tatranská Lesná,Poprad,PV,49.1667,20.2833
059 81,Dolný Smokovec,Poprad,PV,49.1333,20.25
059 83,Nová Polianka,Poprad,PV,49.2833,21.6167
059 84,Vyšné Hágy,Poprad,PV,49.1167,20.1333
059 85,Štrbské Pleso,Poprad,PV,49.1167,20.05
059 86,Nová Lesná,Poprad,PV,49.1167,20.2833
059 91,Ve?ký Slavkov,Poprad,PV,49.1,20.2833
062 01,Vysoké Tatry,Poprad,PV,49.1333,20.2167
080 01,Šalgovík,Prešov,PV,49,21.2833
080 05,Teriakovce,Prešov,PV,48.9833,21.3167
080 06,Vyšná Šebastová,Prešov,PV,49.0167,21.3333
082 01,Drienovská Nová Ves,Prešov,PV,48.9,21.25
082 03,Bretejovce,Prešov,PV,48.8333,21.3
082 04,Drienov,Prešov,PV,48.8667,21.2667
082 05,Šarišské Bohdanovce,Prešov,PV,48.85,21.3167
082 06,Žeh?a,Prešov,PV,48.9167,21.35
082 07,Tuhrina,Prešov,PV,48.9,21.4167
082 12,Trnkov,Prešov,PV,49.0333,21.3667
082 13,Demjata,Prešov,PV,49.1,21.3167
082 14,Šarišská Trstená,Prešov,PV,49.0833,21.3833
082 15,Podhrabina,Prešov,PV,49.0667,21.45
082 16,Záhradné,Prešov,PV,49.0833,21.2667
082 21,Ve?ký Šariš,Prešov,PV,49.05,21.2
082 32,Kojatická Dolina,Prešov,PV,49.0083,21.125
082 33,Chminianske Jakubovany,Prešov,PV,48.9833,21
082 35,Štefanovce,Prešov,PV,49.0278,21.0167
082 36,La?nov,Prešov,PV,49.0667,20.9333
082 37,Pod Braniskom,Prešov,PV,49.0083,20.9583
082 38,Ví?az,Prešov,PV,48.9667,20.95
082 41,Bajerov,Prešov,PV,48.95,21.1167
082 42,Bzenov,Prešov,PV,48.95,21.1667
082 43,Suchá Dolina,Prešov,PV,48.9167,21.15
082 44,Klenov,Prešov,PV,48.9333,21.0667
082 52,Zlatá Ba?a,Prešov,PV,48.95,21.4333
082 53,Záborské,Prešov,PV,48.95,21.3
082 66,Gregorovce,Prešov,PV,49.0667,21.2167
082 67,Hradisko,Prešov,PV,49.125,21.2542
082 22,Šarišské Micha?any,Sabinov,PV,49.0667,21.1167
082 56,?ervenica pri Sabinove,Sabinov,PV,49.15,21.0278
082 57,?utina,Sabinov,PV,49.1667,21.05
082 61,Uzovský Šalgov,Sabinov,PV,49.1,21.0667
082 62,Uzovské Pek?any,Sabinov,PV,49.0833,21.0333
082 63,Mo?id?any,Sabinov,PV,49.0667,21.0667
082 71,Budzín,Sabinov,PV,49.1625,20.9667
082 73,Bajerovce,Sabinov,PV,49.2167,20.8
082 74,Tichý Potok,Sabinov,PV,49.15,20.7833
082 75,Nižný Slavkov,Sabinov,PV,49.1,20.85
082 76,Torysa,Sabinov,PV,49.1667,20.8833
083 01,Drienica,Sabinov,PV,49.1333,21.1167
067 35,?ukalovce,Snina,PV,49.1,22.1667
067 61,Stak?ínska Roztoka,Snina,PV,49.0056,22.25
067 65,Topo?a,Snina,PV,49.05,22.3667
067 66,Ruský Potok,Snina,PV,49.0333,22.4333
067 67,Uli?ské Krivé,Snina,PV,48.9833,22.45
067 68,Zboj,Snina,PV,49.0333,22.4833
067 71,Ladomirov,Snina,PV,48.9333,22.3167
067 72,Ruská Volová,Snina,PV,48.9583,22.3333
067 73,Dúbrava,Snina,PV,48.9167,22.3889
067 74,Hrabová Roztoka,Snina,PV,48.8833,22.3
067 77,Zemplínske Hámre,Snina,PV,48.9204,22.3389
067 81,Belá nad Cirochou,Snina,PV,48.9667,22.1
069 01,Snina,Snina,PV,48.9833,22.15
064 01,Chme?nica,Stará ?ubov?a,PV,49.3,20.7333
065 01,Forbasy,Stará ?ubov?a,PV,49.3,20.6167
065 02,Ružbachy - kúpele,Stará ?ubov?a,PV,49.2917,20.575
065 03,Podolínec,Stará ?ubov?a,PV,49.2667,20.5333
065 11,Kola?kov,Stará ?ubov?a,PV,49.2667,20.6333
065 12,Jakubany,Stará ?ubov?a,PV,49.25,20.7
065 21,Hrani?né,Stará ?ubov?a,PV,49.3667,20.7167
065 22,Pilhov?ík,Stará ?ubov?a,PV,49.4125,20.7292
065 31,Jarabina,Stará ?ubov?a,PV,49.3333,20.6667
065 32,Kamienka,Stará ?ubov?a,PV,48.9167,22
065 33,Strá?any,Stará ?ubov?a,PV,49.3667,20.5333
065 34,Ve?ká Lesná,Stará ?ubov?a,PV,49.3333,20.45
065 41,Podpílie,Stará ?ubov?a,PV,48.9792,20.6292
065 42,Ruská Vo?a nad Popradom,Stará ?ubov?a,PV,49.2917,20.95
065 43,Andrejovka,Stará ?ubov?a,PV,49.2833,20.9
065 44,Podzámok,Stará ?ubov?a,PV,49.2667,20.85
065 45,Údol,Stará ?ubov?a,PV,49.3,20.8167
065 46,Sulín,Stará ?ubov?a,PV,49.34,20.8033
065 48,Šarišské Jastrabie,Stará ?ubov?a,PV,49.25,20.9167
090 21,Vislava,Stropkov,PV,49.2833,21.6667
090 22,O?šavka,Stropkov,PV,49.3,21.7083
090 23,Drie?na,Stropkov,PV,49.269,21.7833
090 24,Malá Po?ana,Stropkov,PV,49.2833,21.8167
090 31,Brusnica,Stropkov,PV,49.15,21.7
090 32,Mi?ovce,Stropkov,PV,49.1333,21.65
090 33,Turany nad Ondavou,Stropkov,PV,49.1,21.6667
090 34,Mrázovce,Stropkov,PV,49.1167,21.6833
091 01,Šandal,Stropkov,PV,49.1833,21.6167
086 44,Želmanovce,Svidník,PV,49.1167,21.4333
089 01,Svidník,Svidník,PV,49.3,21.5667
090 01,Dobroslava,Svidník,PV,49.3667,21.6167
090 02,Dlho?a,Svidník,PV,49.4,21.5667
090 03,Hunkovce,Svidník,PV,49.35,21.65
090 05,Bodružal,Svidník,PV,49.3733,21.6917
090 11,Nižný Mirošov,Svidník,PV,49.3833,21.4333
090 16,Cernina,Svidník,PV,49.3,21.4833
090 41,Hrabov?ík,Svidník,PV,49.2833,21.5667
090 42,Be?adikovce,Svidník,PV,49.2333,21.55
093 01,?i?ava,Vranov nad Top?ou,PV,48.9167,21.6667
093 02,Hencovce,Vranov nad Top?ou,PV,48.8833,21.7333
093 03,?emerné,Vranov nad Top?ou,PV,48.8833,21.6667
094 01,Tovarné,Vranov nad Top?ou,PV,48.9167,21.7667
094 02,Slovenská Kaj?a,Vranov nad Top?ou,PV,48.9667,21.7
094 03,Žalobín,Vranov nad Top?ou,PV,48.9667,21.7333
094 04,Nová Kel?a,Vranov nad Top?ou,PV,49.0155,21.756
094 05,Giglovce,Vranov nad Top?ou,PV,49,21.7333
094 09,Sedliská,Vranov nad Top?ou,PV,48.9,21.7333
094 12,Banské,Vranov nad Top?ou,PV,48.8333,21.5833
094 13,Sa?urov,Vranov nad Top?ou,PV,48.8167,21.7
094 14,Se?ovská Polianka,Vranov nad Top?ou,PV,48.7833,21.7
094 15,Zámutov,Vranov nad Top?ou,PV,48.9,21.5667
094 21,Ku?ín,Vranov nad Top?ou,PV,48.8556,21.7611
094 22,Nižný Hrušov,Vranov nad Top?ou,PV,48.8,21.7833
094 23,Dobrianky,Vranov nad Top?ou,PV,48.9667,21.6417
094 31,Grodzin,Vranov nad Top?ou,PV,49.0464,21.525
094 33,Skrabské,Vranov nad Top?ou,PV,49.0167,21.5833
094 34,Bystré,Vranov nad Top?ou,PV,49.0167,21.55
094 35,?aklov,Vranov nad Top?ou,PV,48.9,21.6333
929 01,Dunajská Streda,Dunajská Streda,TA,47.9833,17.6167
930 01,Ve?ké Blahovo,Dunajská Streda,TA,48.0167,17.5833
930 02,Dolná Potô?,Dunajská Streda,TA,48.0167,17.55
930 03,Jastrabie Kra?any,Dunajská Streda,TA,48,17.55
930 04,Baka,Dunajská Streda,TA,47.9,17.5333
930 05,Gab?íkovo,Dunajská Streda,TA,47.9,17.5833
930 06,Sap,Dunajská Streda,TA,47.8167,17.6167
930 07,K?ú?ovec,Dunajská Streda,TA,47.8,17.6667
930 08,Vrbina,Dunajská Streda,TA,47.8333,17.7167
930 10,Dolný Štál,Dunajská Streda,TA,47.9333,17.7167
930 11,Topo?níky,Dunajská Streda,TA,47.9667,17.7833
930 12,Ohrady,Dunajská Streda,TA,47.9833,17.7
930 13,Horné Mýto,Dunajská Streda,TA,48.0167,17.7667
930 14,Dolný Bar,Dunajská Streda,TA,47.9667,17.6833
930 16,Vydrany,Dunajská Streda,TA,48.0167,17.5833
930 21,Dunajský Klátov,Dunajská Streda,TA,48.0333,17.7
930 25,Vrakú?,Dunajská Streda,TA,47.95,17.6
930 28,Madérét,Komárno,TA,47.8917,17.8167
930 30,Bá?,Dunajská Streda,TA,48.0167,17.3833
930 31,Bodíky,Dunajská Streda,TA,47.9167,17.4667
930 32,Blatná na Ostrove,Dunajská Streda,TA,48,17.4333
930 33,Šu?any,Dunajská Streda,TA,47.95,17.45
930 34,Stará Gala,Dunajská Streda,TA,47.9833,17.4833
930 35,Michal na Ostrove,Dunajská Streda,TA,48.034,17.4407
930 36,?e?ínska Potô?,Dunajská Streda,TA,48.0333,17.5167
930 37,Malý Lég,Dunajská Streda,TA,48.05,17.4667
930 38,Eliášovce,Dunajská Streda,TA,48.1167,17.4667
930 39,Rastice,Dunajská Streda,TA,48.1167,17.4167
930 40,?akany,Dunajská Streda,TA,48.1167,17.3667
930 41,Hviezdoslavov,Dunajská Streda,TA,48.0667,17.35
930 51,?ukárska Paka,Dunajská Streda,TA,48.0333,17.3833
930 52,Horná Potô? - Lúky,Dunajská Streda,TA,48.0333,17.4833
931 01,Šamorín,Dunajská Streda,TA,48.0333,17.3167
932 01,Ve?ký Meder,Dunajská Streda,TA,47.8667,17.7667
924 01,Galanta,Galanta,TA,48.2,17.7167
925 01,Javorinka,Galanta,TA,48.1667,17.7333
925 02,Dolné Saliby,Galanta,TA,48.1,17.7833
925 03,Horné Saliby,Galanta,TA,48.1167,17.75
925 04,Tomášikovo,Galanta,TA,48.0833,17.7
925 05,Vozokany,Galanta,TA,48.5667,18
925 06,?ierna Voda,Galanta,TA,48.1333,17.6667
925 07,Mostová,Galanta,TA,48.15,17.6833
925 08,?ierny Brod,Galanta,TA,48.15,17.6667
925 09,Košúty,Galanta,TA,49.0833,18.9333
925 21,Malá Ma?a,Galanta,TA,48.2167,17.65
925 22,Ve?ké Ú?any,Galanta,TA,48.1667,17.5833
925 27,Ve?ký Grob,Galanta,TA,48.25,17.5
925 28,Pusté Ú?any,Galanta,TA,48.2333,17.5667
925 32,Ve?ká Ma?a,Galanta,TA,48.25,17.7
925 41,Krá?ov Brod,Galanta,TA,48.0667,17.8333
925 42,Trstice,Galanta,TA,48.0167,17.8167
925 45,Abrahám,Galanta,TA,48.25,17.6167
925 51,Šintava,Galanta,TA,48.2833,17.7667
925 52,Šopor?a,Galanta,TA,48.25,17.8167
925 53,Pata,Galanta,TA,48.2833,17.8333
925 54,Zemianske Sady,Galanta,TA,48.3333,17.8167
925 55,Vinohrady nad Váhom,Galanta,TA,48.3,17.8139
925 62,Váhovce,Galanta,TA,48.25,17.7833
925 63,Dolná Streda,Galanta,TA,48.2667,17.75
925 92,Pa?ovce,Galanta,TA,48.175,17.8
926 01,Horný ?epe?,Galanta,TA,48.3315,17.7537
919 33,Trakovice,Hlohovec,TA,48.4333,17.7
920 01,Koplotovce,Hlohovec,TA,48.4667,17.8167
920 03,Šulekovo,Hlohovec,TA,48.4333,17.7667
920 41,Leopoldov,Hlohovec,TA,48.45,17.7667
920 42,Žlkovce,Hlohovec,TA,48.4667,17.7167
920 52,Dolné Zelenice,Hlohovec,TA,48.3833,17.75
920 55,Bojni?ky,Hlohovec,TA,48.4,17.8
920 56,Dvorníky,Hlohovec,TA,48.35,17.8
920 61,Dolné Otrokovce,Hlohovec,TA,48.4667,17.9333
920 62,Tekol?any,Hlohovec,TA,48.5,17.9
920 63,Pastuchov,Hlohovec,TA,48.4333,17.8833
920 64,K?a?any,Hlohovec,TA,48.85,18.65
920 65,Sasinkovo,Hlohovec,TA,48.3833,17.85
920 66,Horné Trhovište,Hlohovec,TA,48.4667,17.8667
922 31,Jalšové,Hlohovec,TA,48.5,17.8333
922 42,Madunice,Hlohovec,TA,48.4833,17.7833
921 01,Banka,Pieš?any,TA,48.5833,17.85
922 01,Ve?ké Orvište,Pieš?any,TA,48.6167,17.8
922 02,Krakovany,Pieš?any,TA,48.6167,17.7667
922 03,Šípkové,Pieš?any,TA,48.6667,17.7167
922 04,Lan?ár,Pieš?any,TA,48.6,17.65
922 05,Chtelnica,Pieš?any,TA,48.5667,17.6167
922 06,Nižná,Pieš?any,TA,48.5333,17.65
922 07,Ve?ké Kosto?any,Pieš?any,TA,48.5,17.7167
922 08,Dubovany,Pieš?any,TA,48.5333,17.7333
922 09,Borovce,Pieš?any,TA,48.5833,17.75
922 10,Trebatice,Pieš?any,TA,48.6,17.75
922 11,Pustá Ves,Pieš?any,TA,48.6333,17.6333
922 21,Ducové,Pieš?any,TA,48.6333,17.8667
922 41,Drahovce,Pieš?any,TA,48.5167,17.8
905 01,Rovensko,Senica,TA,48.7167,17.3833
906 02,Doj?,Senica,TA,48.6667,17.2667
906 03,Koválov,Senica,TA,48.7,17.2833
906 04,Havran,Senica,TA,48.7667,17.3667
906 05,Majerí?ky,Senica,TA,48.7333,17.4333
906 07,Šajdíkove Humence,Senica,TA,48.65,17.2667
906 11,Podhorie,Senica,TA,48.6667,17.45
906 12,Hradište pod Vrátnom,Senica,TA,48.6333,17.5
906 31,Hlboké,Senica,TA,48.6667,17.4167
906 32,Jablonica,Senica,TA,48.6,17.4167
906 33,Cerová,Senica,TA,48.5667,17.4
906 34,Prievaly,Senica,TA,48.5667,17.35
906 45,Štefanov,Senica,TA,48.6833,17.2
908 01,Kúty,Senica,TA,48.6667,17.0167
908 41,Šaštín,Senica,TA,48.6333,17.15
908 42,Smolinské,Senica,TA,48.6833,17.1333
908 43,?áry,Senica,TA,48.65,17.1
908 71,Moravský Svätý Ján,Senica,TA,48.5833,17.0167
908 76,Mikulášov,Senica,TA,48.5667,17.2167
908 77,Bílkove Humence,Senica,TA,48.5833,17.2333
908 78,Kuklov,Senica,TA,48.6333,17.0833
908 79,Borský Svätý Jur,Senica,TA,48.6167,17.05
908 80,Sekule,Senica,TA,48.6,17
908 44,Letni?ie,Skalica,TA,48.7167,17.1833
908 45,Gbely,Skalica,TA,48.7167,17.1333
908 46,Unín,Skalica,TA,48.7333,17.2167
908 47,Radimov,Skalica,TA,48.75,17.2
908 48,Kop?any,Skalica,TA,48.7833,17.1167
908 49,Vrádište,Skalica,TA,48.8167,17.2
908 51,Holí?,Skalica,TA,48.8,17.1667
908 61,Popudinské Mo?id?any,Skalica,TA,48.7738,17.281
908 62,Dubovce,Skalica,TA,48.7667,17.2417
908 63,Koválovec,Skalica,TA,48.7833,17.3
908 64,Chropov,Skalica,TA,48.7667,17.3167
908 65,Mokrý Háj,Skalica,TA,48.8167,17.25
908 85,Brodské,Skalica,TA,48.7,17.0167
909 01,Skalica,Skalica,TA,48.85,17.2333
917 05,Modranka,Trnava,TA,48.35,17.6167
919 01,Suchá nad Parnou,Trnava,TA,48.4167,17.4833
919 02,Dolné Orešany,Trnava,TA,48.4333,17.4333
919 03,Horné Orešany,Trnava,TA,48.4667,17.45
919 04,Smolenice,Trnava,TA,48.5,17.4333
919 05,Rasochov,Trnava,TA,48.5333,17.4667
919 06,Horné Dubové,Trnava,TA,48.5167,17.5667
919 07,Bí?ovce,Trnava,TA,48.5,17.4833
919 08,Boleráz,Trnava,TA,48.4667,17.5
919 09,Bohdanovce nad Trnavou,Trnava,TA,48.4333,17.55
919 10,Buková,Trnava,TA,49.2667,18.6
919 21,Zelene?,Trnava,TA,48.3333,17.6
919 22,Majcichov,Trnava,TA,48.2833,17.6333
919 23,Vl?kovce,Trnava,TA,48.3167,17.6667
919 24,Križovany nad Dudváhom,Trnava,TA,48.3333,17.6667
919 25,Varov Šúr,Trnava,TA,48.3333,17.7333
919 26,Zavar,Trnava,TA,48.35,17.6833
919 27,Dolné Lov?ice,Trnava,TA,48.3667,17.6833
919 28,Bu?any,Trnava,TA,48.4167,17.7167
919 29,Malženice,Trnava,TA,48.45,17.6833
919 30,Bohunice,Trnava,TA,48.4667,17.65
919 31,SET Jaslovské Bohunice-Atómová elektráre?,Trnava,TA,48.4188,17.6292
919 32,Opoj,Trnava,TA,48.3,17.65
919 34,Biely Kostol,Trnava,TA,48.3667,17.5333
919 35,Hrn?iarovce nad Parnou,Trnava,TA,48.35,17.5667
919 42,Voderady,Trnava,TA,48.2833,17.5667
919 43,Cífer,Trnava,TA,48.3167,17.5
919 51,Špa?ince,Trnava,TA,48.4333,17.6167
919 52,Dolné Dubové,Trnava,TA,48.4833,17.6167
919 53,Dechtice,Trnava,TA,48.55,17.6
919 54,Dobrá Voda,Trnava,TA,48.6,17.5333
919 55,Kátlovce,Trnava,TA,48.5333,17.6167
919 61,Borová,Trnava,TA,48.3833,17.45
919 65,Dolná Krupá,Trnava,TA,48.4833,17.55
956 35,Nedašovce,Bánovce nad Bebravou,TC,48.6667,18.3167
956 36,Rybany,Bánovce nad Bebravou,TC,48.6667,18.25
956 37,Cimenná,Bánovce nad Bebravou,TC,48.7333,18.15
956 41,Horné Naštice,Bánovce nad Bebravou,TC,48.7333,18.3
956 42,Žitná,Bánovce nad Bebravou,TC,48.7667,18.35
956 43,Závada pod ?iernym vrchom,Bánovce nad Bebravou,TC,48.8083,18.3583
956 52,Timoradza,Bánovce nad Bebravou,TC,48.8167,18.2333
956 53,Slatinka nad Bebravou,Bánovce nad Bebravou,TC,48.85,18.25
956 54,Kochná?,Bánovce nad Bebravou,TC,48.7417,18.1625
956 55,Halá?ovce,Bánovce nad Bebravou,TC,48.7,18.2
957 01,Biskupice,Bánovce nad Bebravou,TC,48.7167,18.25
957 03,?utov,Bánovce nad Bebravou,TC,48.7833,18.2833
018 31,Malé Košecké Podhradie,Ilava,TC,48.9667,18.3
018 32,Košecké Rovné,Ilava,TC,48.9667,18.4167
018 35,Horná Poruba,Ilava,TC,48.95,18.3
018 41,Prejta,Ilava,TC,48.9667,18.2
018 51,Malý Kola?ín,Ilava,TC,48.9333,18.1833
018 52,Dulov,Ilava,TC,49.0333,18.25
018 53,Bolešov,Ilava,TC,48.9833,18.15
018 54,Tlstá Hora,Ilava,TC,49.0083,18.175
018 55,Tuchy?a,Ilava,TC,49.0333,18.2167
018 56,?ervený Kame?,Ilava,TC,49.0833,18.1833
018 57,Mikušovce,Ilava,TC,49.0667,18.2167
018 63,Ladce,Ilava,TC,49.0333,18.2833
018 64,Nozdrovice,Ilava,TC,49.0167,18.2833
019 01,Iliavka,Ilava,TC,48.9917,18.225
906 06,Chvojnica,Myjava,TC,48.8,17.4667
906 13,Brezová pod Bradlom,Myjava,TC,48.6667,17.5333
906 14,Bukovec,Myjava,TC,48.85,19.2
906 15,Košariská,Myjava,TC,48.6667,17.6
906 21,Jablonka,Myjava,TC,49.1333,22.1
906 22,Poriadie,Myjava,TC,48.6519,17.4389
906 23,Rudník,Myjava,TC,48.6833,21
907 01,Polianka,Myjava,TC,48.8667,19.2333
907 03,Turá Lúka,Myjava,TC,48.75,17.5333
916 13,Kostolné,Myjava,TC,48.7333,17.7
916 14,Hodulov Vrch,Myjava,TC,48.7273,17.7061
916 16,Podvrch,Myjava,TC,48.6967,17.6667
913 06,Tren?ianske Bohuslavice,Nové Mesto n.Váhom,TC,48.8,17.8667
913 07,Zemianske Podhradie,Nové Mesto n.Váhom,TC,48.85,17.8333
913 08,Nová Bošáca,Nové Mesto n.Váhom,TC,48.8881,17.9417
915 01,Nové Mesto nad Váhom,Nové Mesto n.Váhom,TC,48.75,17.8333
916 01,Jazviny,Nové Mesto n.Váhom,TC,48.7833,17.675
916 11,Hrušové,Nové Mesto n.Váhom,TC,48.7667,17.75
916 12,Miškech Dedinka,Nové Mesto n.Váhom,TC,48.7833,17.7333
916 15,Hrachovište,Nové Mesto n.Váhom,TC,48.7167,17.7333
916 21,?achtice,Nové Mesto n.Váhom,TC,48.7167,17.7833
916 22,O?kov,Nové Mesto n.Váhom,TC,48.65,17.7667
916 23,Pobedim,Nové Mesto n.Váhom,TC,48.65,17.8
916 24,Horná Streda,Nové Mesto n.Váhom,TC,48.6667,17.85
916 25,Brunovce,Nové Mesto n.Váhom,TC,48.6667,17.85
916 26,Mošovce,Nové Mesto n.Váhom,TC,48.7,17.85
916 27,?astkovce,Nové Mesto n.Váhom,TC,48.6833,17.7833
916 31,Beckovská Vieska,Nové Mesto n.Váhom,TC,48.75,17.8833
916 32,Hôrka nad Váhom,Nové Mesto n.Váhom,TC,48.7167,17.8833
916 33,Hrádok,Nové Mesto n.Váhom,TC,48.7,17.8833
916 35,Stará Lehota,Nové Mesto n.Váhom,TC,48.65,17.95
916 37,Kalnica,Nové Mesto n.Váhom,TC,48.7667,17.9333
916 38,Beckov,Nové Mesto n.Váhom,TC,48.7833,17.9
916 41,Dolné Srnie,Nové Mesto n.Váhom,TC,48.8,17.8167
916 42,Brestové,Nové Mesto n.Váhom,TC,48.6833,17.4
956 18,Baštín,Partizánske,TC,48.5667,18.2333
956 33,Chynorany,Partizánske,TC,48.6167,18.2833
956 34,Malé Ostratice,Partizánske,TC,48.65,18.2833
958 03,Ve?ké Kršte?any,Partizánske,TC,48.65,18.4167
958 04,Návojovce,Partizánske,TC,48.65,18.3667
958 41,Ve?ké Uherce,Partizánske,TC,48.6,18.4333
958 42,Brodzany,Partizánske,TC,48.6,18.35
958 43,Krásno,Partizánske,TC,48.6,18.3167
958 44,Sádok,Partizánske,TC,48.5667,18.2667
958 45,Klížske Hradište,Partizánske,TC,48.55,18.3833
958 52,Žabokreky nad Nitrou,Partizánske,TC,48.6333,18.3
958 53,Ska?any,Partizánske,TC,48.6667,18.3833
958 54,Hradište,Partizánske,TC,48.6833,18.3833
017 01,Horný Moštenec,Považská Bystrica,TC,49.0667,18.4667
017 04,Šebeš?anová,Považská Bystrica,TC,49.15,18.4667
017 05,Záskalie,Považská Bystrica,TC,49.1417,18.5083
017 06,Milochov,Považská Bystrica,TC,49.1333,18.3833
017 07,Zemiansky Kvašov,Považská Bystrica,TC,49.0833,18.4667
018 01,Udi?a,Považská Bystrica,TC,49.175,18.3833
018 02,Hadoše,Považská Bystrica,TC,49.2125,18.3667
018 03,Hlboké,Považská Bystrica,TC,49.2667,18.3056
018 12,Brvnište,Považská Bystrica,TC,49.2167,18.4333
018 13,Podjavorník,Považská Bystrica,TC,49.2333,18.4167
018 15,Po?arová,Považská Bystrica,TC,49.0667,18.5167
018 16,?elkova Lehota,Považská Bystrica,TC,49.0167,18.5333
018 17,Jasenica,Považská Bystrica,TC,49.1833,18.45
018 21,Lieskov - Horný Lieskov,Považská Bystrica,TC,49.0556,18.4167
018 22,T?stie,Považská Bystrica,TC,49.0333,18.4667
018 26,Plevník - Drienové,Považská Bystrica,TC,49.1667,18.5
971 01,Prievidza - Staré Mesto,Prievidza,TC,48.7556,18.4704
972 01,Bojnice - kúpele,Prievidza,TC,48.7833,18.5833
972 02,Kocurany,Prievidza,TC,48.7667,18.55
972 05,Sebedražie,Prievidza,TC,48.7333,18.6333
972 11,Lazany,Prievidza,TC,48.8167,18.6333
972 12,Brezany,Prievidza,TC,48.8167,18.65
972 13,Chvojnica,Prievidza,TC,48.8833,18.5667
972 14,Tužina,Prievidza,TC,48.9,18.6167
972 15,K?a?no,Prievidza,TC,48.9,18.65
972 16,Poluvsie,Prievidza,TC,48.85,18.65
972 17,Kanianka,Prievidza,TC,48.8167,18.5833
972 21,Nitrianske Su?any,Prievidza,TC,48.7333,18.4667
972 22,Nitrica,Prievidza,TC,48.7056,18.4444
972 23,Dolné Vestenice,Prievidza,TC,48.7,18.4
972 24,Diviacka Nová Ves,Prievidza,TC,48.75,18.5
972 25,Banky,Prievidza,TC,48.7667,18.5
972 26,Nitrianske Rudno,Prievidza,TC,48.8,18.4833
972 27,Lomnica,Prievidza,TC,48.8333,18.4833
972 28,Studenec,Prievidza,TC,48.9,18.4417
972 29,Biela Voda,Prievidza,TC,48.8833,18.5
972 31,Jalovec,Prievidza,TC,48.7583,18.7583
972 32,Brusno,Prievidza,TC,48.7833,18.7167
972 41,Šajby,Prievidza,TC,48.75,18.5833
972 42,Ve?ká Lehota,Prievidza,TC,48.7,18.5833
972 43,Zemianske Kosto?any,Prievidza,TC,48.6833,18.5333
972 44,Kamenec pod Vtá?nikom,Prievidza,TC,48.6483,18.5117
972 45,Vieska,Prievidza,TC,48.6667,18.5
972 46,?ere?any,Prievidza,TC,48.65,18.4833
972 47,?ubianka,Prievidza,TC,48.6333,18.4667
972 48,Banská,Prievidza,TC,48.5833,18.5111
972 51,Handlová,Prievidza,TC,48.7333,18.7667
972 71,Laskár,Prievidza,TC,48.7167,18.5417
018 61,Hloža,Púchov,TC,49.05,18.3
020 01,Hoštiná,Púchov,TC,49.1667,18.3333
020 51,Mostište,Púchov,TC,49.1667,18.3
020 52,Zárie?ie,Púchov,TC,49.1667,18.25
020 53,Pasie?ka,Púchov,TC,49.2167,18.25
020 54,Dešná,Púchov,TC,49.2167,18.1667
020 55,Dubková,Púchov,TC,49.2,18.2167
020 61,Horenická Hôrka,Púchov,TC,49.0875,18.2708
020 62,Mo?iare,Púchov,TC,49.0667,18.2167
020 63,Lednica,Púchov,TC,49.1167,18.2167
020 64,Zubák,Púchov,TC,49.15,18.2167
020 71,Nimnica,Púchov,TC,49.1333,18.35
020 72,Mojtín,Púchov,TC,48.9833,18.4167
911 01,Kubrá,Tren?ín,TC,48.9,18.0833
911 04,Biskupice,Tren?ín,TC,48.7167,18.25
911 05,Orechové,Tren?ín,TC,48.9056,18.0333
911 06,Záblatie,Tren?ín,TC,48.9028,18.0611
913 03,Drietoma,Tren?ín,TC,48.9,17.95
913 04,Kykula,Tren?ín,TC,49.4667,18.5333
913 05,Štvrtok,Tren?ín,TC,48.8167,17.8833
913 11,Bodovka - Krivosúd,Tren?ín,TC,48.8167,17.95
913 21,Hámre,Tren?ín,TC,48.8417,18.0417
913 22,Kostolné Mitice,Tren?ín,TC,48.8167,18.1333
913 23,Dubodiel,Tren?ín,TC,48.7667,18.1
913 24,Ve?ká Hradná,Tren?ín,TC,48.7667,18.15
913 25,Bobotská Lehota,Tren?ín,TC,48.8,18.2
913 26,Bošianska Neporadza,Tren?ín,TC,48.8167,18.15
913 31,Skalská Nová Ves,Tren?ín,TC,48.9333,18.0833
913 32,Polníky,Tren?ín,TC,48.95,18.0333
913 33,Dúbrava,Tren?ín,TC,48.9722,17.9611
913 36,Selec,Tren?ín,TC,48.7833,17.9833
913 38,Soblahov,Tren?ín,TC,48.8667,18.0833
914 01,Tren?ianska Teplá,Tren?ín,TC,48.9333,18.1167
914 41,Tren?ianska Závada,Tren?ín,TC,48.9611,18.1
914 42,Horné Srnie,Tren?ín,TC,48.9833,18.1
914 43,Dolná Poruba,Tren?ín,TC,48.9167,18.3
914 51,Tren?ianske Teplice,Tren?ín,TC,48.9167,18.1667
013 51,Rašov,Byt?a,ZI,49.1833,18.5167
013 52,Sú?ov,Byt?a,ZI,49.1667,18.5833
013 53,Pláne,Byt?a,ZI,49.2667,18.5167
013 54,Bršlica,Byt?a,ZI,49.3,18.5
013 55,?ierne,Byt?a,ZI,49.25,18.4667
013 56,Hvozdnica,Byt?a,ZI,49.2167,18.4833
013 61,Oblazov,Byt?a,ZI,49.25,18.6
013 62,Žarnov,Byt?a,ZI,49.3167,18.5667
014 01,Be?ov,Byt?a,ZI,49.1833,18.4833
022 01,U Hluška,?adca,ZI,49.4067,18.68
022 04,Butty,?adca,ZI,49.4083,18.6917
023 01,Oš?adnica,?adca,ZI,49.4333,18.8833
023 02,Blažkov,?adca,ZI,48.5,18.5667
023 03,Zborov nad Bystricou,?adca,ZI,49.3833,18.8833
023 04,Lány,?adca,ZI,49.3444,18.9333
023 05,Harvelka,?adca,ZI,49.3417,19.05
023 11,U Rulcov,?adca,ZI,49.4,18.7333
023 12,Svr?inovec,?adca,ZI,49.4833,18.8
023 13,?ierne,?adca,ZI,49.5,18.8167
023 14,Skalité,?adca,ZI,49.5,18.9
023 21,Nižná Kor?a,?adca,ZI,49.4,18.55
023 22,Kornica,?adca,ZI,49.45,18.55
023 51,Raková,?adca,ZI,49.45,18.7333
023 52,Hrubý Buk,?adca,ZI,49.4333,18.65
023 53,Staškov,?adca,ZI,49.4167,18.7
023 54,Závodie,?adca,ZI,49.3833,18.625
023 55,Zátoka,?adca,ZI,49.3792,18.5417
023 56,Potok,?adca,ZI,49.3667,18.4833
023 57,Podvysoká,?adca,ZI,49.4167,18.6667
026 01,Dolný Kubín,Dolný Kubín,ZI,49.2,19.3
027 05,Ráztoky,Dolný Kubín,ZI,49.1639,19.2667
027 21,Žaškov,Dolný Kubín,ZI,49.1667,19.2167
027 41,Dolná Lehota,Dolný Kubín,ZI,49.2667,19.3833
027 51,Kra?ovany,Dolný Kubín,ZI,49.15,19.1333
027 52,Párnica,Dolný Kubín,ZI,49.2,19.2
027 53,Istebné,Dolný Kubín,ZI,49.2167,19.2167
027 54,Veli?ná,Dolný Kubín,ZI,49.2167,19.25
027 55,Chlebnice,Dolný Kubín,ZI,49.2333,19.4667
023 31,Rudina,Kysucké Nové Mesto,ZI,49.2833,18.75
023 32,Oškerda,Kysucké Nové Mesto,ZI,49.2833,18.7667
023 33,Povina,Kysucké Nové Mesto,ZI,49.3167,18.8167
023 34,Kysucký Lieskovec,Kysucké Nové Mesto,ZI,49.3333,18.8167
023 35,Ochodnica,Kysucké Nové Mesto,ZI,49.35,18.7833
023 36,Lopušné Pažite - Lopušná,Kysucké Nové Mesto,ZI,49.2833,18.85
023 41,Nesluša,Kysucké Nové Mesto,ZI,49.3167,18.75
023 45,Dolný Vadi?ov,Kysucké Nové Mesto,ZI,49.2667,18.85
024 01,Dubie,Kysucké Nové Mesto,ZI,49.3,18.7667
027 32,Huty,Liptovský Mikuláš,ZI,49.2167,19.5667
031 01,Benice,Liptovský Mikuláš,ZI,49.0667,19.5667
031 04,Vitálišovce,Liptovský Mikuláš,ZI,49.0833,19.65
031 05,Liptovská Ondrašová,Liptovský Mikuláš,ZI,49.1,19.6
032 02,Závažná Poruba,Liptovský Mikuláš,ZI,49.0667,19.65
032 03,Uhorská Ves,Liptovský Mikuláš,ZI,49.0667,19.6833
032 04,Be?adiková,Liptovský Mikuláš,ZI,49.0667,19.6833
032 05,Žiar,Liptovský Mikuláš,ZI,49.1333,19.6667
032 11,Galovany,Liptovský Mikuláš,ZI,49.0667,19.5333
032 12,Dúbrava,Liptovský Mikuláš,ZI,49.0333,21.25
032 13,Vlašky,Liptovský Mikuláš,ZI,49.1,19.4833
032 14,Fia?ice,Liptovský Mikuláš,ZI,49.0667,19.5
032 15,Magurka,Liptovský Mikuláš,ZI,48.95,19.4333
032 21,Trstené,Liptovský Mikuláš,ZI,49.1167,19.6167
032 22,Be?ušovce,Liptovský Mikuláš,ZI,49.1333,19.55
032 23,Zádiel,Liptovský Mikuláš,ZI,49.1403,19.5069
032 24,Dlhá Lúka,Liptovský Mikuláš,ZI,49.3333,21.3
032 31,Hybe,Liptovský Mikuláš,ZI,49.05,19.8333
032 32,Východná,Liptovský Mikuláš,ZI,49.0667,19.9
032 33,?ierny Váh,Liptovský Mikuláš,ZI,49.0167,19.825
032 34,Vyšná Boca,Liptovský Mikuláš,ZI,48.9333,19.75
032 42,Vavrišovo,Liptovský Mikuláš,ZI,49.0667,19.7667
032 44,Liptovská Kokava,Liptovský Mikuláš,ZI,49.0833,19.8167
032 51,Demänovská Dolina,Liptovský Mikuláš,ZI,49.0863,19.6127
032 61,Važec,Liptovský Mikuláš,ZI,49.0667,19.9833
033 01,Jamník,Liptovský Mikuláš,ZI,49.0433,19.7367
036 01,Jahodníky,Martin,ZI,49.05,18.9167
038 02,Dolný Kalník,Martin,ZI,49.05,18.9667
038 03,Záborie,Martin,ZI,49.0333,18.9833
038 04,Bystri?ka,Martin,ZI,49.05,18.8833
038 11,Belá - Dulice,Martin,ZI,49,18.9833
038 12,Necpaly,Martin,ZI,48.9833,18.9833
038 15,Blatnica,Martin,ZI,48.9333,18.9333
038 31,Vrícko,Martin,ZI,48.9667,18.7
038 35,Val?a,Martin,ZI,49,18.85
038 40,Žabokreky,Martin,ZI,49.0333,18.9333
038 41,Trebostovo,Martin,ZI,49.0333,18.8667
038 42,Benice,Martin,ZI,48.9833,18.9
038 43,Socovce,Martin,ZI,48.95,18.8667
038 51,Tur?ianska Štiavni?ka,Martin,ZI,49.1167,19.0625
038 52,Konské,Martin,ZI,49.1,19.0667
038 53,Turany,Martin,ZI,49.1167,19.05
038 54,Šútovo,Martin,ZI,49.15,19.0833
038 61,Priekopa,Martin,ZI,49.1167,18.9333
029 01,Vavre?ka,Námestovo,ZI,49.3833,19.4667
029 41,Klin,Námestovo,ZI,49.4333,19.5
029 42,Bobrov,Námestovo,ZI,49.4333,19.55
029 43,Zubrohlava,Námestovo,ZI,49.45,19.5167
029 44,Rab?a,Námestovo,ZI,49.4833,19.4833
029 45,Rab?ice,Námestovo,ZI,49.5,19.5333
029 46,Sihelné,Námestovo,ZI,49.5,19.4333
029 47,Oravská Polhora,Námestovo,ZI,49.5167,19.45
029 51,Vasi?ov,Námestovo,ZI,49.35,19.3833
029 52,Babín,Námestovo,ZI,49.3333,19.3833
029 53,Breza,Námestovo,ZI,49.3833,19.4
029 54,Krušetnica,Námestovo,ZI,49.3667,19.35
029 55,Novo?,Námestovo,ZI,49.4333,19.2667
029 56,Zákamenné,Námestovo,ZI,49.3833,19.3
029 57,Bu?ina,Námestovo,ZI,49.3738,19.1714
029 62,Oravské Veselé,Námestovo,ZI,49.4667,19.3833
029 63,Du?ov,Námestovo,ZI,49.45,19.3333
029 64,Oravská Jasenica,Námestovo,ZI,49.4556,19.35
034 01,Štiavni?ka,Ružomberok,ZI,49.0667,19.35
034 03,Biely Potok,Ružomberok,ZI,49.0333,19.3
034 05,Hrboltová,Ružomberok,ZI,49.1,19.25
034 06,?ernová,Ružomberok,ZI,49.0833,19.2667
034 71,Ludrová,Ružomberok,ZI,49.05,19.3333
034 72,Liptovská Lúžna,Ružomberok,ZI,48.9333,19.3333
034 73,Liptovská Osada,Ružomberok,ZI,48.95,19.2667
034 74,Nižná Revúca,Ružomberok,ZI,48.9333,19.2167
034 75,Korytnica - kúpele,Ružomberok,ZI,48.8833,19.3
034 81,Lisková,Ružomberok,ZI,49.0833,19.35
034 82,Kalameny,Ružomberok,ZI,49.1333,19.4167
034 83,Beše?ová,Ružomberok,ZI,49.1,19.45
034 84,Liptovské Slia?e,Ružomberok,ZI,49.0611,19.4056
034 91,Švošov,Ružomberok,ZI,49.1167,19.2
034 92,Stankovany,Ružomberok,ZI,49.15,19.1833
034 93,Hubová,Ružomberok,ZI,49.1167,19.1833
034 95,Likavka,Ružomberok,ZI,49.1,19.3167
034 96,Valaská Dubová,Ružomberok,ZI,49.1333,19.3
038 21,Mošovce,Tur?ianske Teplice,ZI,48.9,18.9
038 22,Abramová,Tur?ianske Teplice,ZI,48.9333,18.8
038 23,Budiš,Tur?ianske Teplice,ZI,48.8667,18.7667
038 44,Blažovce,Tur?ianske Teplice,ZI,48.9333,18.85
038 45,Ve?ký ?ep?ín,Tur?ianske Teplice,ZI,48.9,18.8167
038 46,Horná Štub?a,Tur?ianske Teplice,ZI,48.8167,18.8833
038 47,Sklené,Tur?ianske Teplice,ZI,48.7833,18.8333
038 48,Horný Tur?ek,Tur?ianske Teplice,ZI,48.75,18.9333
039 01,Dolná Štub?a,Tur?ianske Teplice,ZI,48.85,18.8667
027 12,Vitanová,Tvrdošín,ZI,49.35,19.7333
027 13,Hladovka,Tvrdošín,ZI,49.3667,19.7667
027 42,Oravský Biely Potok,Tvrdošín,ZI,49.2833,19.55
027 43,Nižná,Tvrdošín,ZI,49.3167,19.5167
027 44,Dolný Štefanov,Tvrdošín,ZI,49.3667,19.55
028 01,Brezovica,Tvrdošín,ZI,49.3333,19.65
010 01,Žilinská Lehota,Žilina,ZI,49.2042,18.7833
010 03,Budatín,Žilina,ZI,49.2333,18.7333
010 04,Bánová,Žilina,ZI,49.2,18.7333
010 09,Byt?ica,Žilina,ZI,49.1833,18.7333
010 14,Vranie,Žilina,ZI,49.25,18.75
013 01,Tepli?ka nad Váhom,Žilina,ZI,49.2333,18.8
013 02,Gbe?any,Žilina,ZI,49.2333,18.8333
013 03,Kras?any,Žilina,ZI,49.2167,18.9
013 04,Dolná Tižina,Žilina,ZI,49.2167,18.9167
013 05,Kubíková,Žilina,ZI,49.2611,18.9444
013 06,Horná Tižina,Žilina,ZI,49.3167,19.0333
013 11,Babkov,Žilina,ZI,49.1667,18.65
013 12,Turie,Žilina,ZI,49.15,18.75
013 13,Stránske,Žilina,ZI,49.1167,18.7
013 14,Kamenná Poruba,Žilina,ZI,48.85,21.65
013 15,?i?many,Žilina,ZI,48.95,18.5167
013 18,Podhorie,Žilina,ZI,49.175,18.6583
013 19,Zby?ov,Žilina,ZI,49.1167,18.65
013 22,Rosina,Žilina,ZI,49.1833,18.7667
013 23,Viš?ové,Žilina,ZI,49.1667,18.7833
013 24,Stre?no,Žilina,ZI,49.1833,18.8667
013 25,Strá?avy,Žilina,ZI,49.1833,18.8167
013 31,Divina,Žilina,ZI,49.2667,18.7
013 32,Forbaky - Klukany,Žilina,ZI,49.2778,18.6556
013 41,Hri?ovské Podhradie,Žilina,ZI,49.2167,18.6167
013 42,Horný Hri?ov,Žilina,ZI,49.25,18.6667
015 01,Šuja,Žilina,ZI,49.0667,18.6333
